country,city,village,number,name,address,administration,latitude,longitude,grade,type2,type
臺中市,西屯區,大福里,B060000614,民營水湳市場(男廁),台中市西屯區中清路二段189巷57號,縣市政府,24.17703600000000000,120.66770500000000000,特優級,男廁所,市場
臺中市,西屯區,惠來里,B060000533,財政部中區國稅局臺中分局1F(男廁),臺中市西屯區文心路二段99號,財政部,24.15839000000000000,120.64675000000000000,特優級,男廁所,公家機關設置供民眾使用者
臺中市,西屯區,惠來里,B060000305,新光三越B5F-男廁,臺中市西屯區台灣大道3段301號,縣市政府,24.16573000000000000,120.64365000000000000,特優級,男廁所,百貨公司
臺中市,西屯區,惠來里,B060000255,新光三越7F(北側)-男廁,臺中市西屯區台灣大道3段301號,縣市政府,24.16573000000000000,120.64365000000000000,特優級,男廁所,百貨公司
臺中市,西屯區,惠來里,B060000246,新光三越9F(南側)-男廁,臺中市西屯區台灣大道3段301號,縣市政府,24.16573000000000000,120.64365000000000000,特優級,男廁所,百貨公司
臺中市,北　區,錦平里,B050000445,中友百貨C棟3F(女廁),臺中市北區三民路三段161號,其他,24.15184432977810000,120.68965315818800000,特優級,女廁所,百貨公司
新竹縣,湖口鄉,鳳山村,J050000156,新豐加油站男廁,新竹縣湖口鄉鳳山村新興路330號,經濟部,24.87270200000000000,121.00030900000000000,特優級,男廁所,加油站
新竹縣,湖口鄉,鳳山村,J050000146,湖口服務區(南下)南棟男廁,新竹縣湖口鄉鳳山村國強街1巷8號,交通部,24.85825300000000000,121.00874800000000000,特優級,男廁所,公路車站服務區及休息站
新竹縣,竹東鎮,雞林里,J020000112,竹東鎮公所一樓女廁,新竹縣竹東鎮雞林里東林路88號,縣市政府,24.73680900000000000,121.09148200000000000,特優級,女廁所,各級機關學校
新竹縣,竹北市,斗崙里,J010000015,家樂福男廁,新竹縣竹北市斗崙里光明六路89號1樓,縣市政府,24.82659700000000000,121.01010900000000000,特優級,男廁所,量販店
臺南市,新營區,護鎮里,D010000212,臺南市新營體育場環保局後方男廁,臺南市新營區護鎮里長榮路二段７８號,縣市政府,23.32167900000000000,120.31290000000000000,特優級,男廁所,公家機關設置供民眾使用者
臺南市,新營區,大宏里,D010000187,新營區公所南側1F女廁,臺南市新營區大宏里中正路３０號,縣市政府,23.31027700000000000,120.31664100000000000,特優級,女廁所,各級機關學校
臺南市,新營區,忠政里,D010000078,臺南市政府財政稅務局新營分局1F女廁,臺南市新營區忠政里民治路３６號,縣市政府,23.31166400000000000,120.31468600000000000,特優級,女廁所,各級機關學校
臺南市,新營區,新北里,D010000439,動物防疫保護處1F男廁,臺南市新營區王公里長榮路一段５０１號,縣市政府,23.31968200000000000,120.31899200000000000,特優級,男廁所,各級機關學校
臺南市,新營區,民權里,D010000110,新營市立文化中心音樂廳1F左側男廁,臺南市新營區民權里中正路２３號,縣市政府,23.30854400000000000,120.31589100000000000,特優級,男廁所,文化育樂活動場所
臺南市,新營區,大宏里,D010000107,新營市立文化中心3樓男廁,臺南市新營區民權里中正路２３號,縣市政府,23.30854400000000000,120.31589100000000000,特優級,男廁所,文化育樂活動場所
新北市,中和區,民有里,F030001121,民享市場北側-女廁,中和區民享街37號,縣市政府,25.00307200000000000,121.47416300000000000,優等級,女廁所,市場
新北市,中和區,清穗里,F030000867,民德立體停車場南側1F-男廁,中和區民德路188號,縣市政府,24.99895200000000000,121.46810500000000000,特優級,男廁所,公家機關設置供民眾使用者
新北市,中和區,自強里,F030000860,清穗公園(A)(公廿九)-女廁,中和區華順街2巷內,縣市政府,24.99887800000000000,121.46981100000000000,特優級,女廁所,公園
新北市,中和區,員山里,F030000705,中和環球購物中心4F環球影城北側-男廁,中和區中山路三段122號,縣市政府,25.00607700000000000,121.47568900000000000,特優級,男廁所,百貨公司
新北市,中和區,員山里,F030000702,中和環球購物中心3F北側-女廁,中和區中山路三段122號,縣市政府,25.00607700000000000,121.47568900000000000,特優級,女廁所,百貨公司
新北市,中和區,東南里,F030000504,麥當勞中和興南店-男廁,中和區興南路一段83號1樓,縣市政府,24.98874500000000000,121.50982300000000000,特優級,男廁所,餐廳
新北市,中和區,福善里,F030000303,大潤發中和店1F-男廁,中和區中山路二段228號,縣市政府,25.00288100000000000,121.49920700000000000,特優級,男廁所,量販店
新北市,三峽區,永館里,F090000081,麥當勞三峽文化店-男廁,新北市三峽區文化路72號,經濟部,24.93623000000000000,121.37215500000000000,優等級,男廁所,餐廳
新北市,鶯歌區,南靖里,F080000297,麥當勞鶯歌文化店1F-女廁,新北市鶯歌區文化路363號,其他,24.95109200000000000,121.35228900000000000,特優級,女廁所,餐廳
臺中市,潭子區,甘蔗里,B170000367,潭子國民暨兒童運動中心3F-男廁,臺中市潭子區勝利路140號,縣市政府,24.21035900000000000,120.70192400000000000,特優級,男廁所,文化育樂活動場所
高雄市,鳳山區,福興里,E120000742,高雄市立圖書館鳳山二館3F男廁(南鳳山),高雄市鳳山區自強一路119巷75號,縣市政府,22.58917900000000000,120.32717500000000000,優等級,男廁所,各級社教機關
臺北市,士林區,義信里,A110000040,捷運劍潭站南女,臺北市士林區中山北路五段65號,縣市政府,25.08356200000000000,121.52516300000000000,特優級,女廁所,捷運車站
臺北市,南港區,合成里,A090000459,捷運昆陽站男,臺北市南港區忠孝東路六段451號,縣市政府,25.05061100000000000,121.59379600000000000,特優級,男廁所,捷運車站
新竹市,東　區,榮光里,O010000072,新竹火車站男廁,新竹市東區中華路２段445號,交通部,24.80159400000000000,120.97158000000000000,特優級,男廁所,鐵路局
新竹市,東　區,榮光里,O010000064,新竹客運新竹北站女廁,新竹市中華路二段415號,其他,24.80231700000000000,120.97225800000000000,優等級,女廁所,公路車站服務區及休息站
南投縣,水里鄉,車埕村,M110000041,車埕火車站女廁,南投縣水里鄉車埕村民權巷2號,交通部,23.83253980275330000,120.86567968129700000,特優級,女廁所,鐵路局
南投縣,仁愛鄉,大同村,M130000045,仁愛鄉公所清潔隊旁公廁,南投縣仁愛鄉仁和路2號,縣市政府,24.01742055923960000,121.13015621900100000,特優級,混合廁所,公家機關設置供民眾使用者
南投縣,仁愛鄉,大同村,M130000040,清境農場遊客休閒中心男廁,南投縣仁愛鄉大同村仁和路171號,國軍退除役官兵輔導委員會,24.04733407335420000,121.15595459936200000,特優級,男廁所,觀光地區及風景區
金門縣,烈嶼鄉,上林村,W050000002,上林將軍廟男廁,金門縣烈嶼鄉上林村上林77號,內政部,24.42857275038150000,118.22858422994600000,特優級,男廁所,觀光地區及風景區
金門縣,金湖鎮,山外里,W030000002,太武山1號男廁,金門縣金湖鎮山外里太武山50號,內政部,24.45612500000000000,118.40261000000000000,特優級,男廁所,觀光地區及風景區
金門縣,金城鎮,金水里,W010000033,金水國小女廁,金門縣金城鎮金水里前水頭47號,內政部,24.40932000000000000,118.29797700000000000,特優級,女廁所,觀光地區及風景區
花蓮縣,玉里鎮,泰昌里,U030000069,玉里衛生所-1樓男廁,花蓮縣玉里鎮泰昌里中正路152號,縣市政府,23.33640900000000000,121.31491600000000000,特優級,男廁所,公家機關設置供民眾使用者
新北市,三重區,中山里,F020000732,中油國園加油站-女廁,新北市三重區重新路3段49號,縣市政府,25.06144000000000000,121.49294900000000000,特優級,混合廁所,加油站
臺中市,西屯區,福和里,B060000938,台中世貿中心1館2F(男廁),臺中市西屯區天保街60號,縣市政府,24.17680000000000000,120.61642000000000000,特優級,男廁所,文化育樂活動場所
新北市,平溪區,新寮里,F240000109,十分瀑布停車場-女廁,新寮里月桃寮1號,縣市政府,25.04975489905700000,121.78554475307500000,特優級,女廁所,觀光地區及風景區
新北市,平溪區,南山里,F240000073,十分旅客中心1F-男廁,平溪區南山里南山坪136號,縣市政府,25.04722775450530000,121.78268082439900000,特優級,男廁所,觀光地區及風景區
新北市,三重區,六合里,F020001016,六合閱覽室2F-女廁,新北市三重區自強路二段50巷22號2樓,縣市政府,25.06916200000000000,121.48826100000000000,特優級,女廁所,文化育樂活動場所
新北市,石門區,老梅里,F220000047,老人活動中心-男廁,"老梅里公地44號 ",其他,25.28955491572000000,121.54555141925800000,特優級,男廁所,民眾團體活動場所
新北市,三芝區,埔坪里,F210000137,共榮社區(源興居)-男廁,三芝區埔坪里埔頭坑156號(源興居),其他,25.24920800000000000,121.50919700000000000,特優級,男廁所,觀光地區及風景區
新北市,三芝區,埔頭里,F210000112,停一停車場-女廁,三芝區埔頭里淡金公路1段63號,縣市政府,25.25714800000000000,121.50081100000000000,特優級,女廁所,公家機關設置供民眾使用者
新北市,石碇區,彭山里,F190000050,石碇彭山-女廁,彭山村1鄰6號,縣市政府,24.97410200000000000,121.67311500000000000,特優級,女廁所,觀光地區及風景區
新北市,石碇區,烏塗里,F190000047,石碇區烏塗里烏塗窟-混和廁,烏塗窟11號,縣市政府,24.96925400000000000,121.64382800000000000,特優級,混合廁所,觀光地區及風景區
新北市,林口區,菁湖里,F170000083,林口竹林山寺左側-男廁,林口區竹林路325號,其他,25.08362600000000000,121.38921600000000000,特優級,混合廁所,寺廟教堂等宗教活動場所
臺中市,南屯區,大業里,B070000347,大業國中第三棟左側司令台旁(女廁),臺中市南屯區大業路100號,縣市政府,24.15446400000000000,120.65249700000000000,特優級,女廁所,各級機關學校
臺中市,南屯區,大業里,B070000336,台灣中油公益路站-男廁,臺中市南屯區公益路二段2號,經濟部,24.15111100000000000,120.65268800000000000,特優級,男廁所,加油站
臺中市,南屯區,文山里,B070000207,保安公園(男廁),臺中市南屯區嶺東路與文山五街口,縣市政府,24.14648000000000000,120.61162000000000000,特優級,男廁所,公園
臺中市,南屯區,春社里,B070000188,春社公園(男廁),臺中市南屯區嶺東路與永春北路間,縣市政府,24.14039000000000000,120.61162000000000000,特優級,男廁所,公園
臺中市,中　區,大墩里,B010000021,光復國小(男廁),臺中市中區三民路二段148號,縣市政府,24.14416000000000000,120.68129000000000000,特優級,男廁所,各級機關學校
嘉義市,東　區,東興里,I010000701,市政府2F近中山路男廁,嘉義市東區中山路199號,縣市政府,23.48130500000000000,120.45356600000000000,特優級,男廁所,公家機關設置供民眾使用者
新北市,汐止區,江北里,F110000204,汐止江北圖書館-女廁,汐止區汐萬路一段81號2樓,其他,25.06919500000000000,121.65491500000000000,特優級,無障礙廁所,文化育樂活動場所
新北市,汐止區,長安里,F110000168,汐止長安圖書館3F-男女廁,汐止區長興街一段50號3樓,其他,25.07833000000000000,121.66954900000000000,特優級,無障礙廁所,文化育樂活動場所
新北市,淡水區,沙崙里,F100000503,漁人碼頭北邊停車場4-女廁,"觀海路135號 ",縣市政府,25.18139500000000000,121.41677700000000000,特優級,女廁所,觀光地區及風景區
新北市,淡水區,沙崙里,F100000500,漁人碼頭北邊停車場1-女廁,"觀海路135號 ",縣市政府,25.18139500000000000,121.41677700000000000,特優級,女廁所,觀光地區及風景區
新北市,淡水區,鄧公里,F100000277,淡水鄞山寺-女廁,"鄧公路15號 ",其他,25.16887300000000000,121.44824400000000000,優等級,女廁所,寺廟教堂等宗教活動場所
彰化縣,鹿港鎮,永安里,N020000226,鹿港基督教醫院(男廁),彰化縣鹿港鎮中正路480號,縣市政府,24.06037900000000000,120.43821100000000000,特優級,男廁所,醫院
彰化縣,鹿港鎮,永安里,N020000223,鹿港基督教醫院路加醫療大樓(男廁),彰化縣鹿港鎮永安二路37號,縣市政府,24.06073500000000000,120.43998600000000000,特優級,男廁所,醫院
臺南市,後壁區,竹新里,D050000054,中油新營服務區北上加油站男廁,臺南市後壁區竹新里新厝７０號,經濟部,23.33998400000000000,120.31328000000000000,特優級,男廁所,加油站
臺南市,善化區,光文里,D190000021,善化火車站男廁,臺南市善化區光文里中山路１號,交通部,23.13310300000000000,120.30645900000000000,特優級,男廁所,鐵路局
臺中市,北　區,光大里,B050000019,中央市場B(女廁),臺中市北區光大里五權路176號,縣市政府,24.14961200000000000,120.67631700000000000,特優級,女廁所,市場
臺中市,北　區,中達里,B050000365,維新醫院2F(女廁),臺中市北區育德路185號,縣市政府,24.15718000000000000,120.67234000000000000,特優級,女廁所,醫院
臺南市,柳營區,旭山里,D040000092,江南渡假村入口右側女廁,臺南市柳營區旭山里新吉庄６０號,經濟部,23.26620300000000000,120.39366800000000000,特優級,女廁所,觀光地區及風景區
新竹縣,新豐鄉,重興村,J060000016,新庄子公有零售市場女廁,新竹縣新豐鄉重興村建興路二段759號,縣市政府,24.90104911844590000,120.98616063594800000,特優級,女廁所,市場
臺北市,南港區,萬福里,A090000546,聯合醫院忠孝院區1F急診觀察室無障礙,臺北市南港區同德路87號,縣市政府,25.04650600000000000,121.58615700000000000,特優級,無障礙廁所,醫院
臺北市,南港區,萬福里,A090000543,聯合醫院忠孝院區2F男,臺北市南港區同德路87號,縣市政府,25.04650600000000000,121.58615700000000000,特優級,男廁所,醫院
臺北市,萬華區,保德里,A070000843,聯合醫院萬華門診部1樓女,臺北市萬華區東園街152號,縣市政府,25.02317500000000000,121.49761300000000000,特優級,女廁所,醫院
臺北市,大同區,玉泉里,A060000039,聯合醫院中興院區2A-2廁所,臺北市大同區鄭州路145號,縣市政府,25.05069200000000000,121.50888700000000000,特優級,女廁所,醫院
臺北市,大同區,玉泉里,A060000036,聯合醫院中興院區1B-2廁所,臺北市大同區鄭州路145號,縣市政府,25.05069200000000000,121.50888700000000000,特優級,女廁所,醫院
臺北市,大同區,玉泉里,A060000033,聯合醫院中興院區1A-1廁所,臺北市大同區鄭州路145號,縣市政府,25.05069200000000000,121.50888700000000000,特優級,男廁所,醫院
臺北市,中正區,愛國里,A050000383,聯合醫院和平婦幼院區(和平)B棟B1,臺北市中正區廣州街14號,縣市政府,25.03552000000000000,121.50812000000000000,特優級,混合廁所,醫院
臺北市,萬華區,新安里,A070000720,統一超商臺北市萬大門市男女,臺北市萬華區萬大路245號247號1樓,縣市政府,25.02616400000000000,121.50059400000000000,特優級,混合廁所,超市
臺北市,文山區,萬興里,A080001311,木柵纜車動物園站3F男,臺北市文山區新光路二段8號,縣市政府,24.99610500000000000,121.57633100000000000,特優級,男廁所,捷運車站
臺北市,中山區,成功里,A040000550,捷運劍南路站男,臺北市中山區北安路798號,縣市政府,25.08479000000000000,121.55554200000000000,特優級,男廁所,捷運車站
南投縣,埔里鎮,北安里,M020000015,埔里鎮綜合球場及網球場(男廁),南投縣埔里鎮北安里六合路228號,縣市政府,23.97005621579670000,120.97075343130200000,特優級,男廁所,文化育樂活動場所
南投縣,埔里鎮,大湳里,M020000010,埔里鎮地理中心碑女廁,南投縣埔里鎮中山路一段421號,縣市政府,23.97383564916240000,120.97990825771800000,特優級,女廁所,公園
南投縣,南投市,三和里,M010000007,南投市停三停車場女廁,南投市三和里三和三路,縣市政府,23.90576372581220000,120.68835496902500000,特優級,女廁所,公園
南投縣,南投市,漳和里,M010000054,麥當勞餐廳南投店2樓男廁,南投市漳和里南崗二路313號,其他,23.91340000000000000,120.67770000000000000,特優級,男廁所,餐廳
南投縣,南投市,平山里,M010000267,南投縣農會農產館1樓女廁,南投市平山里南崗三路1號,其他,23.92168837035740000,120.67229330537900000,特優級,女廁所,公路車站服務區及休息站
南投縣,南投市,三興里,M010000122,南投縣政府文化局地下室女廁,南投市三興里建國路135號,其他,23.90800000000000000,120.68190000000000000,特優級,女廁所,各級社教機關
南投縣,南投市,三和里,M010000168,南投縣政府B棟3樓男廁,南投市三和里中興路660號,其他,23.90280000000000000,120.69050000000000000,特優級,男廁所,公家機關設置供民眾使用者
南投縣,名間鄉,濁水村,M060000030,濁水火車站女廁,南投縣名間鄉濁水村車站路15號,交通部,23.83466666666670000,120.70472222222200000,特優級,女廁所,鐵路局
新北市,烏來區,烏來里,F290000094,烏來立體停車場-男廁,烏來區烏來里烏來街47號,其他,24.86535389002400000,121.55169904232000000,特優級,男廁所,公家機關設置供民眾使用者
新北市,萬里區,野柳里,F280000096,新空間國際有限公司-男廁,野柳里港東路167之1號,其他,25.20653000000000000,121.68966800000000000,特優級,男廁所,觀光地區及風景區
高雄市,鳳山區,國光里,E120000205,高雄市稅捐稽徵處1樓右側無障礙廁所(北鳳山區),鳳山市國泰路二段136號,其他,22.62047600000000000,120.34794800000000000,特優級,無障礙廁所,公家機關設置供民眾使用者
高雄市,鳳山區,國光里,E120000202,高雄市稅捐稽徵處1F左側男廁(北鳳山區),鳳山市國泰路二段136號,縣市政府,22.62047600000000000,120.34794800000000000,特優級,男廁所,公家機關設置供民眾使用者
高雄市,鳳山區,新興里,E120000110,鳳山區衛生所男廁(北鳳山區),鳳山市經武路34巷2號,縣市政府,22.62736300000000000,120.36269600000000000,特優級,男廁所,公家機關設置供民眾使用者
嘉義市,西　區,垂楊里,I020000463,遠東百貨3F男廁,嘉義市西區垂楊路537號,其他,23.47275500000000000,120.44112000000000000,特優級,男廁所,百貨公司
嘉義市,西　區,垂楊里,I020000459,遠東百貨B1男廁,嘉義市西區垂楊路537號,其他,23.47275500000000000,120.44112000000000000,特優級,男廁所,百貨公司
嘉義市,西　區,文化里,I020000634,交通處男廁,嘉義市西區國華街245號8樓之15,縣市政府,23.47920900000000000,120.44830700000000000,特優級,男廁所,公家機關設置供民眾使用者
嘉義市,西　區,永和里,I020000597,新光三越百貨B1男,嘉義市西區垂楊路726號,其他,23.47344100000000000,120.44105800000000000,特優級,男廁所,百貨公司
臺中市,大肚區,頂街里,B240000098,大肚區環保運動公園-男,臺中市大肚區華山路388號,縣市政府,24.15855000000000000,120.55252700000000000,特優級,男廁所,公園
新竹縣,竹北市,新社里,J010000470,中社加油站女廁,新竹縣竹北市中正西路447號,其他,24.84290100000000000,120.99326200000000000,特優級,女廁所,加油站
新北市,瑞芳區,濂新里,F120000214,水湳洞停車場(女廁),瑞芳區十三城遺址下方,縣市政府,25.12169000000000000,121.86379000000000000,特優級,女廁所,觀光地區及風景區
彰化縣,彰化市,卦山里,N010000210,彰化縣立圖書館B1F,彰化市卦山里中山路2段500號,縣市政府,24.07867800000000000,120.54529800000000000,特優級,混合廁所,各級社教機關
基隆市,中正區,港通里,C010000099,基隆市文化局-靠義一路3樓-男廁,基隆市中正區義一路1號（義一路）,縣市政府,25.13159463953460000,121.74375593662300000,特優級,男廁所,文化育樂活動場所
基隆市,中正區,港通里,C010000052,麥當勞-基隆信一中心-男廁,基隆市信一路177號,其他,25.13076600000000000,121.74472700000000000,特優級,男廁所,餐廳
基隆市,中山區,文化里,C050000063,基隆市中山區公所2樓-男廁,基隆市中山區文化路168號2樓,縣市政府,25.15298606225150000,121.72956705093400000,特優級,男廁所,各級機關學校
新北市,五股區,五股里,F150000143,信誠加油站-男廁,新北市五股區五股里新五路2段258號,縣市政府,25.08153718938460000,121.44083261489900000,優等級,男廁所,加油站
新北市,蘆洲區,得仁里,F140000617,中油中山二路加油站-男廁,新北市蘆洲區中山二路309號,經濟部,25.07728600000000000,121.46896500000000000,特優級,男廁所,加油站
新北市,蘆洲區,玉清里,F140000590,三蘆公園-女廁,新北市蘆洲區永安北路二段76巷1-2號對面,縣市政府,25.08461600000000000,121.48378100000000000,特優級,女廁所,公園
新北市,蘆洲區,水湳里,F140000177,仁愛廣場-男廁,新北市蘆洲區仁愛街76號旁,縣市政府,25.09027260920840000,121.47042810916900000,特優級,男廁所,公園
新北市,蘆洲區,正義里,F140000005,柳堤公園-女廁,新北市蘆洲區光榮路及長樂路交叉路口,縣市政府,25.09376000000000000,121.46119000000000000,特優級,女廁所,公園
新北市,板橋區,廣德里,F010001698,重慶公園-男廁,板橋區重慶路245巷32弄18號(擎天雙星旁),其他,24.99777700000000000,121.46436800000000000,特優級,男廁所,公園
新北市,板橋區,景星里,F010001579,摩斯漢堡板橋館前店-男女廁,板橋區館前東路60號,其他,25.00715400000000000,121.46111200000000000,特優級,混合廁所,餐廳
新北市,板橋區,華江里,F010000636,捷運新埔站-女廁,板橋區民生路2段,其他,25.01565000000000000,121.47278600000000000,特優級,女廁所,捷運車站
新北市,板橋區,幸福里,F010000560,北基新海加油站-男廁,板橋區新海路137號,其他,25.02337100000000000,121.46063100000000000,特優級,男廁所,加油站
新北市,板橋區,中正里,F010000259,435藝文特區右側-男廁,板橋區中正路435巷,縣市政府,25.02337587041590000,121.45413637161300000,特優級,男廁所,文化育樂活動場所
臺中市,北屯區,平德里,B080000440,臺中市中正地政事務所1F(男廁),臺中市北屯區北平路三段36號,縣市政府,24.17106000000000000,120.68045000000000000,特優級,男廁所,公家機關設置供民眾使用者
臺中市,北屯區,后庄里,B080000407,敦化公園(男廁),臺中市北屯區敦化路與后庄七街口,縣市政府,24.18676000000000000,120.66612000000000000,特優級,男廁所,公園
臺中市,北屯區,仁美里,B080000369,仁美國小(男廁),臺中市北屯區崇德路三段568號,縣市政府,24.19143000000000000,120.68634000000000000,特優級,男廁所,各級機關學校
臺中市,北屯區,仁和里,B080000346,北屯區四民衛生所(男廁),臺中市北屯區后庄路1062號,縣市政府,24.19279000000000000,120.68082000000000000,特優級,男廁所,公家機關設置供民眾使用者
嘉義市,東　區,長竹里,I010000382,東園軒男廁,"嘉義市東區大雅路二段350號 ",縣市政府,23.47753100000000000,120.47487300000000000,特優級,男廁所,餐廳
嘉義市,東　區,蘭潭里,I010000368,蘭潭水庫泛月公園旁男廁,嘉義市東區蘭潭水庫泛月公園旁,縣市政府,23.46674000000000000,120.47922100000000000,特優級,男廁所,觀光地區及風景區
嘉義市,東　區,東川里,I010000222,嘉義公園近溜冰場男廁,嘉義市東區嘉義公園內鄰溜冰場,縣市政府,23.48385400000000000,120.46474500000000000,特優級,男廁所,公園
嘉義市,東　區,東興里,I010000697,警察局1F男廁,嘉義市東區中山路195號,縣市政府,23.48128200000000000,120.45463300000000000,特優級,男廁所,公家機關設置供民眾使用者
嘉義市,東　區,東興里,I010000707,市政府7F近中山路男廁,嘉義市東區中山路199號,縣市政府,23.48130500000000000,120.45356600000000000,特優級,男廁所,公家機關設置供民眾使用者
新北市,永和區,保安里,F040000091,仁愛公園保生性別友善公廁,永和區仁愛路244號,縣市政府,25.01136000000000000,121.50772400000000000,特優級,性別友善廁所,公園
花蓮縣,花蓮市,民德里,U010000690,花蓮縣環境教育數位中心(環保局)-4樓女廁,花蓮縣花蓮市中美路68號,縣市政府,23.98389600000000000,121.61976600000000000,特優級,女廁所,公家機關設置供民眾使用者
桃園市,中壢區,仁義里,H020000926,家樂福中原店3F(A1區)女廁,中壢區中華路二段501號,縣市政府,24.96249200000000000,121.23204500000000000,特優級,女廁所,量販店
桃園市,中壢區,仁義里,H020000923,家樂福中原店2F女廁,中壢區中華路二段501號,縣市政府,24.96249200000000000,121.23204500000000000,特優級,女廁所,量販店
桃園市,中壢區,青埔里,H020000453,桃園新光影城3F影廳無障礙廁,桃園市中壢區春德路107號,縣市政府,25.01669100000000000,121.21354200000000000,特優級,無障礙廁所,戲院
桃園市,中壢區,青埔里,H020000450,桃園新光影城3F無障礙廁,桃園市中壢區春德路107號,縣市政府,25.01669100000000000,121.21354200000000000,特優級,無障礙廁所,戲院
高雄市,左營區,新下里,E030000699,"漢神巨蛋購物廣場1F 西側 女廁",高雄市左營區博愛二路777號,縣市政府,22.66946998841510000,120.30256271347800000,特優級,女廁所,百貨公司
高雄市,左營區,新下里,E030000696,"漢神巨蛋購物廣場1F 北側 男廁",高雄市左營區博愛二路777號,縣市政府,22.66946998841510000,120.30256271347800000,特優級,男廁所,百貨公司
新北市,淡水區,草東里,F100000646,捷運淡水站(北邊站外親子廁所),新北市淡水區中正路1號,縣市政府,25.16865453895960000,121.44446432590500000,特優級,親子廁所,捷運車站
花蓮縣,壽豐鄉,鹽寮村,U060000183,遠雄海洋公園-海洋村親子廁所,花蓮縣壽豐鄉鹽寮村福德189號,其他,23.90127000000000000,121.60333100000000000,特優級,親子廁所,娛樂場所
高雄市,左營區,新下里,E030000732,"漢神巨蛋購物廣場8F 北側 女廁",高雄市左營區博愛二路777號,縣市政府,22.66978950269600000,120.30259847637400000,特優級,女廁所,百貨公司
高雄市,左營區,新下里,E030000729,"漢神巨蛋購物廣場7F 西側 女廁",高雄市左營區博愛二路777號,縣市政府,22.66978950269600000,120.30259847637400000,特優級,女廁所,百貨公司
高雄市,左營區,新下里,E030000714,"漢神巨蛋購物廣場4F 西側 女廁",高雄市左營區博愛二路777號,縣市政府,22.66946998841510000,120.30256271347800000,特優級,女廁所,百貨公司
臺北市,大安區,龍門里,A030001929,大安森林公園4號信義路無障礙親子,臺北市大安區新生南路二段1號,縣市政府,25.03015200000000000,121.53535100000000000,特優級,親子廁所,公園
苗栗縣,獅潭鄉,新店村,K170000019,仙山靈洞宮,獅潭鄉新店村小東勢,其他,24.54191167858420000,120.94822883606000000,特優級,混合廁所,寺廟教堂等宗教活動場所
新北市,板橋區,新民里,F010000348,高鐵板橋站入口西區-男廁,板橋區文化路1段54號,縣市政府,25.01415500000000000,121.46380300000000000,特優級,男廁所,高鐵
新北市,五股區,水碓里,F150000315,水碓觀景公園-女廁,"五股鄉水碓 ",縣市政府,25.07339300000000000,121.42703500000000000,特優級,女廁所,公園
高雄市,旗山區,湄洲里,E300000084,高雄市警察局旗山分局女廁,華中街1號,縣市政府,22.88789100000000000,120.48303100000000000,特優級,女廁所,公家機關設置供民眾使用者
高雄市,田寮區,南安里,E220000014,田寮區衛生所1F女廁,高雄市田寮區南安里崗北路32號,縣市政府,22.87294800000000000,120.36013800000000000,特優級,女廁所,公家機關設置供民眾使用者
高雄市,燕巢區,南燕里,E210000152,燕巢區戶政事務所女廁,燕巢區南燕里中民路585-1號,縣市政府,22.79308800000000000,120.36229800000000000,特優級,女廁所,公家機關設置供民眾使用者
高雄市,岡山區,壽天里,E190000104,岡山區衛生所1F男廁,岡山區壽天里公園路50號,縣市政府,22.79631600000000000,120.29108300000000000,特優級,男廁所,公家機關設置供民眾使用者
新北市,新莊區,化成里,F050000418,中油興化加油站-男廁,"新北市新莊區復興路3段117號 ",經濟部,25.04473900000000000,121.46498600000000000,優等級,男廁所,加油站
新北市,新莊區,中和里,F050000145,摩斯漢堡新莊中港店-混合廁,"新北市新莊區中港路319號 ",經濟部,25.04482300000000000,121.45250600000000000,特優級,混合廁所,餐廳
新北市,新莊區,興漢里,F050000120,新莊區公所1F-男廁,新北市新莊區中正路176號,縣市政府,25.03583400000000000,121.45055800000000000,特優級,男廁所,公家機關設置供民眾使用者
新北市,新莊區,八德里,F050000099,鴻金寶夢幻廣場-男廁,"新北市新莊區民安路188巷5號1樓 ",經濟部,25.02323700000000000,121.42480600000000000,優等級,男廁所,百貨公司
臺南市,麻豆區,南勢里,D070000342,總爺行政辦公區公廁1樓女廁,臺南市麻豆區總爺104號,縣市政府,23.18659900000000000,120.26975100000000000,特優級,女廁所,文化育樂活動場所
臺中市,西　區,忠明里,B040000528,金典綠園道B1（親子廁）,臺中市西區忠明里健行路一○四九號,縣市政府,24.15693100000000000,120.66325900000000000,特優級,親子廁所,百貨公司
臺中市,神岡區,庄前里,B160000143,潭雅神綠園道5.3K(紅圳頭義民祠)-女廁,臺中市神岡區神林路70巷103號,縣市政府,24.25050900000000000,120.66743900000000000,特優級,女廁所,觀光地區及風景區
雲林縣,古坑鄉,西平村,P070000287,古坑夜市-混合廁,雲林縣古坑鄉西平村西平路四○號,請選擇主管機關,23.64674600000000000,120.56067500000000000,特優級,混合廁所,觀光地區及風景區
臺中市,大雅區,上雅里,B180000206,大雅區公所(4樓)-男廁,臺中市大雅區雅環路二段301號,縣市政府,24.22909800000000000,120.64776900000000000,特優級,男廁所,公家機關設置供民眾使用者
臺南市,新營區,護鎮里,D010000504,臺南市新營體育場田徑場2號出口下男廁,臺南市新營區長榮路二段78號,縣市政府,23.32072039744050000,120.31211614608800000,特優級,男廁所,公家機關設置供民眾使用者
臺南市,新營區,護鎮里,D010000501,臺南市新營體育場田徑場第五停車場旁男廁,臺南市新營區長榮路二段78號,縣市政府,23.32072039744050000,120.31211614608800000,特優級,男廁所,公家機關設置供民眾使用者
桃園市,中壢區,芝芭里,H020000734,"Global Mall桃園A19(A棟4F男廁)",桃園市中壢區高鐵南路二段352號,縣市政府,25.00244500000000000,121.20293500000000000,特優級,男廁所,百貨公司
高雄市,三民區,安發里,E050001368,"三民東兒福中心1F-男廁 ",高雄市三民區安發里九如一路775號,縣市政府,22.63971915749620000,120.32408952713000000,特優級,男廁所,文化育樂活動場所
金門縣,烈嶼鄉,林湖村,W050000034,烈嶼鄉公所3F女廁,金門縣烈嶼鄉林湖村西路60號,縣市政府,24.42951400000000000,118.24467700000000000,特優級,女廁所,各級機關學校
新北市,鶯歌區,鳳福里,F080000575,鳳福里活動中心-無障礙,新北市鶯歌區鳳吉一街167-1號,縣市政府,24.97544200000000000,121.32910200000000000,特優級,無障礙廁所,民眾團體活動場所
新北市,三峽區,礁溪里,F090000153,新北市政府警察局三峽分局3F-男女廁,新北市三峽區中正路一段48號,縣市政府,24.93054800000000000,121.37523500000000000,特優級,混合廁所,公家機關設置供民眾使用者
高雄市,燕巢區,南燕里,E210000125,燕巢區農會3F女廁,燕巢區南燕里中民路577號,縣市政府,22.79310100000000000,120.36253900000000000,特優級,女廁所,民眾團體活動場所
臺北市,信義區,西村里,A020000197,台北101購物中心4樓女,臺北市信義區市府路45號,縣市政府,25.03402600000000000,121.56390300000000000,特優級,女廁所,百貨公司
臺北市,松山區,美仁里,A010000729,臺北小巨蛋2-16,臺北市松山區南京東路四段2號(南京東路四段與敦化北路交叉口),縣市政府,25.05135500000000000,121.54995400000000000,特優級,女廁所,文化育樂活動場所
臺北市,松山區,美仁里,A010000726,臺北小巨蛋2-13,臺北市松山區南京東路四段2號(南京東路四段與敦化北路交叉口),縣市政府,25.05135500000000000,121.54995400000000000,特優級,女廁所,文化育樂活動場所
臺北市,松山區,美仁里,A010000709,臺北小巨蛋1-01,臺北市松山區南京東路四段2號(南京東路四段與敦化北路交叉口),縣市政府,25.05135500000000000,121.54995400000000000,特優級,男廁所,文化育樂活動場所
臺北市,大安區,臨江里,A030001016,大安8號男女,臺北市大安區臨江街112巷,縣市政府,25.03006900000000000,121.55447800000000000,特優級,混合廁所,公家機關設置供民眾使用者
臺北市,大安區,義安里,A030000977,安和路派出所男女,臺北市大安區信義路四段216號,縣市政府,25.03297200000000000,121.55210700000000000,特優級,混合廁所,各級機關學校
桃園市,龜山區,公西里,H070000086,長庚紀念醫院林口分院復健大樓1F26區門診區(BR0104)女廁,"桃園市龜山區復興街 5 號",縣市政府,25.06111972316010000,121.36755466461200000,特優級,女廁所,醫院
桃園市,龜山區,公西里,H070000083,長庚紀念醫院林口分院復健大樓1F大廳旁(AR0102)男廁,"桃園市龜山區復興街 5 號",縣市政府,25.06111000437440000,121.36757612228400000,特優級,男廁所,醫院
桃園市,八德區,瑞發里,H080000060,八德區瑞發公園男廁,桃園市八德區瑞發街25巷10號,縣市政府,24.93394200000000000,121.29877700000000000,特優級,男廁所,公園
桃園市,平鎮區,宋屋里,H100000066,台灣中油千億加油站女廁,桃園市平鎮區延平路3段489號,縣市政府,24.93156700000000000,121.19765300000000000,特優級,女廁所,加油站
桃園市,楊梅區,三湖里,H040000278,楊梅區-三湖里三元宮男廁,桃園市楊梅區三湖里十二鄰四十九號,縣市政府,24.91437000000000000,121.09983400000000000,特優級,男廁所,寺廟教堂等宗教活動場所
桃園市,楊梅區,梅溪里,H040000176,KFC楊梅中山餐廳2F女廁,桃園市326楊梅區中山北路二段6.6-1號,縣市政府,24.90909200000000000,121.16700200000000000,特優級,女廁所,餐廳
桃園市,楊梅區,瑞塘里,H040000171,萊爾富國際股份有限公司桃文店混合廁,桃園市楊梅區瑞溪路2段102號,縣市政府,24.90849800000000000,121.18075700000000000,特優級,混合廁所,超市
桃園市,平鎮區,東勢里,H100000238,台灣中油經國平鎮站男廁,桃園市平鎮區金陵路5段230號,經濟部,24.90657200000000000,121.23031300000000000,特優級,男廁所,加油站
桃園市,楊梅區,永寧里,H040000068,楊梅地政事務所3F女廁,桃園市楊梅區校前路411號,縣市政府,24.89674100000000000,121.14926900000000000,特優級,女廁所,各級機關學校
桃園市,楊梅區,永寧里,H040000065,楊梅地政事務所2F男廁,桃園市楊梅區校前路411號,縣市政府,24.89674100000000000,121.14926900000000000,特優級,男廁所,各級機關學校
桃園市,楊梅區,永寧里,H040000062,楊梅地政事務所1F男廁,桃園市楊梅區校前路411號,縣市政府,24.89674100000000000,121.14926900000000000,特優級,男廁所,各級機關學校
桃園市,龍潭區,烏樹林里,H090000248,麥當勞龍潭中豐店(2F)男廁,桃園市龍潭區中豐路412號,縣市政府,24.88058200000000000,121.21189800000000000,特優級,男廁所,餐廳
新北市,林口區,西林里,F170000070,林口區公所-2F男廁,林口區仁愛路一段378號,縣市政府,25.07677500000000000,121.38845400000000000,特優級,無障礙廁所,公家機關設置供民眾使用者
新北市,石碇區,豐林里,F190000091,石碇服務區右邊-男廁,石碇鄉豐林村楓子林62號,交通部,25.00902000000000000,121.64553800000000000,特優級,混合廁所,公路車站服務區及休息站
新北市,雙溪區,外柑里,F250000085,清水坑公廁-女廁,新北市雙溪區外柑里三叉坑,縣市政府,24.99847300000000000,121.82158400000000000,特優級,男廁所,觀光地區及風景區
屏東縣,鹽埔鄉,鹽南村,T100000008,鹽埔鄉公所1F男女混合廁所,屏東縣鹽埔鄉鹽南村勝利路32號,縣市政府,22.75453611111110000,120.57230833333300000,特優級,混合廁所,各級機關學校
屏東縣,里港鄉,大平村,T090000004,明宜潭加油站,屏東縣里港鄉大平村里嶺路96號,其他,22.77249500000000000,120.49120200000000000,優等級,混合廁所,加油站
屏東縣,麟洛鄉,麟蹄村,T070000019,麟洛鄉公所1F女廁,屏東縣麟洛鄉麟蹄村中山路158號,縣市政府,22.65058333333330000,120.52715000000000000,特優級,女廁所,各級機關學校
臺中市,霧峰區,萬豐里,B260000185,台灣中油萬豐站-女廁,臺中市霧峰區中正路93號,縣市政府,24.01988000000000000,120.69595400000000000,特優級,女廁所,加油站
臺中市,霧峰區,本堂里,B260000046,台灣中油霧峰站-男廁,臺中市霧峰區中正路784號,經濟部,24.06082500000000000,120.69837700000000000,特優級,男廁所,加油站
臺中市,龍井區,龍泉里,B250000074,臺中市立圖書館(龍井分館)1F-女,臺中市龍井區龍泉里觀光路2號,縣市政府,24.19223100000000000,120.54531800000000000,特優級,女廁所,各級社教機關
臺中市,龍井區,龍泉里,B250000070,龍井火車站-男廁,臺中市龍井區龍新路1號,交通部,24.19750300000000000,120.54336500000000000,特優級,男廁所,鐵路局
臺南市,歸仁區,歸南里,D280000044,歸仁地政事務所1樓女廁,臺南市歸仁區六甲里中正南路一段１２０３號,縣市政府,22.94793500000000000,120.27814400000000000,特優級,女廁所,各級機關學校
臺南市,新化區,唪口里,D180000080,新化地政事務所女廁,臺南市新化區北勢里中正路１１６０號,縣市政府,23.05526400000000000,120.29919800000000000,特優級,女廁所,各級機關學校
彰化縣,秀水鄉,鶴鳴村,N070000058,溫陵殿天龍宮,秀水鄉鶴鳴村明山街180號,縣市政府,24.05838729238810000,120.50282120704700000,特優級,混合廁所,寺廟教堂等宗教活動場所
新竹市,北　區,光華里,O020000551,新竹市北區衛生所女廁,新竹市國華街69號,縣市政府,24.81636800000000000,120.97029900000000000,特優級,女廁所,各級機關學校
臺南市,新營區,新北里,D010000436,台大加油站男廁,臺南市新營區新南里長榮路二段１０９８號,其他,23.30826500000000000,120.29376900000000000,特優級,男廁所,加油站
臺南市,新營區,埤寮里,D010000198,天鵝湖公園男廁,臺南市新營區埤寮里中正路８００號,縣市政府,23.33200000000000000,120.31851100000000000,特優級,男廁所,公園
臺南市,新營區,大宏里,D010000012,綠都心公園籃球場男廁,臺南市新營區民權里中正路２３之１號,縣市政府,23.30982100000000000,120.31389400000000000,特優級,男廁所,公園
臺中市,北屯區,平福里,B080000461,民俗公園(女廁),臺中市北屯區旅順路二段七三號,縣市政府,24.17497608339200000,120.68749678426700000,特優級,女廁所,公園
臺中市,北屯區,平陽里,B080000488,東新公園(女廁),臺中市北屯區梅川東路四段與旅順路交界處,縣市政府,24.17603000000000000,120.68060000000000000,特優級,女廁所,公園
臺中市,北　區,五常里,B050000082,臺中市生命禮儀管理處崇明廳(女廁),臺中市北區崇德路一段50號,縣市政府,24.15618000000000000,120.68548000000000000,特優級,女廁所,公家機關設置供民眾使用者
臺南市,佳里區,六安里,D120000052,佳里派出所,臺南市佳里區六安里忠孝路７號,縣市政府,23.16521100000000000,120.17664600000000000,特優級,混合廁所,各級機關學校
臺南市,柳營區,果毅里,D040000081,南元休閒農場渡假飯店1F右側女廁,臺南市柳營區果毅里南湖２５號,其他,23.23879280419990000,120.37931084632900000,特優級,女廁所,森林遊樂區
彰化縣,田中鎮,東路里,N120000070,田中鎮農會,田中鎮南北街68號,縣市政府,23.85970264956940000,120.58653429150600000,特優級,混合廁所,公家機關設置供民眾使用者
臺南市,仁德區,仁義里,D270000077,統一精工仁德成功站加油站男廁,臺南市仁德區仁義里中山路３號,其他,22.96915500000000000,120.27134600000000000,特優級,男廁所,加油站
臺北市,松山區,美仁里,A010000665,松山分局男,臺北市松山區南京東路4段12號,縣市政府,25.05135600000000000,121.55256900000000000,特優級,男廁所,各級機關學校
臺北市,信義區,西村里,A020000187,台北101購物中心B1中女,臺北市信義區市府路45號,縣市政府,25.03402600000000000,121.56390300000000000,特優級,女廁所,百貨公司
臺北市,信義區,西村里,A020000184,台北101購物中心B1東男,臺北市信義區市府路45號,縣市政府,25.03402600000000000,121.56390300000000000,特優級,男廁所,百貨公司
臺北市,南港區,舊莊里,A090000608,山水綠生態公園遊客中心無障礙,臺北市南港區南深路37號,縣市政府,25.02947370352950000,121.62146598100700000,特優級,無障礙廁所,公家機關設置供民眾使用者
臺北市,士林區,福德里,A110000314,士林區戶政事務所3F右男,臺北市士林區中正路439號3樓,縣市政府,25.09284500000000000,121.51969800000000000,特優級,男廁所,各級機關學校
臺北市,士林區,福德里,A110000311,士林區戶政事務所3F左女,臺北市士林區中正路439號3樓,縣市政府,25.09284500000000000,121.51969800000000000,特優級,女廁所,各級機關學校
臺北市,士林區,福德里,A110000294,士林區公所7F士商右男,臺北市士林區中正路439號,縣市政府,25.09284500000000000,121.51969800000000000,特優級,男廁所,各級機關學校
臺北市,士林區,福德里,A110000291,士林區公所8F右女,臺北市士林區中正路439號,縣市政府,25.09284500000000000,121.51969800000000000,特優級,女廁所,各級機關學校
臺北市,文山區,興昌里,A080000700,臺北市政府公務人員訓練處B區教學B2體育館男,臺北市文山區萬美街二段21巷20號,縣市政府,25.00342200000000000,121.56078900000000000,特優級,男廁所,各級機關學校
臺北市,文山區,指南里,A080001514,文山13號男女,臺北市文山區萬壽路之指南宮調度站後方(530公車路線),縣市政府,24.98788100000000000,121.57575700000000000,特優級,混合廁所,公家機關設置供民眾使用者
臺北市,文山區,萬和里,A080000304,古亭地政事務所3F女,臺北市文山區溪州街137巷25號3樓,縣市政府,25.00076100000000000,121.53603700000000000,特優級,女廁所,各級機關學校
臺北市,松山區,吉祥里,A010000662,臺北市區監理所2F男,臺北市松山區八德路4段21號,交通部,25.04845900000000000,121.55902000000000000,特優級,男廁所,各級機關學校
臺北市,松山區,慈祐里,A010000489,松山區公所7F男,臺北市松山區八德路四段692號7樓,縣市政府,25.04985400000000000,121.57717100000000000,特優級,男廁所,各級機關學校
臺北市,大安區,龍門里,A030001184,大安森林公園6號建國南路女,臺北市大安區新生南路二段1號,縣市政府,25.03015200000000000,121.53535100000000000,特優級,女廁所,公園
臺北市,南港區,成福里,A090000475,成德立體停車場男,臺北市南港區成福路1號,縣市政府,25.04575700000000000,121.58608500000000000,特優級,男廁所,公路車站服務區及休息站
臺北市,萬華區,福星里,A070000005,洛陽停車場7樓06號女,臺北市萬華區環河南路一段1號,縣市政府,25.04767596200100000,121.50574421879400000,特優級,女廁所,公路車站服務區及休息站
臺北市,萬華區,福星里,A070000003,洛陽停車場1樓03號女,臺北市萬華區環河南路一段1號,縣市政府,25.04771289746030000,121.50573563569200000,特優級,女廁所,公路車站服務區及休息站
臺北市,大同區,玉泉里,A060000006,塔城公園地下停車場B1女,臺北市大同區塔城街11號地下,縣市政府,25.05086800000000000,121.51062000000000000,特優級,女廁所,公路車站服務區及休息站
臺北市,中正區,光復里,A050000987,中山堂地下停車場武昌入口女,臺北市中正區衡陽路93號,縣市政府,25.04231600000000000,121.50955300000000000,特優級,女廁所,公路車站服務區及休息站
臺北市,中山區,行仁里,A040000718,市民大道地下停車場林金段林森忠孝3號出口,臺北市中山區林森北路-金山北路間地下,縣市政府,25.06375834496210000,121.53815388679500000,特優級,混合廁所,公路車站服務區及休息站
基隆市,暖暖區,八南里,C030000022,八堵火車站-男廁,基隆市暖暖區八堵路142號,交通部,25.10831200000000000,121.72896100000000000,特優級,男廁所,鐵路局
臺北市,信義區,西村里,A020000328,市政大樓中央南區B2女,臺北市信義區市府路1號,縣市政府,25.03752300000000000,121.56378400000000000,特優級,女廁所,各級機關學校
臺北市,北投區,湖山里,A120001214,陽明山公園1號大門口立體停車場男,臺北市北投區新生街2號對面,縣市政府,25.15485308118900000,121.53893709182700000,特優級,男廁所,公園
臺北市,士林區,社園里,A110000856,社子公園男廁,臺北市士林區永平街20巷11弄3號對面,縣市政府,25.09022300000000000,121.50574500000000000,特優級,男廁所,公園
臺北市,中正區,黎明里,A050001015,二二八和平公園1號凱達格蘭大道男,臺北市中正區懷寧街37巷,縣市政府,25.04482600000000000,121.51421100000000000,特優級,男廁所,公園
臺北市,中山區,中吉里,A040000863,一江公園男,臺北市中山區一江街24號旁,縣市政府,25.05327276763450000,121.53126329183600000,特優級,男廁所,公園
花蓮縣,瑞穗鄉,瑞穗村,U090000010,瑞穗鄉衛生所-1樓女廁,花蓮縣瑞穗鄉瑞穗村民生街75號,縣市政府,23.49978600000000000,121.37895800000000000,特優級,女廁所,公家機關設置供民眾使用者
花蓮縣,新城鄉,嘉里村,U040000055,花蓮機場-北廁2樓女廁,花蓮縣新城鄉嘉里村嘉里路機場1號,交通部,24.02555392620980000,121.61339521408100000,特優級,女廁所,航空站
花蓮縣,新城鄉,嘉里村,U040000056,花蓮機場-B1停車場男廁,花蓮縣新城鄉嘉里村嘉里路機場1號,交通部,24.02555392620980000,121.61335229873700000,特優級,男廁所,航空站
花蓮縣,新城鄉,北埔村,U040000047,新城鄉衛生所-3樓女廁,花蓮縣新城鄉北埔路160號,縣市政府,24.03085800000000000,121.60524400000000000,特優級,女廁所,公家機關設置供民眾使用者
花蓮縣,新城鄉,北埔村,U040000042,新城鄉衛生所-1樓男廁,花蓮縣新城鄉北埔路160號,縣市政府,24.03064947794820000,121.60515546798700000,特優級,男廁所,公家機關設置供民眾使用者
花蓮縣,富里鄉,富里村,U100000059,富里鄉衛生所-1樓女廁,花蓮縣富里鄉富里村中山路203號,縣市政府,23.17882062287000000,121.24949455261200000,特優級,女廁所,公家機關設置供民眾使用者
花蓮縣,花蓮市,國慶里,U010000503,體育場-1樓B出口女廁,花蓮市國慶里達固湖灣大路23號,縣市政府,24.00209218453470000,121.57882690429700000,特優級,女廁所,公家機關設置供民眾使用者
雲林縣,土庫鎮,越港里,P050000047,三第加油站(股)公司-三第加油站無障礙,雲林縣土庫鎮越港里林森路86號,經濟部,23.67186329565620000,120.39374113082900000,優等級,無障礙廁所,加油站
雲林縣,虎尾鎮,平和里,P030000158,台亞石油(股)公司-台亞虎尾加油站男廁,雲林縣虎尾鎮平和里平和路1-2號,經濟部,23.70576000000000000,120.45283500000000000,特優級,男廁所,加油站
新北市,板橋區,深丘里,F010001005,遠東百貨板橋店11F-女廁,板橋區市中山路1段152號,其他,25.01105800000000000,121.46430500000000000,特優級,女廁所,百貨公司
新北市,板橋區,深丘里,F010000988,遠東百貨板橋店2F-女廁,板橋區市中山路1段152號,其他,25.01105800000000000,121.46430500000000000,特優級,女廁所,百貨公司
臺南市,新營區,忠政里,D010000039,臺南市政府南瀛大樓2F男廁,臺南市新營區忠政里民治路３６號,縣市政府,23.31166400000000000,120.31468600000000000,特優級,男廁所,各級機關學校
新北市,泰山區,全興里,F160000467,泰山圖書館-女廁,泰山區全興路212號5樓,其他,25.05607500000000000,121.43378300000000000,特優級,女廁所,文化育樂活動場所
新北市,泰山區,全興里,F160000462,泰山區公有市場1F-無障礙,泰山區全興路212號1、2樓,其他,25.05607500000000000,121.43378300000000000,特優級,無障礙廁所,市場
新北市,泰山區,全興里,F160000459,泰山區公有市場2F東側-女廁,泰山區全興路212號1、2樓,其他,25.05631300000000000,121.43364400000000000,特優級,女廁所,市場
新北市,泰山區,義學里,F160000250,泰山瓊仔湖福德宮-女廁,泰山區黎明路到底,其他,25.05139000000000000,121.42306500000000000,特優級,女廁所,寺廟教堂等宗教活動場所
新北市,樹林區,潭底里,F070000029,中油樹新加油站-男廁,樹林區中正路106號,其他,25.00142200000000000,121.42520500000000000,普通級,男廁所,加油站
新北市,樹林區,三興里,F070000025,中油思源加油站-女廁,三興路50號,其他,25.01451415085820000,121.39506876468700000,特優級,女廁所,加油站
新北市,新店區,中央里,F060001073,新店中央圖書館閱覽室-女廁,新店市中央路五街60號2樓,其他,24.97541800000000000,121.52726400000000000,優等級,無障礙廁所,文化育樂活動場所
新北市,新店區,新德里,F060000725,捷運新店區公所站-男廁,新店區北新路1段295號,其他,24.96748700000000000,121.54114700000000000,特優級,無障礙廁所,捷運車站
臺東縣,卑南鄉,明峰村,V040000068,臺東原生應用植物園餐廳旁無障礙廁所,臺東縣卑南鄉明峰村試驗場8號,縣市政府,22.85656300000000000,121.11543800000000000,特優級,無障礙廁所,觀光地區及風景區
新北市,板橋區,玉光里,F010002740,台亞板橋民生站-男廁,板橋區民生路2段19號,縣市政府,25.01657000000000000,121.47214300000000000,特優級,男廁所,加油站
南投縣,仁愛鄉,大同村,M130000080,清境農場國民賓館A棟無障礙廁所,南投縣仁愛鄉定遠新村25號,國軍退除役官兵輔導委員會,24.04244573333870000,121.15611046551700000,特優級,無障礙廁所,旅館
嘉義縣,朴子市,安福里,Q020000001,朴子市藝術公園-男廁,山通路2-9號,縣市政府,23.46725100000000000,120.25318000000000000,特優級,男廁所,公園
嘉義縣,水上鄉,柳林村,Q120000168,中油柳林站-男廁,嘉義縣水上鄉柳林村柳仔林76-6號,經濟部,23.43426400000000000,120.41546000000000000,特優級,男廁所,加油站
嘉義縣,水上鄉,中庄村,Q120000207,中油中庄站-男廁,嘉義縣水上鄉中庄村中庄1鄰131號,經濟部,23.42309581542040000,120.44364094734200000,特優級,男廁所,加油站
花蓮縣,花蓮市,民勤里,U010000312,花蓮縣衛生局-2樓女廁,花蓮市民勤里興新路200號,縣市政府,23.99232989866710000,121.61708593368500000,特優級,女廁所,公家機關設置供民眾使用者
花蓮縣,壽豐鄉,池南村,U060000092,鯉魚潭-濕地男廁,花蓮縣壽豐鄉池南村環潭北路100號,交通部,23.92383588146320000,121.50595664978000000,特優級,男廁所,觀光地區及風景區
雲林縣,斗南鎮,南昌里,P020000006,斗南車站前站男廁,雲林縣斗南鎮南昌里中山路二號,交通部,23.67158816427530000,120.47549486160300000,特優級,男廁所,鐵路局
雲林縣,斗六市,信義里,P010000011,斗六火車站二樓男廁,雲林縣斗六市信義里民生路187號,交通部,23.71159800000000000,120.54114900000000000,特優級,男廁所,鐵路局
臺中市,東　區,新庄里,B020000064,新時代購物中心-4F(男廁),臺中市東區復興路四段186號,其他,24.13635000000000000,120.68776000000000000,特優級,男廁所,百貨公司
臺中市,中　區,中華里,B010000174,日新大戲院9F(男廁),臺中市中區中華路一段58號,其他,24.14375000000000000,120.67535000000000000,特優級,男廁所,戲院
臺中市,中　區,大誠里,B010000162,第一醫院,臺中市中區民族路184號,縣市政府,24.14244000000000000,120.67643000000000000,特優級,混合廁所,醫院
臺中市,中　區,光復里,B010000116,澄清綜合醫院1F-C(男廁),臺中市中區平等街139號,縣市政府,24.14301000000000000,120.68199000000000000,特優級,男廁所,醫院
宜蘭縣,礁溪鄉,六結村,G050000063,礁溪鄉公所1F女廁含無障礙廁所,262宜蘭縣礁溪鄉六結村中山路2段3號,縣市政府,24.82366234654950000,121.77124857902500000,特優級,女廁所,公家機關設置供民眾使用者
臺南市,佳里區,六安里,D120000066,佳里區圖書館2F男廁,臺南市佳里區六安里安北路１１８號,縣市政府,23.16875700000000000,120.17734700000000000,特優級,男廁所,各級社教機關
臺南市,官田區,社子里,D100000206,嘉南高爾夫球場2F男廁,臺南市官田區社子里六雙２１號,其他,23.16831600000000000,120.37073400000000000,特優級,男廁所,娛樂場所
臺南市,鹽水區,橋南里,D020000030,鹽水區圖書館1F女廁,臺南市鹽水區橋南里月津路１４之１號,縣市政府,23.31633600000000000,120.26638000000000000,特優級,女廁所,各級社教機關
臺南市,新營區,新北里,D010000098,社會福利服務中心3F男廁,臺南市新營區忠政里民治路３６號,縣市政府,23.31257500000000000,120.31406600000000000,特優級,男廁所,公家機關設置供民眾使用者
新北市,樹林區,圳民里,F070000646,台亞俊英加油站-男廁,俊英街280號,其他,25.01326900000000000,121.42400900000000000,優等級,男廁所,加油站
新北市,樹林區,北園里,F070000492,中油柑園加油站-男廁,佳園路2段47號,其他,24.96242300000000000,121.39189300000000000,特優級,男廁所,加油站
新北市,樹林區,東昇里,F070000387,中油永錡大安加油站-男廁,大安路576號,其他,24.98365200000000000,121.41169300000000000,優等級,男廁所,加油站
新北市,樹林區,猐寮里,F070000163,台灣中油三多加油站女廁,新北市樹林區中正路433號,經濟部,25.00870600000000000,121.41533900000000000,特優級,女廁所,加油站
新北市,樹林區,潭底里,F070000069,家樂福樹林店-男廁,大安路118號,其他,24.99710800000000000,121.42132900000000000,特優級,男廁所,量販店
臺南市,歸仁區,許厝里,D280000106,歸仁文化中心行政大樓1F女廁,臺南市歸仁區許厝里信義南路７８號,縣市政府,22.96410300000000000,120.29805900000000000,特優級,女廁所,文化育樂活動場所
臺南市,歸仁區,後市里,D280000080,歸仁區公所調解委員會混合廁,臺南市歸仁區後市里中山路二段２號,縣市政府,22.96730200000000000,120.29428400000000000,特優級,混合廁所,各級機關學校
臺南市,歸仁區,後市里,D280000077,歸仁區公所1F女廁,臺南市歸仁區後市里中山路二段２號,縣市政府,22.96724800000000000,120.29393700000000000,特優級,女廁所,各級機關學校
臺南市,仁德區,仁德里,D270000064,仁德區衛生所1F女廁,臺南市仁德區仁德里中山路６０６巷２號,縣市政府,22.97271300000000000,120.25147500000000000,特優級,女廁所,各級機關學校
臺南市,仁德區,仁德里,D270000061,仁德戶政事務所仁德辦公處1F男廁,臺南市仁德區仁德里中山路６０６巷３號,縣市政府,22.97227700000000000,120.25122200000000000,特優級,男廁所,各級機關學校
臺南市,左鎮區,中正里,D260000027,左鎮區公所1F男廁,臺南市左鎮區中正里中正１７１號之４,縣市政府,23.05677600000000000,120.40865600000000000,特優級,男廁所,各級機關學校
臺南市,玉井區,玉井里,D230000010,玉井區衛生所混合廁,臺南市玉井區中正路５號,縣市政府,23.12223600000000000,120.45923000000000000,特優級,混合廁所,各級機關學校
臺南市,新市區,新和里,D200000015,新市區公所2F混合廁,臺南市新市區新市里中興街１２號,縣市政府,23.07899700000000000,120.29506000000000000,特優級,混合廁所,各級機關學校
宜蘭縣,礁溪鄉,吳沙村,G050000090,四城火車站無障礙廁所,262宜蘭縣礁溪鄉吳沙村站前路24號,交通部,24.78654801247610000,121.76269501447700000,特優級,無障礙廁所,鐵路局
臺北市,文山區,興昌里,A080000703,臺北市政府公務人員訓練處B區教學2F男,臺北市文山區萬美街二段21巷20號,縣市政府,25.00342200000000000,121.56078900000000000,特優級,男廁所,各級機關學校
臺北市,大安區,華聲里,A030001462,秀傳醫院男女,臺北市大安區光復南路116巷1、3、5號,縣市政府,25.04299200000000000,121.55649500000000000,特優級,混合廁所,醫院
臺北市,內湖區,石潭里,A100000821,萊爾富便利商店北市新明店男女,臺北市內湖區114新明路241、241-1號,縣市政府,25.05745568631530000,121.58861160278300000,特優級,混合廁所,超市
苗栗縣,後龍鎮,海埔里,K060000138,外埔漁港,後龍鎮海埔里131之7號,縣市政府,24.64760711953800000,120.77061617373600000,特優級,無障礙廁所,港區
苗栗縣,後龍鎮,中龍里,K060000002,後龍火車站-男廁,苗栗縣後龍鎮車站街一二七號,交通部,24.61601368893860000,120.78708493708700000,特優級,男廁所,鐵路局
南投縣,集集鎮,林尾里,M050000008,台灣中油集集加油站男廁,集集鎮林尾里民生路317號,經濟部,23.82606300000000000,120.77556700000000000,特優級,男廁所,加油站
南投縣,集集鎮,林尾里,M050000009,台灣中油新集集站無障礙廁所,南投縣集集鎮林尾里名水路二段500號,其他,23.82166666666670000,120.77250000000000000,特優級,無障礙廁所,加油站
南投縣,集集鎮,林尾里,M050000007,台灣中油集集加油站女廁,集集鎮林尾里民生路317號,經濟部,23.82606300000000000,120.77556700000000000,特優級,女廁所,加油站
南投縣,鹿谷鄉,內湖村,M070000053,溪頭營林區舊票房邊女廁,南投縣鹿谷鄉內湖村森林巷9號,其他,23.67205555555560000,120.79647222222200000,特優級,女廁所,森林遊樂區
花蓮縣,秀林鄉,景美村,U110000020,太魯閣國家公園錦文隧道口(大清水休憩據點)-男廁,花蓮縣秀林鄉崇德村海濱100號,內政部,24.09571220000000000,121.49004210000000000,特優級,男廁所,觀光地區及風景區
花蓮縣,吉安鄉,吉安村,U050000064,吉安鄉衛生所-2樓男廁,花蓮縣吉安鄉吉安村吉安路2段132號,縣市政府,23.97382265043350000,121.56357049942000000,特優級,男廁所,公家機關設置供民眾使用者
花蓮縣,光復鄉,大安村,U070000002,光復火車站-女廁,花蓮縣光復鄉大安村中正路1段2-1號,交通部,23.66633100000000000,121.42116200000000000,特優級,女廁所,鐵路局
花蓮縣,玉里鎮,永昌里,U030000059,花蓮縣政府南區服務中心,花蓮縣玉里鎮永昌里莊敬路8號,縣市政府,23.34032507836510000,121.32026195526100000,特優級,混合廁所,公家機關設置供民眾使用者
花蓮縣,玉里鎮,中城里,U030000004,玉里加油站-男廁,花蓮縣玉里鎮中城里大同路219號,經濟部,23.33271300000000000,121.31237200000000000,特優級,男廁所,加油站
新竹縣,竹北市,北崙里,J010000314,縣福園公園男廁,新竹縣竹北市縣政二路,縣市政府,24.82097600000000000,121.01348400000000000,特優級,男廁所,公園
新竹縣,竹北市,隘口里,J010000271,高鐵新竹站一號出口男廁,新竹縣竹北市隘口里高鐵七路6號,交通部,24.80827778000000000,121.04016670000000000,特優級,男廁所,高鐵
新竹縣,竹北市,斗崙里,J010000001,府前加油站男廁,新竹縣竹北市縣政二路112號,經濟部,24.82425876921700000,121.01493537426000000,特優級,男廁所,加油站
臺中市,北屯區,舊社里,B080000134,民營松竹市場(男廁),臺中市北屯區松竹路40號,縣市政府,24.18295000000000000,120.70094000000000000,特優級,男廁所,市場
臺中市,西　區,昇平里,B040000296,向上國中行政大樓左側印刷室(男廁),臺中市西區美村路1段389號,縣市政府,24.14355000000000000,120.66165000000000000,特優級,男廁所,各級機關學校
臺中市,西　區,廣民里,B040000186,中西區衛生所(女廁),臺中市西區民權路105號,縣市政府,24.14114000000000000,120.67567000000000000,特優級,女廁所,公家機關設置供民眾使用者
臺中市,西　區,廣民里,B040000158,衛生福利部臺中醫院B1F-B心導管(女廁),臺中市西區三民路一段199號,衛生福利部,24.14087000000000000,120.67633000000000000,特優級,女廁所,醫院
新北市,新店區,新店里,F060000517,碧潭東岸2-女廁,碧潭東岸吊橋下,其他,24.95637400000000000,121.53676400000000000,特優級,女廁所,觀光地區及風景區
新北市,新店區,張南里,F060000514,碧潭東岸1-男廁,碧潭東岸北二高橋下,其他,24.96078400000000000,121.53699200000000000,特優級,男廁所,觀光地區及風景區
新北市,新店區,信義里,F060000144,信義活動中心-女廁,新店市寶慶街10-1號,其他,24.98665025585580000,121.54383695122300000,優等級,女廁所,民眾團體活動場所
新北市,新店區,明德里,F060000005,中油大豐加油站-男廁,新店市北新路2段205號,經濟部,24.97840100000000000,121.54216900000000000,特優級,男廁所,加油站
新北市,新莊區,立基里,F050000941,文化藝術中心-女廁,"新北市新莊區中平路133號 ",文化部,25.04718000000000000,121.44472300000000000,特優級,女廁所,文化育樂活動場所
新北市,新莊區,中華里,F050000572,新北市立圖書館中港分館-男廁,"新北市新莊區中港路324-3號2樓 ",縣市政府,25.04557400000000000,121.45252200000000000,特優級,男廁所,文化育樂活動場所
新北市,新莊區,雙鳳里,F050000523,牡丹心活動中心-無障礙,"新北市新莊區雙鳳路75號5樓 ",縣市政府,25.02766400000000000,121.41492800000000000,特優級,無障礙廁所,民眾團體活動場所
新北市,新莊區,丹鳳里,F050000434,特力翠豐百貨新莊店-男廁,新北市新莊區中正路620號,經濟部,25.02956000000000000,121.42253400000000000,特優級,男廁所,百貨公司
臺南市,新營區,新北里,D010000249,中油新營長榮路加油站男廁,臺南市新營區新北里長榮路二段１８６號,經濟部,23.31882900000000000,120.30643300000000000,特優級,男廁所,加油站
彰化縣,彰化市,卦山里,N010000213,八卦山棒球場（女廁）,彰化市卦山里卦山路,縣市政府,24.07837800000000000,120.54616700000000000,特優級,女廁所,文化育樂活動場所
基隆市,信義區,智誠里,C070000109,智誠里-1-混合廁所,基隆市信義區月眉路107號,縣市政府,25.12156800000000000,121.75652300000000000,特優級,混合廁所,公家機關設置供民眾使用者
基隆市,信義區,仁壽里,C070000013,基隆市衛生局1樓-性別友善廁所,基隆市信義區信二路266號1樓,縣市政府,25.12986900000000000,121.74921900000000000,特優級,性別友善廁所,各級機關學校
基隆市,安樂區,鶯歌里,C060000312,台灣中油股份有限公司-泉益站-男廁,基隆市麥金路120號,縣市政府,25.11749513345810000,121.72586560249300000,特優級,男廁所,加油站
基隆市,仁愛區,新店里,C040000222,慶安宮-男廁,基隆市仁愛區忠二路1號,其他,25.12958399305780000,121.74076527357100000,特優級,男廁所,寺廟教堂等宗教活動場所
臺中市,西屯區,福安里,B060000755,永安國小第1棟東西邊右側(男廁),臺中市西屯區西屯路三段133號,縣市政府,24.18461000000000000,120.62462000000000000,特優級,男廁所,各級機關學校
臺中市,西屯區,港尾里,B060000663,果菜批發市場A(男廁),臺中市西屯區中清路中清路二段1558號,縣市政府,24.20095949673260000,120.66056728363000000,特優級,男廁所,市場
臺中市,大雅區,上雅里,B180000129,大雅區戶政事務所-女廁,臺中市大雅區雅環路二段299號二樓,縣市政府,24.22918800000000000,120.64841600000000000,特優級,女廁所,公家機關設置供民眾使用者
臺中市,大雅區,二和里,B180000111,臺中市立圖書館(大雅分館)3F-男,臺中市大雅區雅潭路4段800號,縣市政府,24.22194400000000000,120.65027800000000000,特優級,男廁所,各級社教機關
臺中市,豐原區,鎌村里,B090000347,台塑福懋豐原站-女廁,臺中市豐原區鎌村路186號,縣市政府,24.23103600000000000,120.72415800000000000,特優級,女廁所,加油站
臺中市,豐原區,田心里,B090000295,台灣中油豐源站-女廁,臺中市豐原區中山路82號,縣市政府,24.23745300000000000,120.71085800000000000,特優級,女廁所,加油站
臺中市,豐原區,田心里,B090000292,台灣中油豐南站-男廁,臺中市豐原區圓環東路152號,縣市政府,24.24324300000000000,120.71845600000000000,特優級,男廁所,加油站
臺中市,豐原區,西勢里,B090000113,童樂公園-男,臺中市豐原區中興路201號,縣市政府,24.24716400000000000,120.71225300000000000,特優級,男廁所,公園
臺中市,豐原區,豐圳里,B090000218,豐圳公園(活動中心)-男女混廁,臺中市豐原區成功路520號,縣市政府,24.25344100000000000,120.70733800000000000,特優級,混合廁所,民眾團體活動場所
臺中市,豐原區,南村里,B090000494,慈濟公園(豐東路側)-女廁,臺中市豐原區豐東路596號對面,縣市政府,24.25752800000000000,120.73312500000000000,特優級,女廁所,公園
新竹市,北　區,湳雅里,O020000213,大潤發(湳雅店)地下停車場無障礙廁,新竹市湳雅街95號,其他,24.81844400000000000,120.97087100000000000,特優級,無障礙廁所,量販店
宜蘭縣,宜蘭市,南門里,G010000436,南門林園園區男廁,260宜蘭縣宜蘭市南門里舊城南路縣府一巷8號,縣市政府,24.75550277108730000,121.74931883812000000,特優級,男廁所,文化育樂活動場所
臺南市,下營區,營前里,D080000050,下營公園女廁,臺南市下營區後街里中正北路２８６巷１９號(對街),縣市政府,23.23982600000000000,120.26154900000000000,特優級,女廁所,公園
屏東縣,新埤鄉,新埤村,T150000008,新埤鄉戶政事務所女廁,屏東縣新埤鄉(村)新華路146號,縣市政府,22.46876944444440000,120.55120555555600000,特優級,女廁所,各級機關學校
臺中市,大里區,永隆里,B280000262,台灣中油大勝站-男廁,臺中市大里區大明路482號,縣市政府,24.11509600000000000,120.67495300000000000,特優級,男廁所,加油站
臺中市,大里區,仁化里,B280000124,台灣中油仁化站-男廁,臺中市大里區仁化路686號,縣市政府,24.09544100000000000,120.69443600000000000,特優級,男廁所,加油站
臺中市,大里區,新仁里,B280000106,台灣中油立新站-女廁,臺中市大里區新仁路一段71之38號,縣市政府,24.11155000000000000,120.70645300000000000,特優級,女廁所,加油站
臺中市,沙鹿區,南勢里,B130000200,南勢溪公園-男,臺中市沙鹿區南斗路與自由路交叉口,縣市政府,24.21636159397060000,120.56344985961900000,特優級,男廁所,公園
臺中市,和平區,博愛里,B290000069,明治溫泉大飯店-女廁,臺中市和平區東關路一段溫泉巷17號,縣市政府,24.20369900000000000,121.00994100000000000,特優級,女廁所,旅館
臺中市,清水區,高美里,B120000171,高美國民小學1樓健康中心-1女廁,臺中市清水區高美里護岸路37號,縣市政府,24.31197200000000000,120.56269700000000000,特優級,女廁所,各級機關學校
臺中市,清水區,鰲峰里,B120000022,鰲峰山運動公園-女,"臺中市清水區吳厝路(鰲峰山公園站牌,清水十號井旁)",縣市政府,24.27231800000000000,120.58234300000000000,特優級,女廁所,公園
臺中市,清水區,中社里,B120000147,臺中市港區藝術中心(清風樓1樓)-女廁,臺中市清水區忠貞路21號,縣市政府,24.26957800000000000,120.55789200000000000,特優級,女廁所,文化育樂活動場所
臺南市,龍崎區,楠坑里,D300000031,關廟服務區南下東側無障礙廁,臺南市龍崎區楠坑里楠坑１２之１號,交通部,22.92996200000000000,120.35057500000000000,特優級,無障礙廁所,公路車站服務區及休息站
臺南市,山上區,豐德里,D220000051,台糖豐德加油站女廁,臺南市山上區豐德里隙子口１之１號,經濟部,23.07886600000000000,120.36764200000000000,特優級,女廁所,加油站
臺南市,七股區,玉成里,D150000032,中油七股加油站女廁,臺南市七股區玉成里玉成１８號之２,經濟部,23.13686100000000000,120.13481200000000000,特優級,女廁所,加油站
臺南市,楠西區,密枝里,D240000023,曾文水庫溪畔遊樂區楠西方向男廁,臺南市楠西區密枝里密枝７０號,經濟部,23.23240400000000000,120.50545700000000000,特優級,男廁所,觀光地區及風景區
臺中市,北屯區,仁和里,B080000345,北屯區戶政事務所(無障礙廁所),臺中市北屯區崇德路三段10號,縣市政府,24.18260000000000000,120.68631000000000000,特優級,無障礙廁所,公家機關設置供民眾使用者
臺中市,北屯區,仁和里,B080000312,四張犁公園(女廁),臺中市北屯區豐樂一街與昌平路二段路口,縣市政府,24.19525000000000000,120.68055000000000000,特優級,女廁所,公園
臺中市,南　區,和平里,B030000118,中興醫院13F(男廁),臺中市南區復興路2段11號７樓,縣市政府,24.11814300000000000,120.65840000000000000,特優級,男廁所,醫院
新竹縣,新埔鎮,文山里,J030000006,新關加油站男女廁,新埔鎮文山里文山路亞東段871號,經濟部,24.82715076983320000,121.04759931564300000,特優級,混合廁所,加油站
新竹縣,新埔鎮,五埔里,J030000018,全國新埔加油站女廁,新埔鎮五埔里新關路五埔段963號,經濟部,24.82446325632760000,121.08774662017800000,特優級,女廁所,加油站
嘉義市,東　區,東川里,I010000272,嘉義公園孔廟旁女廁,嘉義市東區嘉義公園孔廟旁,縣市政府,23.48251400000000000,120.46623800000000000,特優級,女廁所,寺廟教堂等宗教活動場所
臺南市,新營區,大宏里,D010000271,肯德基新營中正店女廁,臺南市新營區大宏里中正路６之１號,其他,23.30744400000000000,120.31626600000000000,特優級,女廁所,餐廳
臺南市,仁德區,仁德里,D270000018,家樂福仁德店2F女廁,臺南市仁德區仁德里中山路７１１號,其他,22.97240400000000000,120.24711800000000000,特優級,女廁所,量販店
臺南市,仁德區,仁德里,D270000015,家樂福仁德店1F女廁,臺南市仁德區仁德里中山路７１１號,其他,22.97240400000000000,120.24711800000000000,特優級,女廁所,量販店
臺南市,後壁區,後壁里,D050000115,後壁火車站男廁,臺南市後壁區後壁里後壁７７號,交通部,23.36610900000000000,120.36054800000000000,特優級,男廁所,鐵路局
臺中市,南　區,樹德里,B030000148,樹德公園(女廁),臺中市南區文心南路與樹德一巷路口,縣市政府,24.11684877625110000,120.65393418073700000,特優級,女廁所,公園
臺中市,南　區,樹義里,B030000130,愛買吉安復興店B1F(女廁),臺中市南區復興路一段359號,縣市政府,24.11549900000000000,120.65434400000000000,特優級,女廁所,量販店
彰化縣,彰化市,大竹里,N010000525,東區衛生所,彰化市彰南路二段346巷26號,縣市政府,24.08398384863070000,120.58228969574000000,特優級,混合廁所,公家機關設置供民眾使用者
臺南市,新營區,民生里,D010000071,新營分隊,臺南市新營區民權里中華路２號,縣市政府,23.30524700000000000,120.31524000000000000,特優級,混合廁所,各級機關學校
臺南市,麻豆區,中興里,D070000170,麻豆地政事務所2F男廁,臺南市麻豆區中興里興國路２６號,縣市政府,23.18166200000000000,120.24777700000000000,特優級,男廁所,各級機關學校
嘉義市,西　區,西平里,I020000349,台灣中油信義加油站女廁,嘉義市西區西平里博愛路二段519號,經濟部,23.46881000000000000,120.42893000000000000,特優級,女廁所,加油站
嘉義市,東　區,北門里,I010000768,博物館2F女廁,嘉義市東區忠孝路275-1號,縣市政府,23.48848500000000000,120.45137200000000000,特優級,女廁所,文化育樂活動場所
嘉義市,東　區,蘭潭里,I010000372,蘭潭水庫土地公廟旁無障礙廁所,嘉義市東區蘭潭水庫土地公廟旁,縣市政府,23.47519800000000000,120.48825800000000000,特優級,無障礙廁所,觀光地區及風景區
臺北市,文山區,木新里,A080001054,文山區公所9F右男,臺北市文山區木柵路三段220號9樓,縣市政府,24.98960400000000000,121.57008700000000000,特優級,男廁所,各級機關學校
臺北市,文山區,木新里,A080001051,文山區公所8F社會課服務台前方女,臺北市文山區木柵路三段220號9樓,縣市政府,24.98960400000000000,121.57008700000000000,特優級,女廁所,各級機關學校
臺北市,中正區,水源里,A050000018,臺北交通事件裁決所7F男,臺北市中正區羅斯福路四段92號7樓、8樓,縣市政府,25.01376000000000000,121.53501000000000000,特優級,男廁所,各級機關學校
臺北市,士林區,三玉里,A110001176,臺北市職能發展學院教學5F男,臺北市士林區士東路301號,縣市政府,25.11473200000000000,121.53771900000000000,特優級,男廁所,各級機關學校
臺北市,士林區,三玉里,A110001173,臺北市職能發展學院綜合7F女,臺北市士林區士東路301號,縣市政府,25.11473200000000000,121.53771900000000000,特優級,女廁所,各級機關學校
臺北市,信義區,景聯里,A020001492,臺北市立圖書館三興分館4F男,臺北市信義區吳興街156巷6號4樓,縣市政府,25.02901400000000000,121.56117600000000000,特優級,男廁所,各級社教機關
臺北市,松山區,慈祐里,A010000534,臺北市立圖書館松山分館5F女,臺北市松山區八德路四段668號2樓,縣市政府,25.04986500000000000,121.57616200000000000,特優級,女廁所,各級社教機關
臺北市,松山區,精忠里,A010000248,臺北市立圖書館民生分館5F男,臺北市松山區敦化北路199巷5號4樓,縣市政府,25.05699200000000000,121.55153000000000000,特優級,男廁所,各級社教機關
臺北市,中正區,建國里,A050000647,臺北市立大學勤樸樓3樓西,臺北市中正區愛國西路1號,教育部,25.03555800000000000,121.51358000000000000,特優級,女廁所,各級機關學校
臺北市,中正區,建國里,A050000630,臺北市立大學行政樓2樓男,臺北市中正區愛國西路1號,教育部,25.03555800000000000,121.51358000000000000,特優級,男廁所,各級機關學校
臺北市,信義區,西村里,A020000520,市政大樓北區9F女,臺北市信義區市府路1號,縣市政府,25.03752300000000000,121.56378400000000000,特優級,女廁所,各級機關學校
臺北市,信義區,西村里,A020000454,市政大樓東南區11F女,臺北市信義區市府路1號,縣市政府,25.03752300000000000,121.56378400000000000,特優級,女廁所,各級機關學校
臺北市,信義區,西村里,A020000451,市政大樓東南區10F男,臺北市信義區市府路1號,縣市政府,25.03752300000000000,121.56378400000000000,特優級,男廁所,各級機關學校
臺北市,信義區,西村里,A020000437,市政大樓東南區3F男,臺北市信義區市府路1號,縣市政府,25.03752300000000000,121.56378400000000000,特優級,男廁所,各級機關學校
臺北市,信義區,西村里,A020000434,市政大樓東南區1F女,臺北市信義區市府路1號,縣市政府,25.03752300000000000,121.56378400000000000,特優級,女廁所,各級機關學校
臺北市,信義區,西村里,A020000431,市政大樓西北區11F男,臺北市信義區市府路1號,縣市政府,25.03752300000000000,121.56378400000000000,特優級,男廁所,各級機關學校
臺北市,信義區,西村里,A020000414,市政大樓西北區2F女,臺北市信義區市府路1號,縣市政府,25.03752300000000000,121.56378400000000000,特優級,女廁所,各級機關學校
臺北市,信義區,西村里,A020000394,市政大樓東北區5F女,臺北市信義區市府路1號,縣市政府,25.03752300000000000,121.56378400000000000,特優級,女廁所,各級機關學校
臺中市,大里區,國光里,B280000210,仁愛醫療財團法人大里仁愛醫院(7樓)-女廁,"臺中市大里區東榮路 483號",縣市政府,24.10926700000000000,120.68010600000000000,特優級,女廁所,醫院
臺中市,大里區,內新里,B280000099,大里兒童福利中心(6F自習教室)-男廁,臺中市大里區新光路32號,縣市政府,24.11047600000000000,120.69172300000000000,特優級,男廁所,文化育樂活動場所
臺中市,大里區,國光里,B280000196,仁愛醫療財團法人大里仁愛醫院(B2樓)-混合廁,"臺中市大里區東榮路 483號",縣市政府,24.10926700000000000,120.68010600000000000,特優級,混合廁所,醫院
臺中市,大里區,大明里,B280000259,地方稅務局大屯分局一樓(女廁),臺中市大里區中興路二段633號,縣市政府,24.11583300000000000,120.68944400000000000,特優級,女廁所,公家機關設置供民眾使用者
臺中市,大里區,西榮里,B280000071,臺中市大里地政事務所(4樓)-男廁,臺中市大里區東榮路296號,縣市政府,24.11050300000000000,120.68555500000000000,特優級,男廁所,公家機關設置供民眾使用者
臺中市,大里區,中新里,B280000331,全家大里永興店-混合廁,臺中市大里區中興路二段156號,縣市政府,24.10177010265040000,120.68394541740400000,特優級,混合廁所,超市
臺中市,大里區,永隆里,B280000303,永隆國民小學(1樓)-1女廁,臺中市大里區永隆五街2號,縣市政府,24.11107800000000000,120.67734600000000000,特優級,女廁所,各級機關學校
臺中市,沙鹿區,竹林里,B130000099,台灣中油沙鹿站-女廁,臺中市沙鹿區臺灣大道七段391號,經濟部,24.23118700000000000,120.57276500000000000,特優級,女廁所,加油站
臺中市,清水區,中社里,B120000144,臺中市港區藝術中心(雅書廊3樓)-男廁,臺中市清水區忠貞路21號,縣市政府,24.26957800000000000,120.55789200000000000,特優級,男廁所,文化育樂活動場所
臺中市,清水區,中社里,B120000141,臺中市港區藝術中心(演藝廳1樓後台)-女廁,臺中市清水區忠貞路21號,縣市政府,24.26957800000000000,120.55789200000000000,特優級,女廁所,文化育樂活動場所
臺中市,清水區,頂湳里,B120000192,臺中港火車站-女廁,臺中市清水區甲南路2號,交通部,24.30453600000000000,120.60268900000000000,特優級,女廁所,鐵路局
臺中市,清水區,南社里,B120000076,清水火車站-男廁,臺中市清水區南社里中正街115號,交通部,24.26364600000000000,120.56921700000000000,特優級,男廁所,鐵路局
臺中市,清水區,清水里,B120000044,清水第一市場(B1樓)-女,臺中市清水區鎮北街9號,縣市政府,24.26794700000000000,120.57591900000000000,特優級,女廁所,市場
臺中市,清水區,田寮里,B120000194,台灣中油祝福站-男廁,臺中市清水區田寮里高美路96號,縣市政府,24.27885600000000000,120.57549100000000000,特優級,男廁所,加油站
臺中市,清水區,海濱里,B120000109,台灣中油台中港站-女廁,臺中市清水區臨港路六段1號,經濟部,24.28975200000000000,120.54017800000000000,特優級,女廁所,加油站
臺中市,大甲區,平安里,B110000078,李綜合醫院大甲分院(5樓)-親子廁,臺中市大甲區八德街2號,縣市政府,24.35083300000000000,120.61833300000000000,特優級,親子廁所,醫院
臺南市,新市區,豐華里,D200000065,道爺湖男廁,臺南市新市區豐華里南科三路３２號(西方道爺湖公園停車場旁),其他,23.09868100000000000,120.27987200000000000,特優級,男廁所,觀光地區及風景區
臺南市,歸仁區,歸南里,D280000047,歸仁地政事務所2樓女廁,臺南市歸仁區六甲里中正南路一段１２０３號,縣市政府,22.94793500000000000,120.27814400000000000,特優級,女廁所,各級機關學校
新竹市,東　區,育賢里,O010000163,新竹巿東區衛生所女廁,新竹市民族路40-2號,縣市政府,24.80541724197130000,120.97374925016500000,特優級,女廁所,各級機關學校
金門縣,烈嶼鄉,林湖村,W050000010,八達樓子無障礙廁所,金門縣烈嶼鄉林湖村八達樓子,縣市政府,24.43006852228580000,118.24600785970700000,特優級,無障礙廁所,觀光地區及風景區
新竹市,北　區,大同里,O020000068,青少年館無障礙廁,新竹市府後街58號,縣市政府,24.80869900000000000,120.96879400000000000,特優級,無障礙廁所,各級社教機關
彰化縣,彰化市,長樂里,N010000147,火車站前麥當勞男廁,彰化市中正路1段566號1樓,縣市政府,24.08188772878410000,120.53961038589500000,特優級,混合廁所,餐廳
彰化縣,彰化市,永福里,N010000069,摩斯漢堡,彰化市永福里孔門路1號,縣市政府,24.07824392486150000,120.54447054863000000,特優級,混合廁所,餐廳
臺中市,南屯區,田心里,B070000277,文心森林公園-捷運站(男廁),臺中市南屯區文心路與向上路二段交界處,縣市政府,24.14612700000000000,120.64498900000000000,特優級,男廁所,公園
臺中市,西屯區,何德里,B060000798,中義公有市場(女廁),臺中市西屯區何安里重慶路180號,縣市政府,24.16728900000000000,120.65752300000000000,特優級,女廁所,市場
臺中市,西屯區,何源里,B060000821,成都公園(無障礙廁所),臺中市西屯區成都路與漢成四街口,縣市政府,24.16903000000000000,120.66494000000000000,特優級,無障礙廁所,公園
臺中市,西屯區,何源里,B060000818,河南公園(女廁),臺中市西屯區重慶路與內江街口,縣市政府,24.17070000000000000,120.66343000000000000,特優級,女廁所,公園
彰化縣,彰化市,華北里,N010000291,彰化市華陽市場立體停車場1F市場02(男廁),彰化市華北里旭光路69號,縣市政府,24.07287598206110000,120.54628372192400000,特優級,男廁所,市場
臺中市,南屯區,大興里,B070000326,正心公園(女廁),臺中市南屯區南屯路與大墩南路附近,縣市政府,24.13593000000000000,120.65054000000000000,特優級,女廁所,公園
彰化縣,溪湖鎮,東溪里,N110000108,"溪湖鎮肇霖宮 ","溪湖鎮東溪里成功路63巷2號 ",縣市政府,23.95613143166050000,120.49930214881900000,特優級,無障礙廁所,寺廟教堂等宗教活動場所
臺中市,南屯區,三和里,B070000427,林新醫院A棟3F(女廁),臺中市南屯區惠中路三段36號,縣市政府,24.14904000000000000,120.64064000000000000,特優級,女廁所,醫院
彰化縣,彰化市,大竹里,N010000526,大竹派出所,彰化市大竹里彰南路二段170號,內政部,24.08482620489530000,120.58025121688800000,特優級,混合廁所,公家機關設置供民眾使用者
臺中市,南屯區,三和里,B070000440,林新醫院B棟2F(女廁),臺中市南屯區惠中路三段36號,縣市政府,24.14904000000000000,120.64064000000000000,特優級,女廁所,醫院
臺中市,西　區,公正里,B040000397,臺中市立圖書館(西區分館)3F-女廁,臺中市西區精誠路256號,縣市政府,24.14918100000000000,120.65470700000000000,特優級,女廁所,各級社教機關
臺中市,西　區,三民里,B040000132,臺中市西區戶政事務所(女廁),臺中市西區三民路一段161號三樓,縣市政府,24.13655193454300000,120.67372083663900000,特優級,女廁所,公家機關設置供民眾使用者
臺南市,麻豆區,海埔里,D070000134,麻豆海埔池王府女廁,臺南市麻豆區海埔里海埔８０號之１,其他,23.20345100000000000,120.21175800000000000,特優級,女廁所,寺廟教堂等宗教活動場所
新竹市,北　區,大同里,O020000035,新竹市政府州廳1樓民政處旁混合廁,新竹市北區中正路120號,縣市政府,24.80674900000000000,120.96886300000000000,特優級,混合廁所,各級機關學校
嘉義市,東　區,東興里,I010000882,市政府9F近中山路女廁,嘉義市東區中山路199號,縣市政府,23.48130500000000000,120.45356600000000000,特優級,女廁所,公家機關設置供民眾使用者
嘉義市,東　區,東興里,I010000706,市政府6F近中山路女廁,嘉義市東區中山路199號,縣市政府,23.48130500000000000,120.45356600000000000,特優級,女廁所,公家機關設置供民眾使用者
嘉義市,東　區,義教里,I010000791,耐斯王子大飯店7F女廁,嘉義市東區忠孝路600號,縣市政府,23.49665400000000000,120.45319900000000000,特優級,女廁所,旅館
新竹縣,竹東鎮,仁愛里,J020000136,中央市場女廁,新竹縣竹東鎮東林路,縣市政府,24.73658600000000000,121.08870400000000000,特優級,女廁所,市場
新竹縣,峨眉鄉,湖光村,J110000052,十二寮休閒農業區女廁,新竹縣峨眉鄉湖光村,縣市政府,24.67388906459930000,120.98653078079200000,特優級,女廁所,觀光地區及風景區
新竹縣,竹北市,隘口里,J010000275,高鐵新竹站三號出口女廁,新竹縣竹北市隘口里高鐵七路6號,交通部,24.80827778000000000,121.04016670000000000,特優級,女廁所,高鐵
新竹縣,芎林鄉,上山村,J070000216,芎林加油站女廁,新竹縣芎林鄉上山村文山路554號,經濟部,24.77799600000000000,121.07744400000000000,特優級,女廁所,加油站
新竹縣,關西鎮,西安里,J040000002,關西鎮公有零售市場女廁,新竹縣關西鎮大同路50號,縣市政府,24.79075200000000000,121.17601900000000000,特優級,女廁所,市場
彰化縣,溪湖鎮,西寮里,N110000109,溪湖鎮通天宮,彰化縣溪湖鎮西寮里員鹿路四段269-1號,縣市政府,23.97287000000000000,120.47279100000000000,特優級,混合廁所,寺廟教堂等宗教活動場所
臺東縣,臺東市,豐里里,V010000351,臺灣糖業股份有限公司油品事業部(中興二加油站)男廁,臺東縣臺東市臨海路431號,經濟部,22.72768357738580000,121.11848741769800000,特優級,男廁所,加油站
臺北市,內湖區,湖興里,A100000917,臺北市立圖書館內湖分館6F男,臺北市內湖區民權東路六段99號6F,縣市政府,25.06929000000000000,121.58894900000000000,特優級,男廁所,各級社教機關
臺北市,文山區,萬興里,A080001393,臺北市立圖書館萬興分館5F男,臺北市文山區萬壽路27號4樓,縣市政府,24.98862100000000000,121.57651000000000000,特優級,男廁所,各級社教機關
臺北市,中正區,幸市里,A050001715,臺北市立圖書館城中分館男,臺北市中正區濟南路二段46號3樓,縣市政府,25.04035100000000000,121.53090200000000000,特優級,男廁所,各級社教機關
臺北市,中正區,頂東里,A050000178,王貫英紀念圖書館1F男,臺北市中正區汀州路二段265號,縣市政府,25.02262400000000000,121.52377600000000000,特優級,男廁所,各級社教機關
臺北市,中山區,大直里,A040000540,臺北市立圖書館大直分館4F男,臺北市中山區大直街25號3、4、5樓,縣市政府,25.08185500000000000,121.54661400000000000,特優級,男廁所,各級社教機關
臺北市,大安區,新龍里,A030000872,臺北市立圖書館總館7F女,臺北市大安區建國南路二段125號,縣市政府,25.02913600000000000,121.53819900000000000,特優級,女廁所,各級社教機關
臺北市,大安區,新龍里,A030000869,臺北市立圖書館總館6F男,臺北市大安區建國南路二段125號,縣市政府,25.02913600000000000,121.53819900000000000,特優級,男廁所,各級社教機關
臺南市,仁德區,仁德里,D270000044,久井仁德交流道加油站男廁,臺南市仁德區仁德里文德路３３號,其他,22.97390400000000000,120.24808400000000000,特優級,男廁所,加油站
臺南市,仁德區,仁愛里,D270000163,台糖仁德加油站男廁,臺南市仁德區仁愛里大同路三段５２５號,經濟部,22.95074200000000000,120.21875500000000000,特優級,男廁所,加油站
臺南市,仁德區,太子里,D270000030,縱貫永大加油站男廁,臺南市仁德區太子里中正路三段５８３號,其他,22.98819000000000000,120.25751300000000000,特優級,男廁所,加油站
彰化縣,竹塘鄉,樹腳村,N250000050,中央加油站,竹塘鄉中央路二段563號,經濟部,23.85722870996260000,120.43306231498700000,特優級,混合廁所,加油站
彰化縣,和美鎮,月眉里,N030000206,台塑和港站,和美鎮和港路426號,經濟部,24.12935545625280000,120.49040257930800000,特優級,混合廁所,加油站
彰化縣,社頭鄉,新厝村,N170000095,福懋社頭加油站,社頭鄉新厝村員集路四段681號,經濟部,23.93297978829350000,120.57697898295400000,特優級,混合廁所,加油站
彰化縣,二林鎮,豐田里,N200000066,二林加油站女廁,彰化縣二林鎮豐田里二溪路一段212號,經濟部,23.90274900000000000,120.37350700000000000,特優級,女廁所,加油站
彰化縣,大村鄉,村上村,N130000056,大村火車站男廁,大村鄉過溝村福進路100號,交通部,23.99005700000000000,120.56065000000000000,特優級,男廁所,鐵路局
彰化縣,彰化市,延和里,N010000372,山隆彰化加油站,彰化縣彰化市延和里,經濟部,24.05394700000000000,120.54543200000000000,特優級,男廁所,加油站
彰化縣,員林市,中正里,N100000018,員林市立圖書館一館男廁,員林市中正里三民街2之1號,縣市政府,23.95907768562980000,120.57497262954700000,特優級,男廁所,各級社教機關
臺北市,南港區,南港里,A090000021,臺北市稅捐稽徵處南港分處3F男女,臺北市南港區南港路一段360號3樓,縣市政府,25.05452800000000000,121.60675800000000000,特優級,混合廁所,各級機關學校
臺北市,文山區,萬興里,A080001409,臺北市立動物園6-1號蟲蟲谷女,臺北市文山區新光路二段30號,縣市政府,24.99873900000000000,121.58122800000000000,特優級,女廁所,文化育樂活動場所
臺北市,文山區,萬興里,A080001406,臺北市立動物園6號昆蟲館男,臺北市文山區新光路二段30號,縣市政府,24.99873900000000000,121.58122800000000000,特優級,男廁所,文化育樂活動場所
臺北市,中正區,東門里,A050001803,國家表演藝術中心-國家兩廳院戲劇院G樓南側男,臺北市中正區中山南路21之1號,文化部,25.03553900000000000,121.51834300000000000,特優級,男廁所,文化育樂活動場所
臺北市,中正區,東門里,A050001800,國立中正紀念堂機電組旁女,臺北市中正區中山南路21號,文化部,25.03475100000000000,121.52153400000000000,特優級,女廁所,文化育樂活動場所
臺北市,中山區,劍潭里,A040000467,忠烈祠男,臺北市中山區北安路139號,內政部,25.07837500000000000,121.53311800000000000,特優級,男廁所,文化育樂活動場所
臺北市,中正區,東門里,A050001784,國立中正紀念堂展覽館男,臺北市中正區中山南路21號,文化部,25.03475100000000000,121.52153400000000000,特優級,男廁所,文化育樂活動場所
臺北市,信義區,興隆里,A020000690,國父紀念館東3F男,臺北市信義區仁愛路四段505號,文化部,25.03951400000000000,121.56025700000000000,特優級,男廁所,文化育樂活動場所
臺北市,大同區,建功里,A060000165,大同4號男女,臺北市大同區南京西路282巷6號旁,縣市政府,25.05329100000000000,121.51456500000000000,特優級,混合廁所,公家機關設置供民眾使用者
臺北市,內湖區,內湖里,A100000373,中國醫藥大學附設醫院臺北分院2樓親子,臺北市內湖區內湖路二段360號,縣市政府,25.08212500000000000,121.59059900000000000,特優級,親子廁所,醫院
臺北市,內湖區,內湖里,A100000370,中國醫藥大學附設醫院臺北分院1樓無障礙,臺北市內湖區內湖路二段360號,縣市政府,25.08212500000000000,121.59059900000000000,特優級,無障礙廁所,醫院
臺北市,信義區,六藝里,A020001041,信義14號男女,臺北市信義區永吉路180巷54弄20號對面巷子進入,縣市政府,25.04390000000000000,121.57098500000000000,特優級,混合廁所,公家機關設置供民眾使用者
臺北市,文山區,景慶里,A080000135,捷運景美站女,臺北市文山區羅斯福路六段216號,縣市政府,24.99317200000000000,121.54070400000000000,特優級,女廁所,捷運車站
臺北市,萬華區,富民里,A070000317,捷運龍山寺站男,臺北市萬華區西園路一段153號,縣市政府,25.03585200000000000,121.49946000000000000,特優級,男廁所,捷運車站
臺北市,大同區,光能里,A060000327,捷運雙連站女,臺北市大同區民生西路47號,縣市政府,25.05777000000000000,121.52056800000000000,特優級,女廁所,捷運車站
臺北市,中正區,南門里,A050000393,捷運小南門站女,臺北市中正區愛國西路22號-1樓,縣市政府,25.03527000000000000,121.51108800000000000,特優級,女廁所,捷運車站
臺北市,士林區,蘭雅里,A110001469,公有士東市場2F女,臺北市士林區士東路一段100號,縣市政府,25.11192400000000000,121.52927600000000000,特優級,女廁所,市場
臺北市,文山區,木新里,A080001036,公有木柵市場1樓女,臺北市文山區保儀路13巷3號,縣市政府,24.98849600000000000,121.56918600000000000,特優級,女廁所,市場
臺北市,文山區,興豐里,A080000330,公有興隆市場1樓男,臺北市文山區興隆路二段97號,縣市政府,24.99973900000000000,121.54745200000000000,特優級,男廁所,市場
臺北市,萬華區,綠堤里,A070000524,公有環南綜合市場甲區RF男廁,臺北市萬華區環河南路二段245號,縣市政府,25.02985200000000000,121.48978000000000000,特優級,男廁所,市場
臺北市,萬華區,富福里,A070000390,公有龍山商場2F男,臺北市萬華區和平西路三段120號萬華行政中心地下室,縣市政府,25.03501100000000000,121.49981200000000000,特優級,男廁所,市場
臺北市,大同區,揚雅里,A060000691,公有蘭州市場女,臺北市大同區昌吉街55號,縣市政府,25.06594100000000000,121.51575400000000000,特優級,女廁所,市場
臺北市,文山區,興業里,A080000570,興隆公園地下停車場女,臺北市文山區仙岩路128號,縣市政府,25.00070500000000000,121.55132300000000000,特優級,女廁所,公路車站服務區及休息站
臺南市,玉井區,玉井里,D230000027,噍吧哖紀念公園性別友善廁,臺南市玉井區玉井里玉井所(DJ8027)玉南段568地號,縣市政府,23.11960600000000000,120.45708100000000000,特優級,性別友善廁所,公園
臺中市,北屯區,平和里,B080000103,台灣中油青島路站-女廁,臺中市北屯區文心路四段119號,經濟部,24.17432000000000000,120.67449400000000000,特優級,女廁所,加油站
臺中市,西　區,忠明里,B040000327,廣三崇光百貨4F(女廁),臺中市西區臺灣大道2段459號,其他,24.15526700000000000,120.66177800000000000,特優級,女廁所,百貨公司
臺中市,西　區,忠明里,B040000322,廣三崇光百貨2F(男生廁所),臺中市西區臺灣大道二段459號,其他,24.15552000000000000,120.66199000000000000,特優級,男廁所,百貨公司
彰化縣,埔心鄉,太平村,N150000051,埔心鄉公園,埔心鄉太平村太平國小隔壁,縣市政府,23.93642754751810000,120.55291414260900000,特優級,混合廁所,公園
彰化縣,埤頭鄉,竹圍村,N220000084,埤頭站男廁,彰化縣埤頭鄉彰水路一段四九九號,經濟部,23.84966000000000000,120.45743800000000000,特優級,男廁所,加油站
彰化縣,秀水鄉,安東村,N070000029,秀水站男廁,彰化縣秀水鄉安東村彰水路一段30號,經濟部,24.03584281315430000,120.50156593322800000,特優級,男廁所,加油站
彰化縣,永靖鄉,港西村,N160000026,永靖加油站男廁,彰化縣永靖鄉港西村中山路一段637號,經濟部,23.91559900000000000,120.54489200000000000,特優級,男廁所,加油站
彰化縣,田尾鄉,饒平村,N210000008,永村加油站-田尾站,田尾鄉饒平村中山路一段142號,經濟部,23.88652200000000000,120.52460500000000000,特優級,混合廁所,加油站
彰化縣,鹿港鎮,東崎里,N020000039,彰鹿加油站,鹿港鎮彰鹿路五段242號,經濟部,24.04880073877250000,120.47410011291500000,特優級,混合廁所,加油站
彰化縣,彰化市,國聖里,N010000052,彰化國聖站男廁,彰化縣彰化市國聖里中山路三段708號,經濟部,24.09493500000000000,120.56988000000000000,特優級,男廁所,加油站
臺北市,士林區,翠山里,A110001892,翠山派出所男女,臺北市士林區中社路一段56號,縣市政府,25.10812900000000000,121.56027300000000000,特優級,混合廁所,各級機關學校
臺北市,信義區,三犁里,A020001446,聯合醫院松德院區1F-1女,臺北市信義區松德路309號,縣市政府,25.02996600000000000,121.57500500000000000,特優級,女廁所,醫院
臺北市,信義區,興雅里,A020000857,新光三越台北信義新天地A4館B5女,臺北市信義區松高路19號,縣市政府,25.03935900000000000,121.56666700000000000,特優級,女廁所,百貨公司
臺北市,信義區,興雅里,A020000840,新光三越台北信義新天地A4館5F男,臺北市信義區松高路19號,縣市政府,25.03935900000000000,121.56666700000000000,特優級,男廁所,百貨公司
臺中市,梧棲區,中正里,B140000042,梧棲區戶政事務所-女廁,臺中市梧棲區中興路212號,縣市政府,24.25495800000000000,120.53382800000000000,特優級,女廁所,公家機關設置供民眾使用者
臺中市,梧棲區,永寧里,B140000128,台灣中油中華站-男廁,臺中市梧棲區中華路一段538號,縣市政府,24.22824500000000000,120.54625600000000000,特優級,男廁所,加油站
臺南市,仁德區,成功里,D270000151,奇美博物館展示區3F北側兒童女廁,臺南市仁德區成功里文華路二段６６號,其他,22.93445100000000000,120.22620900000000000,特優級,女廁所,文化育樂活動場所
臺南市,左鎮區,中正里,D260000026,左鎮區公有零售市場女廁,臺南市左鎮區中正里中正１５０號,縣市政府,23.05851800000000000,120.40861700000000000,特優級,女廁所,市場
臺南市,善化區,文正里,D190000070,福懋奇美加油站女廁,臺南市善化區文正里興農路３２號,其他,23.13320300000000000,120.28291900000000000,特優級,女廁所,加油站
臺南市,善化區,小新里,D190000145,松建加油站女廁,臺南市善化區小新里成功路１號之１,其他,23.12652500000000000,120.32024900000000000,特優級,女廁所,加油站
臺南市,安定區,安定里,D210000028,台亞安定交流道加油站女廁,臺南市安定區安加里安定２５８之６１號,其他,23.11518400000000000,120.23917100000000000,特優級,女廁所,加油站
臺南市,永康區,永康里,D310000025,永大路加油站女廁,臺南市永康區永康里永大路二段６４１號,其他,23.01789600000000000,120.26230800000000000,特優級,女廁所,加油站
臺南市,永康區,東橋里,D310000062,永康中山加油站女廁,臺南市永康區東橋里中山南路３０１號,經濟部,23.01694200000000000,120.23735700000000000,特優級,女廁所,加油站
臺南市,柳營區,旭山里,D040000110,江南渡假村遠翠樓男廁,臺南市柳營區旭山里新吉庄６０號,經濟部,23.26620300000000000,120.39366800000000000,特優級,男廁所,觀光地區及風景區
臺中市,北屯區,舊社里,B080000135,民營松竹市場(女廁),臺中市北屯區松竹路40號,縣市政府,24.18295000000000000,120.70094000000000000,特優級,女廁所,市場
臺中市,西屯區,上安里,B060000844,台灣中油青海路站-女廁,臺中市西屯區青海路二段211號,經濟部,24.17159000000000000,120.64369000000000000,特優級,女廁所,加油站
臺南市,仁德區,中洲里,D270000213,中油仁德服務區南下加油站無障礙廁,臺南市仁德區中洲里中洲路１巷２１０號,經濟部,22.90524100000000000,120.26499200000000000,特優級,無障礙廁所,加油站
臺南市,歸仁區,武東里,D280000025,臺灣高鐵台南站第一月台南側2F女廁,臺南市歸仁區武東里歸仁大道１００號,交通部,22.92461700000000000,120.28625200000000000,特優級,女廁所,高鐵
新北市,板橋區,福丘里,F010001335,新北市政府21F東側-女廁,板橋區中山路1段161號,縣市政府,25.01209300000000000,121.46558900000000000,特優級,女廁所,公家機關設置供民眾使用者
新北市,板橋區,福丘里,F010001331,新北市政府19F東側-女廁,板橋區中山路1段161號,縣市政府,25.01209300000000000,121.46558900000000000,特優級,女廁所,公家機關設置供民眾使用者
新北市,板橋區,福丘里,F010001324,新北市政府16F東側-男廁,板橋區中山路1段161號,縣市政府,25.01209300000000000,121.46558900000000000,特優級,男廁所,公家機關設置供民眾使用者
新北市,三重區,過田里,F020000334,新北市三重區公所-男廁(北11),新北市三重區中山路10號,縣市政府,25.06122662975200000,121.48814678192100000,特優級,男廁所,公家機關設置供民眾使用者
新北市,三重區,過田里,F020000320,新北市三重區公所-男廁7,新北市三重區中山路10號,縣市政府,25.06128494239920000,121.48814678192100000,特優級,男廁所,公家機關設置供民眾使用者
屏東縣,霧臺鄉,霧台村,T270000006,霧台鄉公所1F男廁,屏東縣霧台鄉霧台村神山巷73號,縣市政府,22.74903611111110000,120.72819722222200000,特優級,男廁所,各級機關學校
屏東縣,三地門鄉,三地村,T260000008,三地門鄉衛生所女廁,屏東縣三地門鄉三地村行政街4號,縣市政府,22.71461666666670000,120.65335277777800000,特優級,女廁所,各級機關學校
新竹市,北　區,光華里,O020000598,北區區公所地下停車場無障礙廁,新竹市國華街69號,縣市政府,24.81636800000000000,120.97029900000000000,特優級,無障礙廁所,公營事業機構設置供民眾使用者及其他
金門縣,金湖鎮,新市里,W030000048,金湖鎮立圖書館1F男廁,金門縣金湖鎮林森路2號,縣市政府,24.44196812945260000,118.41686993837400000,特優級,男廁所,公家機關設置供民眾使用者
臺中市,和平區,博愛里,B290000054,八仙山國家森林遊樂區(通舖區)-男廁,臺中市和平區東關路一段200-11號,行政院農業委員會,24.19180100000000000,121.01507400000000000,特優級,男廁所,森林遊樂區
臺中市,和平區,平等里,B290000206,武陵農場-露營管理中心-3女,臺中市和平區武陵路3號,國軍退除役官兵輔導委員會,24.35304200000000000,121.30972500000000000,特優級,混合廁所,森林遊樂區
臺中市,和平區,平等里,B290000203,武陵農場-露營管理中心-2男,臺中市和平區武陵路3號,國軍退除役官兵輔導委員會,24.35304200000000000,121.30972500000000000,特優級,混合廁所,森林遊樂區
臺中市,神岡區,神岡里,B160000006,臺中市立圖書館(神岡分館)1F-女,臺中市神岡區中山路1460號,縣市政府,24.25904100000000000,120.66096100000000000,特優級,女廁所,各級社教機關
臺中市,后里區,月眉里,B150000301,麗寶樂園(公共區域-AP廣場)-男廁,臺中市后里區安眉路115號,其他,24.32242200000000000,120.69435100000000000,特優級,男廁所,娛樂場所
臺中市,后里區,月眉里,B150000252,泰安服務區(南下，小客車)-無障礙廁所,臺中市后里區月眉里安眉路113號,交通部,24.33027800000000000,120.71166700000000000,特優級,無障礙廁所,公路車站服務區及休息站
臺中市,后里區,月眉里,B150000249,泰安服務區(北上，大貨車)-無障礙廁所男,臺中市后里區月眉里九甲七路400號,交通部,24.32871800000000000,120.71603500000000000,特優級,無障礙廁所,公路車站服務區及休息站
臺南市,下營區,賀建里,D080000042,朝安宮女廁,臺南市下營區賀建里下橋頭１３號之２,其他,23.23226100000000000,120.28310000000000000,特優級,女廁所,寺廟教堂等宗教活動場所
臺南市,關廟區,下湖里,D290000044,久井關廟意站女廁,臺南市關廟區下湖里關仁路３０號,其他,22.97347400000000000,120.31538200000000000,特優級,女廁所,加油站
臺南市,學甲區,慈福里,D130000041,學甲分局女廁,臺南市學甲區慈福里華宗路２９４號,縣市政府,23.23005700000000000,120.18332600000000000,特優級,女廁所,各級機關學校
臺南市,學甲區,秀昌里,D130000049,全國學甲啓冬加油站女廁,臺南市學甲區明宜里中山路１８７號,其他,23.23534700000000000,120.17560100000000000,特優級,女廁所,加油站
臺南市,仁德區,中洲里,D270000214,中油仁德服務區北上加油站男廁,臺南市仁德區中洲里中洲路１巷２３０號,經濟部,22.90599100000000000,120.26684100000000000,特優級,男廁所,加油站
臺南市,新市區,港墘里,D200000095,金田加油站女廁,臺南市新市區港墘里中山路１０之１６號,其他,23.08445200000000000,120.30450700000000000,特優級,女廁所,加油站
臺南市,麻豆區,晋江里,D070000021,麻豆老人文康中心女廁,臺南市麻豆區巷口里興南路１６號,縣市政府,23.18299200000000000,120.24889700000000000,特優級,女廁所,民眾團體活動場所
臺南市,仁德區,仁義里,D270000084,仁德運動公園管理中心女廁,臺南市仁德區仁義里仁義路１３０號,縣市政府,22.96774100000000000,120.25833800000000000,特優級,女廁所,公園
臺南市,新營區,民權里,D010000009,中油三民路加油站女廁,臺南市新營區民權里三民路６１號,經濟部,23.30690600000000000,120.31594400000000000,特優級,女廁所,加油站
新竹市,東　區,關東里,O010001420,關東公有零售市場1樓女廁,新竹市關東路23巷1-1號,縣市政府,24.78230646007490000,121.02220416069000000,特優級,女廁所,市場
彰化縣,彰化市,華北里,N010000278,彰化市華陽市場立體停車場B1停車場(男廁),彰化市華北里旭光路69號,縣市政府,24.07266047601630000,120.54604768753100000,特優級,男廁所,市場
臺中市,北屯區,舊社里,B080000157,大買家北屯店3F(女廁),臺中市北屯區北屯路370號,縣市政府,24.17622000000000000,120.69956000000000000,特優級,女廁所,量販店
高雄市,大樹區,井腳里,E150000279,崇聖殿-男廁,高雄市大樹區井腳里井腳路118號,縣市政府,22.67438207030120000,120.40769934654200000,特優級,男廁所,寺廟教堂等宗教活動場所
高雄市,旗山區,湄洲里,E300000066,體育場女廁,高雄市旗山區湄洲里,縣市政府,22.88789827596860000,120.48177123069800000,特優級,女廁所,民眾團體活動場所
高雄市,仁武區,文武里,E170000149,仁武區老人活動中心1F女廁,仁武區文南街1號，3747382,縣市政府,22.69684600000000000,120.35076000000000000,特優級,女廁所,民眾團體活動場所
高雄市,燕巢區,西燕里,E210000185,高雄市立圖書館燕巢分館男廁1F,燕巢區西燕里中民路592號,縣市政府,22.79337800000000000,120.36207500000000000,特優級,男廁所,各級社教機關
高雄市,鳳山區,縣衙里,E120000309,曹公圖書館2F女廁(北鳳山區),鳳山市曹公路23號,縣市政府,22.62708000000000000,120.35714400000000000,特優級,女廁所,各級社教機關
桃園市,桃園區,中埔里,H010000292,桃園區寶慶加油站男廁,桃園市桃園區中埔里寶慶路99號,縣市政府,25.01098500000000000,121.29408300000000000,特優級,男廁所,加油站
桃園市,桃園區,三元里,H010001310,成功公園男廁,桃園市桃園區成功路三段67號,縣市政府,25.00027500000000000,121.32498300000000000,特優級,男廁所,公園
桃園市,桃園區,光興里,H010000645,桃園市政府文化局1F電梯旁外側女廁,桃園市桃園區縣府路21號,縣市政府,24.99393600000000000,121.30014100000000000,特優級,女廁所,各級機關學校
桃園市,桃園區,光興里,H010000714,桃園市政府大廳-後棟14F女廁,桃園市桃園區縣府路1號,縣市政府,24.99242100000000000,121.30104500000000000,特優級,女廁所,各級機關學校
桃園市,桃園區,光興里,H010000711,桃園市政府大廳-後棟13F男廁,桃園市桃園區縣府路1號,縣市政府,24.99242100000000000,121.30104500000000000,特優級,男廁所,各級機關學校
桃園市,中壢區,內定里,H020000245,中壢服務區北棟無障礙廁所,桃園市中壢區內定里20鄰內定二街998之3號,交通部,25.00247200000000000,121.25146900000000000,特優級,無障礙廁所,公路車站服務區及休息站
桃園市,桃園區,永安里,H010000257,永康公園男廁,桃園市桃園區永康街與中正五街口,縣市政府,25.00098263132130000,121.30388885839100000,特優級,男廁所,公園
桃園市,八德區,大興里,H080000073,八德區指玄宮女廁,桃園市八德區指玄街66號,縣市政府,24.95549318820040000,121.30740451819300000,特優級,女廁所,寺廟教堂等宗教活動場所
桃園市,桃園區,中和里,H010000329,桃園區-鴻福寺女廁,桃園市桃園區民生路二三一號,縣市政府,24.99595200000000000,121.31223500000000000,特優級,女廁所,寺廟教堂等宗教活動場所
臺南市,北　區,賢北里,D340000240,北區賢北國小1FB棟混合廁,臺南市北區賢北里大興街５９９號,縣市政府,23.00732500000000000,120.17925900000000000,特優級,混合廁所,各級機關學校
新北市,金山區,金美里,F270000203,金山區公所1F-男廁,金山區金美里中正路11號,其他,25.22221172544040000,121.63664728403100000,特優級,男廁所,公家機關設置供民眾使用者
屏東縣,屏東市,泰安里,T010000007,太平洋百貨公司2F男女廁,屏東縣屏東市泰安里中正路72號,其他,22.67423800000000000,120.48899300000000000,特優級,混合廁所,百貨公司
金門縣,金沙鎮,汶沙里,W020000006,金沙鎮公所3F男廁,金門縣金沙鎮環島東路1段112號,縣市政府,24.48902320322110000,118.41313898563400000,特優級,男廁所,各級機關學校
屏東縣,屏東市,勝利里,T010000609,屏東縣政府（前棟東1-1F）男廁,屏東縣屏東市勝利里自由路527號,縣市政府,22.68338034906840000,120.48793207850400000,特優級,男廁所,各級機關學校
臺中市,沙鹿區,沙鹿里,B130000029,沙鹿公有零售市場4樓西女廁,臺中市沙鹿區沙田路189號,縣市政府,24.23777800000000000,120.55972200000000000,特優級,女廁所,市場
臺中市,石岡區,石岡里,B200000006,台塑久井國道四號站-男廁,臺中市石岡區豐勢路1322號,縣市政府,24.27750000000000000,120.76388900000000000,特優級,男廁所,加油站
臺中市,霧峰區,本堂里,B260000052,統一超商育成門市-混合廁,臺中市霧峰區樹仁路161之1號,縣市政府,24.05952300000000000,120.69649800000000000,特優級,混合廁所,超市
臺中市,新社區,新社里,B190000008,臺中市立圖書館(新社分館)3F-女,臺中市新社區興社街四段1巷1號,縣市政府,24.24063500000000000,120.80977400000000000,特優級,女廁所,各級社教機關
臺中市,新社區,中正里,B190000029,台灣中油新社中和街站-男廁,臺中市新社區中和街五段35號,縣市政府,24.25097500000000000,120.80914400000000000,特優級,男廁所,加油站
臺中市,大雅區,上雅里,B180000132,大雅區公所(2樓)-男廁,臺中市大雅區雅環路二段301號,縣市政府,24.22888900000000000,120.64805600000000000,特優級,男廁所,公家機關設置供民眾使用者
臺中市,大雅區,二和里,B180000105,大雅國民小學-男廁,臺中市大雅區學府路230號,縣市政府,24.22221500000000000,120.65017900000000000,特優級,男廁所,各級機關學校
臺中市,豐原區,豐榮里,B090000082,漢忠醫院(2樓)-混合廁,臺中市豐原區中正路218號,縣市政府,24.25193600000000000,120.71785300000000000,特優級,混合廁所,醫院
臺中市,豐原區,南陽里,B090000363,衛生福利部豐原醫院(2樓行政大樓)-女廁,臺中市豐原區安康路100號,衛生福利部,24.24279000000000000,120.72572100000000000,特優級,女廁所,醫院
臺中市,豐原區,南陽里,B090000360,衛生福利部豐原醫院(3樓行政大樓)-男廁,臺中市豐原區安康路100號,衛生福利部,24.24279000000000000,120.72572100000000000,特優級,男廁所,醫院
臺中市,豐原區,中山里,B090000071,中國醫藥大學附設醫院豐原分院(5樓)-女,臺中市豐原區中正路199號,縣市政府,24.25160300000000000,120.71847700000000000,特優級,女廁所,醫院
臺中市,豐原區,陽明里,B090000391,臺中市政府陽明市政大樓(4樓後西)-女,臺中市豐原區陽明街36號,縣市政府,24.24690300000000000,120.72073500000000000,特優級,女廁所,公家機關設置供民眾使用者
臺中市,豐原區,西勢里,B090000126,豐原地政事務所(3樓右側)-女廁,臺中市豐原區西安街21號,縣市政府,24.24911910501350000,120.71390971541400000,特優級,女廁所,公家機關設置供民眾使用者
臺中市,豐原區,西勢里,B090000123,豐原地政事務所(3樓左側)-男廁,臺中市豐原區西安街21號,縣市政府,24.24911176835340000,120.71377560496300000,特優級,男廁所,公家機關設置供民眾使用者
彰化縣,彰化市,富貴里,N010000110,聖王廟,彰化市中華路239巷19號,縣市政府,24.07705868674890000,120.53828001022300000,特優級,混合廁所,寺廟教堂等宗教活動場所
臺中市,西屯區,惠來里,B060000536,中央健康保險署中區業務組(無障礙廁),臺中市西屯區市政北一路66號,衛生福利部,24.15789000000000000,120.64290000000000000,特優級,無障礙廁所,公家機關設置供民眾使用者
臺南市,白河區,竹門里,D030000065,關子嶺風景區水火同源男廁,臺南市白河區關嶺里水火同源園區內,縣市政府,23.32204000000000000,120.48512400000000000,特優級,男廁所,觀光地區及風景區
彰化縣,彰化市,延平里,N010000484,秀傳醫院檢驗科女廁,彰化縣彰化市延平里,縣市政府,24.06747500000000000,120.54282900000000000,特優級,女廁所,醫院
彰化縣,彰化市,延平里,N010000482,秀傳延平醫療大樓無障礙廁所,彰化市延平里文心街55號,縣市政府,24.06583300000000000,120.54157500000000000,特優級,無障礙廁所,醫院
臺中市,西　區,吉龍里,B040000290,靜和醫院(女廁),臺中市西區南屯路一段158號,縣市政府,24.13350000000000000,120.65947000000000000,特優級,女廁所,醫院
新北市,鶯歌區,北鶯里,F080000051,鶯歌區公所-1F女廁,新北市鶯歌區仁愛路55號,縣市政府,24.95606694255260000,121.35412216186500000,特優級,女廁所,公家機關設置供民眾使用者
新北市,八里區,舊城里,F230000255,八里圖書館5F-男廁,八里鄉舊城路19號5樓,縣市政府,25.14658100000000000,121.39986500000000000,特優級,男廁所,文化育樂活動場所
新竹縣,竹北市,北崙里,J010000637,新竹縣政府A棟六樓2號女廁,新竹縣竹北市光明六路10號,縣市政府,24.82707287171170000,121.01292371749900000,特優級,女廁所,各級機關學校
新竹縣,竹北市,北崙里,J010000635,新竹縣政府A棟五樓3號無障礙廁所,新竹縣竹北市光明六路10號,縣市政府,24.82707287171170000,121.01292371749900000,特優級,無障礙廁所,各級機關學校
新竹縣,竹北市,北崙里,J010000631,新竹縣政府A棟四樓2號女廁,新竹縣竹北市光明六路10號,縣市政府,24.82707287171170000,121.01292371749900000,特優級,女廁所,各級機關學校
嘉義縣,東石鄉,港口村,Q090000155,港口宮廟東-女廁,嘉義縣東石鄉港口村８鄰蚶子寮５號,其他,23.49569000000000000,120.18589100000000000,特優級,女廁所,寺廟教堂等宗教活動場所
新竹縣,竹北市,北崙里,J010000622,新竹縣政府A棟一樓2號女廁,新竹縣竹北市光明六路10號,縣市政府,24.82707287171170000,121.01292371749900000,特優級,女廁所,各級機關學校
嘉義縣,民雄鄉,中樂村,Q050000041,民雄鄉立圖書館2F-女廁,嘉義縣民雄鄉中樂村民族路43-2號,縣市政府,23.55537700000000000,120.42836310000000000,特優級,女廁所,各級社教機關
嘉義縣,民雄鄉,文隆村,Q050000229,嘉義縣表演藝術中心室外-男廁,嘉義縣民雄鄉文隆村建國路2段265號,縣市政府,23.54394841142580000,120.43135643005400000,特優級,男廁所,文化育樂活動場所
屏東縣,恆春鎮,墾丁里,T040000114,天鵝湖飯店(大廳公用)女廁,屏東縣恆春鎮墾丁里南灣路500號　,縣市政府,21.97069700000000000,120.75619900000000000,特優級,女廁所,旅館
屏東縣,恆春鎮,墾丁里,T040000086,墾管處/停車場女廁,屏東縣恆春鎮南灣里墾丁路596號,內政部,21.94827000000000000,120.78048600000000000,特優級,女廁所,觀光地區及風景區
屏東縣,恆春鎮,墾丁里,T040000083,墾管處/遊客中心男廁(含無障礙廁所),屏東縣恆春鎮南灣里墾丁路596號,內政部,21.94827000000000000,120.78048600000000000,特優級,男廁所,觀光地區及風景區
屏東縣,恆春鎮,龍水里,T040000041,龍鑾潭/停車場男廁,屏東縣恆春鎮龍水里草潭路250巷86號,內政部,21.97076797041580000,120.75277090072600000,特優級,男廁所,觀光地區及風景區
屏東縣,東港鎮,大鵬里,T030000118,大鵬灣風景遊憩區遊客中心男廁,屏東縣東港鎮大鵬里大潭路169號,交通部,22.45703700000000000,120.47884300000000000,特優級,男廁所,觀光地區及風景區
嘉義縣,大林鎮,平林里,Q040000050,慈濟醫院留觀區1F-男廁,嘉義縣大林鎮平林里民生路2號,縣市政府,23.59590500000000000,120.45701900000000000,特優級,男廁所,醫院
新竹市,東　區,南市里,O010000024,大遠百(新竹分公司)4樓前男廁,新竹市西大路323號,其他,24.80218500000000000,120.96521100000000000,特優級,男廁所,百貨公司
新竹市,東　區,南市里,O010000021,大遠百(新竹分公司)3樓前女廁,新竹市西大路323號,其他,24.80218500000000000,120.96521100000000000,特優級,女廁所,百貨公司
新竹市,東　區,南市里,O010000017,大遠百(新竹分公司)2樓前女廁,新竹市西大路323號,其他,24.80218500000000000,120.96521100000000000,特優級,女廁所,百貨公司
嘉義縣,朴子市,永和里,Q020000124,衛生福利部朴子醫院後棟2F-女廁,"嘉義縣朴子市永和里 42-50 號 ",衛生福利部,23.46452570000000000,120.23468600000000000,特優級,女廁所,醫院
新竹市,東　區,南市里,O010000016,大遠百(新竹分公司)2樓前男廁,新竹市西大路323號,其他,24.80218500000000000,120.96521100000000000,特優級,男廁所,百貨公司
嘉義縣,太保市,太保里,Q010000013,嘉義高鐵站四號出口-男廁,嘉義縣太保市太保里高鐵西路168號,交通部,23.45922100000000000,120.32382000000000000,特優級,男廁所,高鐵
嘉義縣,番路鄉,下坑村,Q160000006,中油番路站-男廁,嘉義縣番路鄉下坑村下坑40-2號,經濟部,23.47103419016560000,120.53822994144900000,特優級,男廁所,加油站
臺中市,烏日區,烏日里,B230000025,烏日區公所(1樓女廁),臺中市烏日區新興路316號,縣市政府,24.10462500000000000,120.62368300000000000,特優級,女廁所,公家機關設置供民眾使用者
臺中市,烏日區,三和里,B230000022,烏日區戶政事務所-男廁,臺中市烏日區高鐵路一段170號,縣市政府,24.10836100000000000,120.60331900000000000,特優級,男廁所,公家機關設置供民眾使用者
臺中市,烏日區,螺潭里,B230000179,喀哩國民小學(1樓-東)電梯旁-女廁,臺中市烏日區溪南路二段370號,縣市政府,24.06208800000000000,120.64288900000000000,特優級,女廁所,各級機關學校
臺中市,烏日區,三和里,B230000055,高鐵台中站(1F巴士廁所)-男,臺中市烏日區站區二路8號,交通部,24.11159700000000000,120.61578500000000000,特優級,男廁所,高鐵
臺中市,烏日區,三和里,B230000052,高鐵台中站(2F西南)-女,臺中市烏日區站區二路8號,交通部,24.11159700000000000,120.61578500000000000,特優級,女廁所,高鐵
臺中市,烏日區,榮泉里,B230000086,成功火車站-男廁,臺中市烏日區中山路三段550號,交通部,24.11423600000000000,120.59012500000000000,特優級,男廁所,鐵路局
臺中市,烏日區,榮泉里,B230000073,台塑台亞成一站-女廁,臺中市烏日區中山路三段1165號,縣市政府,24.11340800000000000,120.59036900000000000,特優級,女廁所,加油站
臺中市,大安區,永安里,B220000034,永安國民小學(1樓)-女廁,臺中市大安區永安里東西四路252號,縣市政府,24.38250000000000000,120.60638900000000000,特優級,女廁所,各級機關學校
臺中市,大甲區,頂店里,B110000175,台塑全國大甲中山路站-男廁,臺中市大甲區中山路一段1545號,縣市政府,24.36264600000000000,120.63857500000000000,特優級,男廁所,加油站
臺中市,東勢區,東新里,B100000118,東新國民小學1樓女廁,臺中市東勢區東新里東蘭路1之1號,縣市政府,24.26034000000000000,120.82757000000000000,特優級,女廁所,各級機關學校
臺中市,東勢區,東新里,B100000090,東勢林場(民俗公園)-女,臺中市東勢區東新里勢林街6-1號,其他,24.28531300000000000,120.86775000000000000,特優級,女廁所,森林遊樂區
臺中市,東勢區,詒福里,B100000064,台灣中油億富站-男廁,臺中市東勢區東關路六段437號,縣市政府,24.22832100000000000,120.83725000000000000,特優級,男廁所,加油站
臺中市,東勢區,東安里,B100000018,台塑東錡站-女廁,臺中市東勢區東關路七段486號,縣市政府,24.25754100000000000,120.82457000000000000,特優級,女廁所,加油站
彰化縣,田中鎮,西路里,N120000064,田中鎮公所,田中鎮斗中路一段198號,縣市政府,23.86138500000000000,120.58070900000000000,特優級,混合廁所,公家機關設置供民眾使用者
臺中市,南屯區,豐樂里,B070000072,好市多量販店B1F-B(男廁),臺中市南屯區文心南三路289號,縣市政府,24.13308500000000000,120.64958000000000000,特優級,男廁所,量販店
臺中市,南屯區,豐樂里,B070000056,豐富公園B(女廁),臺中市南屯區麻園溪三民西路,縣市政府,24.13003400000000000,120.65393400000000000,特優級,女廁所,公園
臺中市,南屯區,豐樂里,B070000054,豐富公園A(女廁),臺中市南屯區麻園溪三民西路上,縣市政府,24.13026000000000000,120.65321000000000000,特優級,女廁所,公園
彰化縣,員林市,三和里,N100000183,彰化縣警察局員林分局,員林市三和里大同路1段319號,縣市政府,23.96296016708030000,120.57984352111800000,特優級,混合廁所,公家機關設置供民眾使用者
新北市,三重區,光明里,F020000573,社教館-女廁1,新北市三重區集美街60號,縣市政府,25.05385600000000000,121.49112500000000000,特優級,女廁所,民眾團體活動場所
新北市,三重區,過田里,F020000290,過圳市民活動中心左側1樓-男廁,新北市三重區過圳街19號,縣市政府,25.06020900000000000,121.48797400000000000,特優級,混合廁所,民眾團體活動場所
新北市,三重區,頂崁里,F020000129,中山橋市民活動中心-男女廁,新北市三重區光復路2段175號之3,縣市政府,25.06166300000000000,121.47249500000000000,特優級,無障礙廁所,民眾團體活動場所
苗栗縣,泰安鄉,錦水村,K180000006,湯唯民宿-男廁,泰安鄉錦水村橫龍山72-2號,縣市政府,24.47004118242160000,120.97316265106200000,特優級,男廁所,旅館
苗栗縣,泰安鄉,錦水村,K180000003,警光山莊-男廁,泰安鄉錦水村9鄰18號,縣市政府,24.47097863336460000,120.97766876220700000,特優級,男廁所,旅館
苗栗縣,後龍鎮,豐富里,K060000066,豐富加油站,後龍鎮豐富里新東路5鄰52-27號,其他,24.60215277612030000,120.83055496215800000,特優級,混合廁所,加油站
臺北市,士林區,天福里,A110001529,新光三越臺北天母店A館4樓女,臺北市士林區天母東路68號,縣市政府,25.11791300000000000,121.53397900000000000,特優級,女廁所,百貨公司
高雄市,大社區,大社里,E160000028,高雄市立圖書館大社分館女廁,高雄市大社區大社里,縣市政府,22.73169377464250000,120.34704387188000000,特優級,女廁所,公家機關設置供民眾使用者
臺北市,士林區,三玉里,A110001148,大葉高島屋百貨蘭雅國中旁2樓女,臺北市士林區忠誠路二段55號,縣市政府,25.11181000000000000,121.53143700000000000,特優級,女廁所,百貨公司
新北市,土城區,埤塘里,F130000059,土城區公所1F-女廁,土城區金城路1段101號,縣市政府,24.97270000000000000,121.44340000000000000,特優級,女廁所,公家機關設置供民眾使用者
新北市,土城區,埤塘里,F130000055,"土城區衛生所1F-男廁 ","土城區和平路26號 ",縣市政府,24.97290000000000000,121.44300000000000000,特優級,男廁所,公家機關設置供民眾使用者
高雄市,左營區,新下里,E030000316,"漢神巨蛋購物廣場B1 北側 男廁",高雄市左營區博愛二路777號,縣市政府,22.66914507655510000,120.30278205871600000,特優級,男廁所,百貨公司
宜蘭縣,羅東鎮,北成里,G020000083,羅東運動公園-田徑場女廁(含親子廁所)(P3),265宜蘭縣羅東鎮北成里公正路666號,縣市政府,24.68623835020340000,121.75147801637600000,特優級,女廁所,公園
澎湖縣,馬公市,長安里,X010000014,澎湖公車總站殘障,馬公市民族路16-1號,縣市政府,23.56698652622210000,119.56443428993200000,特優級,無障礙廁所,公路車站服務區及休息站
高雄市,前鎮區,建隆里,E090000522,前鎮R7獅甲站,高雄市前鎮區中山三路150號地下一層,縣市政府,22.60514654231490000,120.30818939209000000,特優級,無障礙廁所,捷運車站
高雄市,小港區,桂林里,E110000310,桂林公園-男廁,高市小港區桂林里桂林國小後方(桂陽路與德仁路交叉口),縣市政府,22.58195395676720000,120.35062837574500000,特優級,男廁所,公園
高雄市,前鎮區,興邦里,E090000285,前鎮R6凱旋站-殘,前鎮區凱旋4路,縣市政府,22.59653917517590000,120.31488418579100000,特優級,無障礙廁所,捷運車站
高雄市,前鎮區,鎮北里,E090000364,"前鎮公車站 殘",前鎮區擴建路1-3號,縣市政府,22.59126949723940000,120.30595779418900000,優等級,無障礙廁所,公路車站服務區及休息站
桃園市,楊梅區,高榮里,H040000221,埔心牧場體能場男廁,桃園市楊梅區高榮里13鄰3-1號,縣市政府,24.93773800000000000,121.16671300000000000,特優級,男廁所,觀光地區及風景區
桃園市,楊梅區,高榮里,H040000218,埔心牧場綠園餐廳女廁,桃園市楊梅區高榮里13鄰3-1號,縣市政府,24.92594600000000000,121.17799800000000000,特優級,女廁所,觀光地區及風景區
桃園市,楊梅區,高榮里,H040000195,埔心牧場第一停車場無障礙廁所,桃園市楊梅區高榮里13鄰3-1號,縣市政府,24.92594600000000000,121.17799800000000000,特優級,無障礙廁所,觀光地區及風景區
桃園市,平鎮區,南勢里,H100000212,大潤發平鎮店3F男廁,桃園市平鎮區南東路57號,縣市政府,24.92023400000000000,121.21158600000000000,特優級,男廁所,量販店
桃園市,楊梅區,水美里,H040000118,楊梅區祐昌加油站女廁,桃園市楊梅區水美里楊新路一段336號,縣市政府,24.91662400000000000,121.14098100000000000,特優級,女廁所,加油站
桃園市,楊梅區,大同里,H040000143,怡仁綜合醫院B1東側女廁,桃園市楊梅區大同里楊新北路321巷30號,縣市政府,24.91641800000000000,121.15492500000000000,特優級,女廁所,醫院
桃園市,平鎮區,南勢里,H100000201,全國加油站平鎮南東站男廁,桃園市平鎮區南東路575號,縣市政府,24.91633400000000000,121.22430400000000000,特優級,男廁所,加油站
桃園市,楊梅區,埔心里,H040000165,桃園市立圖書館埔心分館1F無障礙廁所,桃園市楊梅區中興路145號,縣市政府,24.91505200000000000,121.18633500000000000,特優級,無障礙廁所,各級社教機關
新北市,汐止區,秀山里,F110000573,汐止區衛生所-男廁,汐止區新台五路一段266號,其他,25.06385300000000000,121.65899200000000000,特優級,無障礙廁所,公家機關設置供民眾使用者
臺南市,東　區,莊敬里,D320000413,國賓影城二館前區3F男廁,臺南市東區莊敬里中華東路一段６６號,其他,22.99631900000000000,120.23427900000000000,特優級,男廁所,戲院
屏東縣,內埔鄉,內埔村,T130000002,內埔鄉衛生所1F男廁,屏東縣內埔鄉內埔村中興路191號,縣市政府,22.61280277777780000,120.56937777777800000,特優級,男廁所,各級機關學校
新竹市,東　區,南市里,O010000051,明志書院停車場1樓男廁,新竹市西大路317號,縣市政府,24.80172200000000000,120.96551700000000000,特優級,男廁所,公營事業機構設置供民眾使用者及其他
嘉義縣,竹崎鄉,和平村,Q140000095,中油竹崎站男廁,田寮52號,經濟部,23.51586900000000000,120.54786000000000000,特優級,男廁所,加油站
臺中市,大安區,松雅里,B220000049,大安肉品市場-男,臺中市大安區大安港路541號,其他,24.35711700000000000,120.60334600000000000,特優級,男廁所,市場
臺中市,外埔區,大同里,B210000065,外埔區戶政事務所-混合廁,臺中市外埔區大同里六分路352號,縣市政府,24.33222200000000000,120.65555600000000000,特優級,混合廁所,公家機關設置供民眾使用者
臺中市,石岡區,九房里,B200000029,東勢戶政事務所-石岡辦事處(1樓)-男廁,臺中市石岡區明德路18號,縣市政府,24.27444400000000000,120.78111100000000000,特優級,男廁所,公家機關設置供民眾使用者
臺中市,石岡區,九房里,B200000027,台灣中油石岡豐勢路站-女廁,臺中市石岡區明德路2號,經濟部,24.27467000000000000,120.78175000000000000,特優級,女廁所,加油站
臺中市,新社區,中正里,B190000028,台灣中油新社站-女廁,臺中市新社區中和街五段58號,經濟部,24.25074600000000000,120.80823900000000000,特優級,女廁所,加油站
新北市,金山區,大同里,F270000009,金山慈護宮旁-女廁,金山區大同里慈護宮後方巷子裡,其他,25.22066100000000000,121.64036600000000000,特優級,女廁所,寺廟教堂等宗教活動場所
高雄市,前金區,榮復里,E070000097,漢神百貨公司-B1,前金區成功一路261號,其他,22.61962630649390000,120.29622673988300000,特優級,混合廁所,百貨公司
高雄市,甲仙區,大田里,E330000093,甲仙區大田老人活動中心1F女廁,大田村新興路49-1號；6751274,縣市政府,23.07793539180150000,120.58260619640400000,特優級,女廁所,民眾團體活動場所
高雄市,甲仙區,和安里,E330000073,甲仙-和安社區活動中心1F男廁,和安村中山路56號；6751772,縣市政府,23.08358696926230000,120.58384966843700000,特優級,男廁所,公家機關設置供民眾使用者
高雄市,美濃區,合和里,E310000011,美濃戶政事務所1F-性別友善廁所,高雄市美濃區合和里美中路256號,縣市政府,22.89496524402040000,120.54209947586100000,特優級,性別友善廁所,公家機關設置供民眾使用者
高雄市,大樹區,溪埔里,E150000322,大樹區立第三圖書館-女廁,高雄市大樹區溪埔里(路)3巷60-1號,縣市政府,22.73021439415380000,120.44535756111100000,特優級,女廁所,各級社教機關
高雄市,大樹區,久堂里,E150000227,大樹區立3F女廁第二圖書館,高雄市大樹區久堂里久堂路97-1號,縣市政府,22.65833633876770000,120.41546970605900000,特優級,女廁所,各級社教機關
桃園市,龜山區,舊路里,H070000380,長庚紀念醫院桃園分院B4南一男廁,桃園市龜山區頂湖路123號,縣市政府,25.02928899880580000,121.36694580316500000,特優級,男廁所,醫院
桃園市,龜山區,舊路里,H070000363,長庚紀念醫院桃園分院B2國際會議廳外男廁,桃園市龜山區頂湖路123號,縣市政府,25.02926712585960000,121.36695384979200000,特優級,男廁所,醫院
桃園市,龜山區,舊路里,H070000360,長庚紀念醫院桃園分院B2南一女廁,桃園市龜山區頂湖路123號,縣市政府,25.02929628978700000,121.36694312095600000,特優級,女廁所,醫院
桃園市,龜山區,舊路里,H070000343,長庚紀念醫院桃園分院B1中醫門診區外男廁,桃園市龜山區頂湖路123號,縣市政府,25.02926712585960000,121.36694848537400000,特優級,男廁所,醫院
桃園市,龜山區,舊路里,H070000340,長庚紀念醫院桃園分院B1北一女廁,桃園市龜山區頂湖路123號,縣市政府,25.02929628978700000,121.36694714427000000,特優級,女廁所,醫院
桃園市,龜山區,舊路里,H070000323,長庚紀念醫院桃園分院1F北一男廁,桃園市龜山區頂湖路123號,縣市政府,25.02929750495050000,121.36695250868800000,特優級,男廁所,醫院
桃園市,龜山區,舊路里,H070000303,長庚紀念醫院桃園分院5F南一男廁,桃園市龜山區頂湖路123號,縣市政府,25.02929750495050000,121.36695250868800000,特優級,男廁所,醫院
桃園市,八德區,大華里,H080000189,八德區衛生所1F男廁,八德區介壽路二段361巷28號,縣市政府,24.94784264697380000,121.29848381286100000,特優級,男廁所,各級機關學校
桃園市,平鎮區,義民里,H100000054,平鎮區-褒忠祠男廁,桃園市平鎮區義民里14鄰復旦路2段23巷8號,縣市政府,24.94750000000000000,121.20490200000000000,特優級,男廁所,寺廟教堂等宗教活動場所
桃園市,平鎮區,義民里,H100000034,壢新醫院(門診大樓)3F櫃檯對面殘障廁所,桃園市平鎮區廣泰路77號,縣市政府,24.94654700000000000,121.20515600000000000,特優級,無障礙廁所,醫院
桃園市,平鎮區,新富里,H100000138,桃園市平鎮區公所2F男廁,桃園市平鎮區振興路5號,縣市政府,24.94566700000000000,121.21751500000000000,特優級,男廁所,各級機關學校
桃園市,平鎮區,新富里,H100000135,桃園市平鎮區公所1F男廁,桃園市平鎮區振興路5號,縣市政府,24.94566700000000000,121.21751500000000000,特優級,男廁所,各級機關學校
桃園市,平鎮區,新富里,H100000132,桃園市平鎮區衛生所2F女廁,桃園市平鎮區振興路1號,縣市政府,24.94566700000000000,121.21751500000000000,特優級,女廁所,各級機關學校
桃園市,平鎮區,新富里,H100000152,桃園市立圖書館平鎮分館3F男廁二,桃園市平鎮區市環南路三段88號,縣市政府,24.93976300000000000,121.21771300000000000,特優級,男廁所,各級機關學校
桃園市,平鎮區,新富里,H100000149,桃園市立圖書館平鎮分館2F演藝廳女廁二,桃園市平鎮區市環南路三段88號,縣市政府,24.93976300000000000,121.21771300000000000,特優級,女廁所,各級機關學校
桃園市,楊梅區,上田里,H040000122,楊梅區大造加油站男廁,楊梅區上田里楊新路4段26號,縣市政府,24.93786900000000000,121.12349300000000000,特優級,男廁所,加油站
桃園市,八德區,竹園里,H080000079,八德區中油八德加油站女廁,桃園市八德區竹園里長興路556號,縣市政府,24.93264600000000000,121.27135400000000000,特優級,混合廁所,加油站
桃園市,八德區,福興里,H080000048,八德公有零售市場男廁,桃園市八德區建國路45號,縣市政府,24.93192500000000000,121.28430700000000000,特優級,男廁所,市場
桃園市,八德區,興仁里,H080000025,八德區公所3F左側男廁,桃園市八德區中山路47號,縣市政府,24.92892700000000000,121.28453200000000000,特優級,男廁所,各級機關學校
桃園市,八德區,興仁里,H080000022,八德區公所1F左側女廁,桃園市八德區中山路47號,縣市政府,24.92892700000000000,121.28453200000000000,特優級,女廁所,各級機關學校
桃園市,大溪區,福安里,H030000116,"大溪花海 (餐廳)女廁",桃園市大溪區福安里4鄰埤尾7之1號,縣市政府,24.84267099289720000,121.29050016403200000,特優級,女廁所,餐廳
桃園市,大溪區,福安里,H030000113,"富田花園 (室內)男廁",大溪區福安里埤尾20之1號,縣市政府,24.83978909106000000,121.28801107406600000,特優級,男廁所,餐廳
桃園市,中壢區,三民里,H020000793,福懋加油站中壢站男廁,中壢區中正路二段139號,縣市政府,24.97544400000000000,121.19644200000000000,特優級,男廁所,加油站
新北市,鶯歌區,南靖里,F080000280,中油車容坊三鶯交流道加油站-男廁,新北市鶯歌區三鶯路5號,縣市政府,24.94100400000000000,121.35645000000000000,特優級,男廁所,加油站
臺北市,文山區,萬興里,A080001433,臺北市立動物園19號圓型廁所女,臺北市文山區新光路二段30號,縣市政府,24.99873900000000000,121.58122800000000000,特優級,女廁所,文化育樂活動場所
臺北市,文山區,萬興里,A080001430,臺北市立動物園18號非洲區男,臺北市文山區新光路二段30號,縣市政府,24.99873900000000000,121.58122800000000000,特優級,男廁所,文化育樂活動場所
嘉義縣,民雄鄉,福樂村,Q050000330,嘉義酒類文物館（二）-女廁,嘉義縣民雄鄉福樂村中山路四號,縣市政府,23.52137845520040000,120.44384479522700000,特優級,女廁所,公營事業機構設置供民眾使用者及其他
臺南市,佳里區,安西里,D120000146,佳里國小0729男廁,臺南市佳里區安西里公園路４４５號,縣市政府,23.16415800000000000,120.17228400000000000,特優級,男廁所,各級機關學校
臺南市,佳里區,安西里,D120000132,佳里國小0723男廁,臺南市佳里區安西里公園路４４５號,縣市政府,23.16415800000000000,120.17228400000000000,特優級,男廁所,各級機關學校
臺南市,佳里區,安西里,D120000131,佳里區仁愛國小混合廁,臺南市佳里區鎮山里仁愛路３０７號,縣市政府,23.15342900000000000,120.17942400000000000,特優級,混合廁所,各級機關學校
嘉義縣,民雄鄉,中樂村,Q050000050,慶誠宮-女廁,嘉義縣民雄鄉中樂村中樂路六四號,其他,23.55636539981100000,120.42958617210400000,特優級,女廁所,寺廟教堂等宗教活動場所
新北市,樹林區,山佳里,F070000615,全家便利商店樹林新中店-男女廁,樹林區山佳里中山路三段107號,其他,24.97457400000000000,121.39985800000000000,特優級,混合廁所,超市
臺中市,烏日區,仁德里,B230000113,台灣中油三和站-女廁,臺中市烏日區學田路300號,縣市政府,24.11608600000000000,120.60879200000000000,特優級,女廁所,加油站
臺南市,西港區,營西里,D140000074,後營國小金砂分校北棟教室1F混合廁,臺南市西港區金砂里砂凹子２５號之５(對街),縣市政府,23.15653400000000000,120.20578800000000000,特優級,混合廁所,各級機關學校
臺北市,中正區,黎明里,A050001038,臺北車站6號女,臺北市中正區北平西路3號B1東北角,交通部,25.04717600000000000,121.51705800000000000,特優級,女廁所,鐵路局
臺南市,柳營區,太康里,D040000182,柳營奇美醫院地下一樓核醫放腫科女廁,臺南市柳營區太康里太康２０１號,其他,23.28928000000000000,120.32468700000000000,特優級,女廁所,醫院
臺南市,永康區,甲頂里,D310000370,奇美醫院第二醫療大樓2F臨床病理科男廁,臺南市永康區甲頂里中華路９０１號,其他,23.02019400000000000,120.22170800000000000,特優級,男廁所,醫院
臺南市,永康區,甲頂里,D310000350,奇美醫院第一醫療大樓B1藥庫通道前女廁,臺南市永康區甲頂里中華路９０１號,其他,23.02061700000000000,120.22217200000000000,特優級,女廁所,醫院
彰化縣,大村鄉,大村村,N130000002,員林郭醫院大村分院2樓(男廁),大村鄉大村村田洋橫巷2-9號1樓,縣市政府,23.99950466281490000,120.53825855255100000,特優級,男廁所,醫院
嘉義縣,布袋鎮,新厝里,Q030000120,布袋鎮衛生所1F-男廁,嘉義縣布袋鎮新厝里新厝仔21號,縣市政府,23.38152487697950000,120.16990542411800000,特優級,男廁所,公家機關設置供民眾使用者
嘉義縣,大林鎮,平林里,Q040000123,大林衛生所1F-無障礙廁所,嘉義縣大林鎮平林里中山路252號,縣市政府,23.60713252194750000,120.45588254928600000,特優級,無障礙廁所,公家機關設置供民眾使用者
嘉義縣,民雄鄉,文隆村,Q050000232,嘉義縣表演藝術中心排練室-男廁,嘉義縣民雄鄉文隆村建國路二段265號,縣市政府,23.54394595250000000,120.43135374784500000,特優級,男廁所,文化育樂活動場所
嘉義縣,民雄鄉,頂崙村,Q050000090,久井加油站-女廁,嘉義縣民雄鄉頂崙村建國路一段606號,縣市政府,23.56914014991840000,120.43614149093600000,特優級,女廁所,加油站
高雄市,三民區,安發里,E050001407,三民東科工館S1F右側-女廁,高雄市三民區安發里九如一路797號,教育部,22.63980000000000000,120.32230000000000000,特優級,女廁所,文化育樂活動場所
高雄市,三民區,安發里,E050001404,三民東科工館S平等路-男廁,高雄市三民區安發里九如一路797號,教育部,22.63980000000000000,120.32230000000000000,特優級,男廁所,文化育樂活動場所
桃園市,平鎮區,北華里,H100000355,平鎮區北勢社區發展協會(2F)殘障廁所,桃園市平鎮區北華里振平街153號,縣市政府,24.94363629529380000,121.22063934803000000,特優級,無障礙廁所,民眾團體活動場所
宜蘭縣,宜蘭市,茭白里,G010000366,宜蘭加油站男廁,宜蘭縣宜蘭市中山路五段139號,經濟部,24.77052214844900000,121.75647765398000000,特優級,男廁所,加油站
澎湖縣,湖西鄉,林投村,X020000114,林投公園殘障(南側),湖西鄉林投公園1-1號,交通部,23.56023040907110000,119.64227199554400000,特優級,無障礙廁所,公園
臺南市,永康區,永康里,D310000030,永康公有零售市場女廁,臺南市永康區永康里中山南路６５５號,縣市政府,23.02631100000000000,120.25697100000000000,特優級,女廁所,市場
臺南市,善化區,文昌里,D190000066,善化派出所男廁,臺南市善化區東關里中山路３５３號之１,縣市政府,23.13174000000000000,120.29290000000000000,特優級,男廁所,各級機關學校
臺南市,西港區,永樂里,D140000029,永樂里活動中心女廁,臺南市西港區永樂里大(塭)寮５９之３５號,縣市政府,23.10402900000000000,120.17902800000000000,特優級,女廁所,民眾團體活動場所
臺南市,麻豆區,南勢里,D070000060,金嘉旺加油站女廁,臺南市麻豆區南勢里關帝廟１７號之１９,其他,23.19236600000000000,120.25816300000000000,特優級,女廁所,加油站
臺南市,後壁區,後壁里,D050000030,後壁區圖書館女廁,臺南市後壁區後壁里後壁１３１號,縣市政府,23.36622200000000000,120.36228200000000000,特優級,女廁所,各級社教機關
高雄市,三民區,本上里,E050000485,三民東陽明公園八號公園-無障礙廁,"高雄市三民區本上里澄和路158巷-190巷 ",縣市政府,22.64538400000000000,120.34183100000000000,特優級,無障礙廁所,公園
高雄市,三民區,本上里,E050000483,三民東陽明公園八號公園-男廁,高雄市三民區本上里澄和路158巷-190巷,縣市政府,22.64564049192990000,120.34178137779200000,特優級,男廁所,公園
高雄市,三民區,寶珠里,E050000908,"三民東三民戶政事務所-無障礙廁 ",高雄市三民區寶珠里大順二路468號9樓,縣市政府,22.64977933330700000,120.32475471496600000,特優級,無障礙廁所,各級機關學校
高雄市,苓雅區,中正里,E080000429,文化中心地下停車場西側(女),廣州街與青年路口,縣市政府,22.62505334926530000,120.31793117523200000,特優級,女廁所,觀光地區及風景區
臺中市,沙鹿區,興安里,B130000272,沙鹿光田綜合醫院(第二醫療2樓)-男,臺中市沙鹿區沙田路117號,縣市政府,24.23537200000000000,120.55858400000000000,特優級,男廁所,醫院
臺中市,沙鹿區,興安里,B130000270,沙鹿光田綜合醫院(第二醫療3樓)-男,臺中市沙鹿區沙田路117號,縣市政府,24.23537200000000000,120.55858400000000000,特優級,男廁所,醫院
臺中市,沙鹿區,鹿寮里,B130000094,沙鹿童綜合醫院(2樓語言治療室)-女,臺中市沙鹿區成功西街8號,縣市政府,24.24306100000000000,120.56068700000000000,特優級,女廁所,醫院
高雄市,旗津區,復興里,E100000055,旗津風景區﹙管理站﹚2號-男廁,旗津三路990號,縣市政府,22.60208598667220000,120.27381420135500000,特優級,混合廁所,觀光地區及風景區
高雄市,旗津區,中華里,E100000054,旗津風景區(北區停車場)3號女廁,高雄市旗津區旗津三路九九○號,縣市政府,22.60815750797880000,120.26916861534100000,特優級,女廁所,觀光地區及風景區
高雄市,三民區,灣成里,E050001168,三民東家樂福鼎山店3F-男廁,高雄市三民區灣成里鼎山街529號,其他,22.65244525538430000,120.31832814216600000,特優級,男廁所,量販店
高雄市,前鎮區,興邦里,E090000320,夢時代F6中間,前鎮區中華五路789號,縣市政府,22.59467698120410000,120.30681610107400000,特優級,無障礙廁所,百貨公司
高雄市,小港區,山明里,E110000208,台糖博學加油站男廁,高雄市小港區山明里博學路481號,經濟部,22.56329100000000000,120.37057400000000000,特優級,男廁所,加油站
臺中市,和平區,博愛里,B290000098,四季溫泉會館(餐廳)-女廁,臺中市和平區東關路一段溫泉巷8-1號,縣市政府,24.20438400000000000,121.01009100000000000,特優級,女廁所,旅館
臺中市,和平區,博愛里,B290000070,神木谷假期大飯店(餐廳)-男廁,臺中市和平區東關路一段溫泉巷7號,縣市政府,24.20442300000000000,121.00906100000000000,特優級,男廁所,旅館
宜蘭縣,宜蘭市,南門里,G010000425,新月廣場-2F東北公廁女廁,260宜蘭縣宜蘭市南門里民權路2段38巷8號,縣市政府,24.75423618921890000,121.75116419792200000,特優級,女廁所,百貨公司
高雄市,大寮區,永芳里,E140000219,大寮加油站(男廁),高雄市大寮區永芳里鳳林三路616號,經濟部,22.60740200000000000,120.39547800000000000,特優級,男廁所,加油站
高雄市,燕巢區,西燕里,E210000168,阿公店水庫管理中心大門邊女廁,燕巢區西燕里工程路1號,經濟部,22.80340700000000000,120.35646300000000000,特優級,女廁所,觀光地區及風景區
高雄市,橋頭區,橋南里,E200000093,高雄市橋頭糖廠女廁,高雄市橋頭區橋南里糖廠路24號,經濟部,22.75677000000000000,120.31531500000000000,優等級,女廁所,觀光地區及風景區
高雄市,旗山區,三協里,E300000208,三桃山遊樂區男廁,三桃巷9號6618016,其他,22.87852100000000000,120.47437700000000000,特優級,男廁所,觀光地區及風景區
高雄市,大樹區,大坑里,E150000267,大樹區農會-男廁(姑山倉庫),大樹區大坑里大坑路108-18號,行政院農業委員會,22.71001603428040000,120.43972223997100000,特優級,男廁所,觀光地區及風景區
桃園市,大溪區,南興里,H030000230,大溪區-永昌宮女廁,桃園市大溪區南興里十一鄰廣福九號,縣市政府,24.90443585772650000,121.26520228384800000,特優級,女廁所,寺廟教堂等宗教活動場所
桃園市,八德區,興仁里,H080000019,八德區公所1F右側男廁,桃園市八德區中山路47號,縣市政府,24.92892700000000000,121.28453200000000000,特優級,男廁所,各級機關學校
高雄市,那瑪夏區,瑪雅里,E380000096,那瑪夏區文物館2F女廁,瑪雅村平和巷170號6701647,縣市政府,23.24151100000000000,120.69743100000000000,特優級,無障礙廁所,公家機關設置供民眾使用者
高雄市,那瑪夏區,達卡努瓦里,E380000136,那瑪夏區公所2F女廁,高雄市那瑪夏區達卡努瓦里230號,其他,23.27703700000000000,120.72021500000000000,特優級,女廁所,公家機關設置供民眾使用者
高雄市,甲仙區,和安里,E330000080,甲仙區公所3F男廁,和安村中山路50號；6751002,縣市政府,23.08383519493210000,120.58786064386400000,特優級,混合廁所,公家機關設置供民眾使用者
高雄市,內門區,內門里,E350000015,內門區公所1F女,高雄市內門區內門里內門二○號,縣市政府,22.94792800000000000,120.46423600000000000,特優級,女廁所,公家機關設置供民眾使用者
高雄市,仁武區,仁武里,E170000124,高雄市立圖書舘-仁武分舘女廁,仁武區中正路80號,縣市政府,22.70113300000000000,120.34780300000000000,特優級,女廁所,公家機關設置供民眾使用者
高雄市,大寮區,永芳里,E140000344,大寮區公所後棟(女廁),高雄市打寮區永芳里鳳林三路492號,縣市政府,22.60569129427400000,120.39587616920500000,特優級,女廁所,公家機關設置供民眾使用者
高雄市,燕巢區,角宿里,E210000048,角宿天后宮男廁,高雄市燕巢區角宿里角宿路六之一號,其他,22.77192300000000000,120.35960700000000000,特優級,男廁所,寺廟教堂等宗教活動場所
桃園市,大溪區,南興里,H030000228,全國加油站大溪交流道站女廁,桃園市大溪區南興里16鄰永昌路345號,縣市政府,24.89612100000000000,121.26225500000000000,特優級,女廁所,加油站
桃園市,大溪區,月眉里,H030000069,大溪區-月眉山觀音寺女廁,桃園市大溪區月眉里十五鄰月眉九十一號,縣市政府,24.88814941573640000,121.28620862960800000,特優級,女廁所,寺廟教堂等宗教活動場所
桃園市,大溪區,南興里,H030000225,台灣中油六合加油站男廁,桃園市大溪區仁和路二段550號,縣市政府,24.91082396662820000,121.25520229339600000,特優級,男廁所,加油站
桃園市,蘆竹區,坑口里,H050000201,蘆竹區永加加油站女廁,桃園市蘆竹區海山路一段88號,縣市政府,25.09359100000000000,121.26772000000000000,優等級,無障礙廁所,加油站
桃園市,蘆竹區,坑子里,H050000199,蘆竹區頂社加油站女廁,桃園市蘆竹區山林路3段108號,縣市政府,25.07325550076860000,121.33868231065500000,特優級,女廁所,加油站
桃園市,大園區,埔心里,H060000254,桃園國際機場第二航廈(P4停車場大樓)4F-女廁,桃園市大園區航站南路9號,交通部,25.07055700000000000,121.22355300000000000,特優級,女廁所,航空站
桃園市,大園區,埔心里,H060000251,桃園國際機場第二航廈(P4停車場大樓)3F-男廁,桃園市大園區航站南路9號,交通部,25.07055700000000000,121.22355300000000000,特優級,男廁所,航空站
桃園市,大園區,埔心里,H060000234,桃園國際機場第二航廈(西北)4F-女廁,桃園市大園區航站南路9號,交通部,25.07055700000000000,121.22355300000000000,特優級,女廁所,航空站
桃園市,大園區,埔心里,H060000231,桃園國際機場第二航廈(中北)4F-男廁,桃園市大園區航站南路9號,交通部,25.07055700000000000,121.22355300000000000,特優級,男廁所,航空站
桃園市,大園區,埔心里,H060000214,桃園國際機場第二航廈(P3北邊)B2-女廁,桃園市大園區航站南路9號,交通部,25.07055700000000000,121.22355300000000000,特優級,女廁所,航空站
桃園市,新屋區,新屋里,H110000025,桃園市立圖書館新屋分館地下室1F男廁,桃園市新屋區新屋里中興路91巷11號,縣市政府,24.97263300000000000,121.10523100000000000,特優級,男廁所,各級社教機關
桃園市,新屋區,新生里,H110000039,新屋台塑石油豫章加油站女廁,桃園市新屋區新生里三民路455號,縣市政府,24.96968300000000000,121.10023600000000000,特優級,女廁所,加油站
桃園市,中壢區,金華里,H020000380,中壢區公所4F右側男廁,桃園市中壢區環北路380號,縣市政府,24.96550200000000000,121.22492300000000000,特優級,男廁所,各級機關學校
桃園市,中壢區,金華里,H020000377,中壢區公所3F右側殘障廁所,桃園市中壢區環北路380號,縣市政府,24.96550200000000000,121.22492300000000000,特優級,無障礙廁所,各級機關學校
桃園市,中壢區,金華里,H020000374,中壢區公所2F左側女廁,桃園市中壢區環北路380號,縣市政府,24.96550200000000000,121.22492300000000000,特優級,女廁所,各級機關學校
桃園市,中壢區,五權里,H020000668,統一精工加油站中壢站男廁,中壢區志廣路311號(原明盛站),縣市政府,24.96499700000000000,121.20389900000000000,特優級,男廁所,加油站
桃園市,中壢區,新街里,H020000145,天晟醫院2F(西)男廁,桃園市中壢區延平路一五五號,縣市政府,24.96259800000000000,121.22906900000000000,特優級,男廁所,醫院
桃園市,中壢區,金華里,H020000356,SOGO中壢元化館7F殘障廁所二,中壢區元化路357號,縣市政府,24.96268500000000000,121.22353300000000000,特優級,無障礙廁所,百貨公司
桃園市,中壢區,金華里,H020000353,SOGO中壢元化館7F男廁,中壢區元化路357號,縣市政府,24.96268500000000000,121.22353300000000000,特優級,男廁所,百貨公司
桃園市,中壢區,金華里,H020000336,SOGO中壢元化館2F男廁,中壢區元化路357號,縣市政府,24.96268500000000000,121.22353300000000000,特優級,男廁所,百貨公司
桃園市,中壢區,金華里,H020000333,SOGO中壢元化館B1男廁,桃園市中壢區元化路三五七號,縣市政府,24.96268500000000000,121.22353300000000000,特優級,男廁所,百貨公司
桃園市,八德區,大湳里,H080000105,八德區中油東勇加油站女廁,桃園市八德區東勇街76號,縣市政府,24.95902100000000000,121.30687200000000000,特優級,女廁所,加油站
桃園市,中壢區,普義里,H020000561,桃園市政府地方稅務局中壢分局3F(倉庫旁)女廁,桃園市中壢區溪洲街二九六號,縣市政府,24.96228800000000000,121.23001200000000000,特優級,女廁所,各級機關學校
桃園市,中壢區,普義里,H020000558,桃園市政府地方稅務局中壢分局3F(會議室旁)女廁,桃園市中壢區溪洲街二九六號,縣市政府,24.96228800000000000,121.23001200000000000,特優級,女廁所,各級機關學校
桃園市,中壢區,普義里,H020000556,中壢區戶政事務所5F女廁,中壢區溪洲街二九八號,縣市政府,24.96240200000000000,121.23020300000000000,特優級,女廁所,各級機關學校
桃園市,中壢區,內定里,H020000248,中壢服務區南棟無障礙廁所,中壢區內定里20鄰內定二街998之3號,交通部,25.00247200000000000,121.25146900000000000,特優級,無障礙廁所,公路車站服務區及休息站
桃園市,桃園區,文化里,H010000003,KFC桃園中正餐廳女廁,桃園市桃園區中正路43號,縣市政府,24.99070500000000000,121.31279500000000000,特優級,女廁所,餐廳
桃園市,桃園區,南門里,H010000457,台電桃園區營業處女廁,桃園市桃園區復興路352號,經濟部,24.98973800000000000,121.30497100000000000,特優級,女廁所,公營事業機構設置供民眾使用者及其他
桃園市,桃園區,武陵里,H010000082,麥當勞桃園中正店男廁,桃園市桃園區武陵里中正路五○號二樓,縣市政府,24.98963600000000000,121.31384600000000000,特優級,男廁所,餐廳
桃園市,桃園區,龍鳳里,H010001128,桃園區龍岡公園女廁,桃園市桃園區國豐二街與國強七街口,縣市政府,24.98916100000000000,121.28092600000000000,特優級,女廁所,公園
桃園市,新屋區,永安里,H110000129,新屋永安漁港北停車場公共廁所男廁(A-02),桃園市新屋區永安里17鄰51號,縣市政府,24.98848600000000000,121.01678000000000000,特優級,男廁所,港區
桃園市,八德區,茄明里,H080000255,八德區全國中華路加油站男廁,八德區茄明里中華路218號,縣市政府,24.98304200000000000,121.27728300000000000,特優級,男廁所,加油站
南投縣,竹山鎮,大鞍里,M040000121,杉林溪收費站旁男廁,南投縣竹山鎮大鞍里溪山路6號,其他,23.63697595043350000,120.79283237457300000,特優級,男廁所,森林遊樂區
南投縣,竹山鎮,大鞍里,M040000101,杉林溪大飯店六樓小型會議室男廁,南投縣竹山鎮大鞍里溪山路6號,其他,23.63701526535350000,120.79300403595000000,特優級,男廁所,森林遊樂區
南投縣,草屯鎮,山腳里,M030000269,虎山公園女廁,南投縣草屯鎮新富路,縣市政府,23.96951211713950000,120.68473339079000000,特優級,女廁所,公園
南投縣,草屯鎮,富寮里,M030000083,中山公園男廁,南投縣草屯鎮富寮里中正路,縣市政府,23.98064823660580000,120.68885803219000000,特優級,男廁所,公園
南投縣,草屯鎮,敦和里,M030000267,山隆運通加油站－草屯站女廁,南投縣草屯鎮博愛路642號,其他,23.98710637960910000,120.67931807037900000,特優級,女廁所,加油站
南投縣,草屯鎮,復興里,M030000168,碧山加油站男廁,南投縣草屯鎮復興里碧山路709號,其他,23.97705000000000000,120.67218800000000000,特優級,男廁所,加油站
臺南市,東　區,成大里,D320000523,香格里拉大飯店1F無障礙廁,臺南市東區成大里大學路西段８９號,其他,22.99658600000000000,120.21415500000000000,特優級,無障礙廁所,旅館
臺南市,東　區,成大里,D320000520,香格里拉大飯店B2無障礙廁,臺南市東區成大里大學路西段８９號,其他,22.99658600000000000,120.21415500000000000,特優級,無障礙廁所,旅館
臺南市,南　區,大恩里,D330000178,臺南航空站候機室女廁,臺南市南區大恩里機場路７７５號,交通部,22.94806100000000000,120.21625600000000000,特優級,女廁所,航空站
臺南市,東　區,成大里,D320000513,臺南火車站前站男廁,臺南市東區成大里北門路二段４號,交通部,22.99683900000000000,120.21236200000000000,特優級,男廁所,鐵路局
臺南市,東　區,東明里,D320000232,東寧運動公園女廁,臺南市東區東明里林森路二段與東寧路交岔口,縣市政府,22.99125700000000000,120.22477600000000000,特優級,女廁所,公園
臺南市,南　區,國宅里,D330000033,明和公園A無障礙廁,臺南市南區國宅里臨中華西路,縣市政府,22.97414500000000000,120.18418100000000000,特優級,無障礙廁所,公園
臺南市,北　區,成德里,D340000217,統一精工小北二站加油站男廁,臺南市北區福德里西門路四段３３９號,其他,23.01500100000000000,120.20971000000000000,特優級,男廁所,加油站
宜蘭縣,礁溪鄉,三民村,G050000071,豐富加油站男廁(含無障礙),262宜蘭縣礁溪鄉三民村礁溪路3段266號,其他,24.81148982809030000,121.76749885082200000,特優級,男廁所,加油站
臺中市,豐原區,北陽里,B090000459,豐原監理站(2F)-無障礙廁,臺中市豐原區豐東路120號,交通部,24.24700300000000000,120.73189200000000000,特優級,無障礙廁所,公家機關設置供民眾使用者
臺中市,豐原區,南村里,B090000543,臺中市立葫蘆墩文化中心演奏廳(1樓)-2無障礙廁,臺中市豐原區圓環東路782號,縣市政府,24.25247680538720000,120.72972536087000000,特優級,無障礙廁所,文化育樂活動場所
新北市,三重區,過田里,F020000309,新北市三重區公所-無障礙(南3),新北市三重區中山路10號,縣市政府,25.06126550485320000,121.48812532424900000,特優級,無障礙廁所,公家機關設置供民眾使用者
新北市,三重區,過田里,F020000307,新北市三重區公所-女廁(南3),新北市三重區中山路10號,縣市政府,25.06108100000000000,121.48847600000000000,特優級,女廁所,公家機關設置供民眾使用者
新北市,三重區,過田里,F020000297,新北市三重區公所-無障礙(南1),新北市三重區中山路10號,縣市政府,25.06122662975200000,121.48823261261000000,特優級,無障礙廁所,公家機關設置供民眾使用者
新竹縣,竹北市,北崙里,J010000697,新竹縣政府環境保護局3樓男廁,新竹縣竹北市光明五街62號,縣市政府,24.82792974835330000,121.01376056671100000,特優級,男廁所,各級機關學校
彰化縣,溪州鄉,尾厝村,N260000080,溪州鄉公所2F,溪州鄉尾厝村溪下路四段560號,縣市政府,23.85134130247970000,120.49905538559000000,特優級,混合廁所,公家機關設置供民眾使用者
屏東縣,南州鄉,仁里村,T200000020,南州鄉衛生所1F女廁,屏東縣南州鄉仁里村人和路239號,縣市政府,22.48912400000000000,120.50942900000000000,特優級,女廁所,各級機關學校
屏東縣,林邊鄉,仁和村,T190000026,林邊火車站男廁,屏東縣林邊鄉仁和村仁愛路33號,交通部,22.43143055555560000,120.51572500000000000,特優級,男廁所,鐵路局
臺中市,和平區,梨山里,B290000175,台灣中油梨山站-女廁,臺中市和平區中正路224號,經濟部,24.25665300000000000,121.24429900000000000,特優級,混合廁所,加油站
臺中市,和平區,南勢里,B290000001,台灣中油和平站-男廁,臺中市和平區東關路三段5號,經濟部,24.16828800000000000,120.90319900000000000,特優級,男廁所,加油站
臺中市,大里區,新里里,B280000008,麥當勞-大里國光店-女廁,臺中市大里區國光路二段177號1樓,縣市政府,24.10333300000000000,120.68138900000000000,特優級,女廁所,餐廳
臺中市,大里區,國光里,B280000216,仁愛醫療財團法人大里仁愛醫院(10樓)-女廁,"臺中市大里區東榮路 483號",縣市政府,24.10926700000000000,120.68010600000000000,特優級,女廁所,醫院
臺中市,大里區,國光里,B280000213,仁愛醫療財團法人大里仁愛醫院(9樓)-男廁,"臺中市大里區東榮路 483號",縣市政府,24.10926700000000000,120.68010600000000000,特優級,男廁所,醫院
臺中市,后里區,公館里,B150000238,台灣中油豐裕站-男廁,臺中市后里區三豐路五段131號,縣市政府,24.32958000000000000,120.72908900000000000,特優級,男廁所,加油站
臺中市,后里區,眉山里,B150000209,台灣中油台糖月眉站-女廁,臺中市后里區甲后路二段277號,經濟部,24.31305400000000000,120.69611500000000000,特優級,女廁所,加油站
臺中市,梧棲區,中正里,B140000025,明德醫院(2樓)-女,臺中市梧棲區仁美街33巷50號,縣市政府,24.25393600000000000,120.53593900000000000,特優級,女廁所,醫院
臺中市,梧棲區,中正里,B140000022,明德醫院(1樓)-女,臺中市梧棲區仁美街33巷50號,縣市政府,24.25393600000000000,120.53593900000000000,特優級,女廁所,醫院
臺中市,梧棲區,頂寮里,B140000003,台中港旅客服務中心(西側)-男,臺中市梧棲區中二路1段11號,交通部,24.25959800000000000,120.52138100000000000,特優級,男廁所,觀光地區及風景區
澎湖縣,馬公市,前寮里,X010000435,三總二樓體檢區前男廁,澎湖縣馬公市前寮里90號,國防部,23.55462463332130000,119.58399295806900000,特優級,男廁所,醫院
澎湖縣,馬公市,前寮里,X010000432,三總二樓門診區無障礙廁所,澎湖縣馬公市前寮里90號,國防部,23.55458529369920000,119.58395004272500000,特優級,無障礙廁所,醫院
嘉義縣,梅山鄉,瑞里村,Q150000132,瑞里村辦公處-混合廁所,嘉義縣梅山鄉瑞里村5鄰幼葉林62號,縣市政府,23.53963538502140000,120.67359209060700000,特優級,混合廁所,民眾團體活動場所
高雄市,燕巢區,角宿里,E210000047,義大醫院無障礙廁所,高雄市燕巢區角宿里義大路一號,縣市政府,22.76552100000000000,120.36445100000000000,特優級,無障礙廁所,醫院
臺北市,中正區,黎明里,A050001054,微風臺北車站2F東無障礙,臺北市中正區北平西路3號2F,交通部,25.04717600000000000,121.51705800000000000,特優級,無障礙廁所,鐵路局
嘉義市,西　區,劉厝里,I020000188,台中榮總嘉義分院A棟2F門診區女廁,嘉義市西區世賢路二段600號,國軍退除役官兵輔導委員會,23.46680898953590000,120.42318105697600000,特優級,女廁所,醫院
雲林縣,西螺鎮,振興里,P040000005,西螺服務區北上-男廁,雲林縣西螺鎮振興里2號,交通部,23.78931700000000000,120.47720800000000000,特優級,男廁所,公路車站服務區及休息站
雲林縣,西螺鎮,振興里,P040000002,西螺服務區南下-女廁,雲林縣西螺鎮振興里1號,交通部,23.79212700000000000,120.47549800000000000,特優級,女廁所,公路車站服務區及休息站
新北市,瑞芳區,龍興里,F120000013,瑞芳圖書館-女廁,新北市瑞芳區龍興里民權街路17號2樓,其他,25.10727700000000000,121.80818100000000000,特優級,無障礙廁所,文化育樂活動場所
新北市,瑞芳區,銅山里,F120000200,黃金博物館煉金樓-男廁,瑞芳區瓜山里金光路8號,其他,25.10827200000000000,121.85674800000000000,特優級,男廁所,觀光地區及風景區
新北市,瑞芳區,銅山里,F120000194,金瓜石車站-無障礙,瑞芳區瓜山里五號路1號,縣市政府,25.10848100000000000,121.85584500000000000,特優級,無障礙廁所,公路車站服務區及休息站
臺中市,豐原區,田心里,B090000332,豐原區戶政事務所2F-女,臺中市豐原區市政路4號,縣市政府,24.24210751044670000,120.71833133697500000,特優級,女廁所,公家機關設置供民眾使用者
臺中市,豐原區,田心里,B090000329,豐原區戶政事務所1F-無障礙廁所,臺中市豐原區市政路4號,縣市政府,24.24210751044670000,120.71833133697500000,特優級,無障礙廁所,公家機關設置供民眾使用者
臺中市,西屯區,福雅里,B060000038,春水堂(永福路)(男廁),臺中市西屯區永福路141號,縣市政府,24.18510533124570000,120.62104225158700000,特優級,男廁所,餐廳
臺中市,西屯區,西平里,B060000024,台灣麥當勞餐廳股份有限公司台中福星路分公司(女廁),臺中市西屯區福星路427號1樓,縣市政府,24.17892460884200000,120.64536452293400000,特優級,女廁所,餐廳
嘉義縣,民雄鄉,中樂村,Q050000055,民雄鄉公所2F-女廁,嘉義縣民雄鄉中樂村文化路7號,縣市政府,23.55162495000000000,120.42832020000000000,特優級,女廁所,公家機關設置供民眾使用者
嘉義縣,民雄鄉,東榮村,Q050000008,民雄鄉戶政事務所-混合廁所,嘉義縣民雄鄉東榮村民族路21之1號,縣市政府,23.55504000000000000,120.43086700000000000,特優級,混合廁所,公家機關設置供民眾使用者
嘉義縣,朴子市,仁和里,Q020000279,長庚前棟中央區11F-女廁,嘉義縣朴子市仁和里嘉朴路西段6號,縣市政府,23.46261645936200000,120.28660297393800000,特優級,無障礙廁所,醫院
嘉義縣,朴子市,仁和里,Q020000276,長庚前棟中央區10F-女廁,嘉義縣朴子市仁和里嘉朴路西段6號,縣市政府,23.46265582646180000,120.28647422790500000,特優級,無障礙廁所,醫院
臺南市,東　區,龍山里,D320000357,東南地政事務所2F男廁,臺南市東區龍山里林森路一段３１８號,縣市政府,22.98300500000000000,120.22021100000000000,特優級,男廁所,各級機關學校
雲林縣,古坑鄉,湳仔村,P070000235,蜜蜂故事館男廁,雲林縣古坑鄉湳子路88號,其他,23.65883322388880000,120.54109096527100000,特優級,男廁所,娛樂場所
臺南市,東　區,崇信里,D320000568,東區區公所3F女廁,臺南市東區崇信里崇學路１００號,縣市政府,22.98029600000000000,120.22408100000000000,特優級,女廁所,各級機關學校
臺南市,安平區,平通里,D360000141,安平區公所4F男廁,臺南市安平區平通里育平路３１６號,縣市政府,22.99453000000000000,120.16884600000000000,特優級,男廁所,各級機關學校
新北市,蘆洲區,保和里,F140000551,蘆洲區公所5F-女廁,新北市蘆洲區三民路95號五樓,縣市政府,25.08486300000000000,121.47386900000000000,特優級,女廁所,公家機關設置供民眾使用者
新北市,淡水區,民生里,F100000178,N128全國淡水加油站-女廁,淡水區民權路41號,縣市政府,25.14039200000000000,121.46010900000000000,特優級,無障礙廁所,加油站
新北市,新莊區,榮和里,F050000202,新莊區戶政事務所2F-女廁,新北市新莊區中華路一段1號,縣市政府,25.03657500000000000,121.45183900000000000,特優級,女廁所,公家機關設置供民眾使用者
新北市,新莊區,榮和里,F050000199,新莊區衛生所1F-女廁,新北市新莊區中華路一段2號,衛生福利部,25.03626500000000000,121.45216200000000000,特優級,女廁所,公家機關設置供民眾使用者
宜蘭縣,南澳鄉,南澳村,G120000012,林管處南澳工作站男女廁,272宜蘭縣南澳鄉中正路55號,縣市政府,24.46776750939850000,121.79327219724700000,特優級,混合廁所,公家機關設置供民眾使用者
高雄市,左營區,尾北里,E030000068,"蓮池潭風景區 文昌祠旁 男廁",高雄市左營區左東段1052地號,縣市政府,22.68802305449400000,120.29904842376700000,特優級,男廁所,觀光地區及風景區
高雄市,左營區,尾北里,E030000111,"高雄市立歷史博物館 左營孔子廟 女廁",高雄市左營區蓮潭路400號,縣市政府,22.68938410869850000,120.29915571212800000,特優級,女廁所,文化育樂活動場所
宜蘭縣,宜蘭市,建業里,G010000113,宜蘭運動公園-北側男廁,260宜蘭縣宜蘭市建業里中山路1段755號,縣市政府,24.74129033282630000,121.75629258155800000,特優級,男廁所,公園
臺中市,和平區,博愛里,B290000059,八仙山國家森林遊樂區(生態教室區)-無障礙廁,臺中市和平區東關路一段200-11號,行政院農業委員會,24.19180100000000000,121.01507400000000000,特優級,無障礙廁所,森林遊樂區
臺中市,大安區,中庄里,B220000013,臺中市立圖書館(大安分館)2樓-男廁,臺中市大安區中庄里興安路378號,縣市政府,24.34553700000000000,120.58912300000000000,特優級,男廁所,各級社教機關
新北市,三重區,五谷里,F020001634,家樂福重新店B2-女廁1,新北市三重區新北市三重區重新路五段654號B2,其他,25.04307000000000000,121.46712300000000000,特優級,混合廁所,量販店
臺中市,太平區,新興里,B270000245,新光國民中學(1樓A棟)-男廁,臺中市太平區樹德九街139號,縣市政府,24.15754179658450000,120.70895433425900000,特優級,男廁所,各級機關學校
新北市,三芝區,埔坪里,F210000140,三芝遊客中心暨名人文物館-女廁,"三芝鄉埔坪村埔頭坑164-2號 ",其他,25.24745190563980000,121.51316642761200000,特優級,女廁所,觀光地區及風景區
新北市,蘆洲區,永樂里,F140000581,蘆洲永平圖書館-女廁,新北市蘆洲區永平街1號三樓,縣市政府,25.09035900000000000,121.45917400000000000,特優級,女廁所,文化育樂活動場所
新北市,蘆洲區,仁義里,F140000636,蘆洲集賢圖書館-女廁,新北市蘆洲區集賢路245號四樓,縣市政府,25.08486041478420000,121.48183822631800000,特優級,女廁所,文化育樂活動場所
高雄市,鼓山區,明誠里,E020000167,大帑殿２樓(男廁),鼓山區明華路６３３號,其他,22.66314307746070000,120.30252724885900000,特優級,男廁所,娛樂場所
高雄市,前鎮區,竹東里,E090000794,聖和公園,前鎮區二聖路,縣市政府,22.61207958811720000,120.32328486442600000,特優級,男廁所,公園
高雄市,苓雅區,福西里,E080000660,青少年籃球場(障),苓雅區明德街2號,縣市政府,22.62601395313400000,120.33359527587900000,特優級,無障礙廁所,娛樂場所
高雄市,鼓山區,龍子里,E020000103,龍子里活動中心(男厕),鼓山區中華一路2133巷47號,縣市政府,22.65353933284300000,120.29630988836300000,特優級,男廁所,民眾團體活動場所
高雄市,苓雅區,福西里,E080000658,青少年籃球場(男),苓雅區明德街2號,縣市政府,22.62593472832660000,120.33359527587900000,特優級,男廁所,娛樂場所
高雄市,新興區,成功里,E060000325,高雄忠孝停車場,高雄市新興區忠孝一路331號,縣市政府,22.63326282977110000,120.30596852302600000,特優級,男廁所,公家機關設置供民眾使用者
高雄市,前鎮區,興邦里,E090000339,統一時代B1,前鎮區中華五路789號,縣市政府,22.59475622401390000,120.30685901641800000,特優級,男廁所,百貨公司
宜蘭縣,羅東鎮,信義里,G020000156,林區管理處女廁,265宜蘭縣羅東鎮信義里中正北路118號,縣市政府,24.68439103142460000,121.77210688591000000,優等級,女廁所,文化育樂活動場所
宜蘭縣,羅東鎮,賢文里,G020000126,羅東鎮公所1F男廁,265宜蘭縣羅東鎮賢文里中興路3號,縣市政府,24.67694445071990000,121.76696348188700000,特優級,男廁所,公家機關設置供民眾使用者
新北市,新店區,龜山里,F060000502,新店龜山圖書閱覽室-女廁,新店市新烏路3段136號1樓,其他,24.90192981096900000,121.55063152313200000,特優級,無障礙廁所,文化育樂活動場所
宜蘭縣,羅東鎮,成功里,G020000061,李科永圖書館1F無障礙廁所,265宜蘭縣羅東鎮成功里純精路一段88號,縣市政府,24.67017615954370000,121.76524579525000000,特優級,無障礙廁所,文化育樂活動場所
新北市,新店區,寶興里,F060000126,新店寶興閱覽室-男廁,新店市寶中路65巷59號3樓,其他,24.98030084581450000,121.54492378234900000,優等級,混合廁所,文化育樂活動場所
基隆市,中正區,德義里,C010000022,信二公有停車場8樓-男廁,基隆市信二路299號4樓,縣市政府,25.13069616633470000,121.74612164497400000,特優級,男廁所,公營事業機構設置供民眾使用者及其他
基隆市,中正區,德義里,C010000019,信二公有停車場6樓-女廁,基隆市信二路299號6樓,縣市政府,25.13060874696790000,121.74607872963000000,特優級,女廁所,公營事業機構設置供民眾使用者及其他
基隆市,中正區,港通里,C010000098,基隆市文化局-靠義一路2樓-女廁兼無障礙廁所,基隆市中正區義一路1號（義一路）,縣市政府,25.13158006975160000,121.74374788999600000,特優級,女廁所,文化育樂活動場所
基隆市,暖暖區,暖同里,C030000132,基隆市暖暖區圖書館4樓-女廁,基隆市暖暖區東勢街2號4樓,縣市政府,25.10016357760440000,121.73585414886500000,特優級,女廁所,各級機關學校
基隆市,七堵區,百福里,C020000247,百福立體停車場3樓-無障礙廁所2,基隆市百六街116號,縣市政府,25.08551700000000000,121.69809100000000000,特優級,無障礙廁所,公營事業機構設置供民眾使用者及其他
高雄市,路竹區,竹南里,E240000117,明田加油站-男廁,高雄市路竹區中山路1016號,經濟部,22.85124545158590000,120.26136875152600000,特優級,男廁所,加油站
高雄市,橋頭區,橋頭里,E200000071,高雄市橋頭區公所1樓無障礙廁所,高雄市橋頭區橋頭里隆豐路一號,縣市政府,22.75763970352060000,120.30568957328800000,特優級,無障礙廁所,公家機關設置供民眾使用者
高雄市,鳳山區,協和里,E120000532,台電鳳山營業處無障礙廁所(北鳳山區),高雄市鳳山市青年路一段100號,經濟部,22.62144900000000000,120.34971700000000000,特優級,無障礙廁所,公家機關設置供民眾使用者
高雄市,鳳山區,新興里,E120000097,鳳山區公所1F女廁(北鳳山區),鳳山市經武路30號,縣市政府,22.62718251373890000,120.36242365837100000,特優級,女廁所,公家機關設置供民眾使用者
高雄市,茄萣區,白雲里,E260000016,台灣中油茄萣加油站女廁,高雄市茄萣區白雲里白砂路六號,經濟部,22.90689200000000000,120.18409200000000000,特優級,女廁所,加油站
高雄市,六龜區,文武里,E320000149,台灣中油六龜加油站女廁,高雄市六龜區文武里光復路308號,經濟部,22.99120000000000000,120.63598700000000000,特優級,女廁所,加油站
高雄市,大樹區,統嶺里,E150000363,台灣中油嶺口加油站-女廁,高雄市大樹區統嶺里統嶺路125-2號,經濟部,22.77340200000000000,120.43626600000000000,特優級,女廁所,加油站
高雄市,旗山區,大德里,E300000002,高雄客運南站女廁,高雄市旗山區大德里大同街二三號,其他,22.88354918963380000,120.48462510108900000,特優級,女廁所,公路車站服務區及休息站
桃園市,桃園區,龍山里,H010000844,桃園療養院(醫療暨行政大樓)1F男廁二,桃園市桃園區龍壽街71號,衛生福利部,24.97919400000000000,121.26892200000000000,特優級,男廁所,醫院
桃園市,桃園區,大林里,H010000197,桃園市立圖書館大林分館2F男廁,桃園市桃園區樹仁二街37號,縣市政府,24.97802800000000000,121.32057300000000000,特優級,男廁所,各級社教機關
桃園市,桃園區,大林里,H010000199,桃園市立圖書館大林分館1F男廁,桃園市桃園區樹仁二街37號,縣市政府,24.97802800000000000,121.32057300000000000,特優級,男廁所,各級社教機關
桃園市,桃園區,龍山里,H010000823,衛生福利部桃園醫院(醫療)12F男廁,桃園市桃園區中山路1492號,衛生福利部,24.97781500000000000,121.26938900000000000,特優級,男廁所,醫院
桃園市,桃園區,龍山里,H010000820,衛生福利部桃園醫院(醫療)10F女廁,桃園市桃園區中山路1492號,衛生福利部,24.97781500000000000,121.26938900000000000,特優級,女廁所,醫院
桃園市,桃園區,龍山里,H010000803,衛生福利部桃園醫院(醫療)1F殘障廁所,桃園市桃園區中山路1492號,衛生福利部,24.97781500000000000,121.26938900000000000,特優級,無障礙廁所,醫院
桃園市,桃園區,龍山里,H010000800,衛生福利部桃園醫院(醫療)B1F女廁,桃園市桃園區中山路1492號,衛生福利部,24.97781500000000000,121.26938900000000000,特優級,女廁所,醫院
桃園市,桃園區,大林里,H010000162,桃園區車容坊桃鶯加油站男廁,桃園市桃園區桃鶯路402號,縣市政府,24.97550100000000000,121.32346100000000000,特優級,男廁所,加油站
桃園市,中壢區,復興里,H020000480,元生公園男廁,中壢區元生一街,縣市政府,24.97418355168330000,121.25276684761000000,特優級,男廁所,公園
桃園市,龜山區,文化里,H070000475,摩斯漢堡林口復興店女廁,桃園市龜山區復興一路156號,縣市政府,25.05822300000000000,121.36647800000000000,特優級,女廁所,餐廳
桃園市,觀音區,保障里,H120000168,觀音區保障宮女廁,桃園市觀音區保障里大觀路1段579號,縣市政府,25.05148802841540000,121.15063261979200000,特優級,女廁所,寺廟教堂等宗教活動場所
桃園市,觀音區,新興里,H120000085,觀音區應天宮女廁,桃園市觀音區新興里文化路石橋段455巷25號,縣市政府,25.01241000000000000,121.09041400000000000,特優級,女廁所,寺廟教堂等宗教活動場所
桃園市,蘆竹區,南崁里,H050000089,特力家居南崁店男廁B1,桃園市蘆竹區中正路1號,縣市政府,25.04067400000000000,121.29528300000000000,特優級,男廁所,量販店
桃園市,大園區,橫峰里,H060000105,台灣中油佑昇加油站-男廁,桃園市大園區中山南路二段478號,縣市政府,25.02486730000000000,121.21336080000000000,特優級,男廁所,加油站
桃園市,桃園區,汴洲里,H010000250,家樂福桃園店1F(服務中心旁)女廁,桃園市桃園區春日路1593號,縣市政府,25.02400000000000000,121.30593000000000000,特優級,女廁所,量販店
桃園市,觀音區,保生里,H120000074,觀音區-大覺寺女廁,桃園市觀音區保生里濱海路保生段306巷155號,縣市政府,25.01696500000000000,121.04850900000000000,特優級,女廁所,寺廟教堂等宗教活動場所
桃園市,桃園區,同德里,H010001269,摩斯漢堡桃園同德店男廁,桃園市桃園區中正路1121號1樓,縣市政府,25.01691300000000000,121.29784100000000000,特優級,男廁所,餐廳
桃園市,桃園區,自強里,H010001165,家樂福經國店1F(大門)女廁,桃園市桃園區經國路369號,縣市政府,25.01561400000000000,121.30491100000000000,特優級,女廁所,量販店
桃園市,桃園區,自強里,H010001162,家樂福經國店B1(麥當勞旁)女廁,桃園市桃園區經國路369號,縣市政府,25.01561400000000000,121.30491100000000000,特優級,女廁所,量販店
桃園市,桃園區,莊敬里,H010001049,桃園區台灣中油中正加油站女廁,桃園市桃園區中正路1550號,縣市政府,25.02683300000000000,121.29394000000000000,特優級,女廁所,加油站
南投縣,草屯鎮,富寮里,M030000127,草屯地政事務所女廁,南投縣草屯鎮富寮里中正路579-1號,縣市政府,23.97920068844620000,120.68892240520700000,特優級,女廁所,公家機關設置供民眾使用者
南投縣,草屯鎮,富寮里,M030000123,草屯戶政事務所性別友善廁所,南投縣草屯鎮富寮里玉峰街2號,縣市政府,23.97978600000000000,120.68874700000000000,特優級,性別友善廁所,公家機關設置供民眾使用者
南投縣,埔里鎮,北門里,M020000027,埔里鎮衛生所1樓女廁(左邊),南投縣埔里鎮北門里中山路二段256號,縣市政府,23.96699939236030000,120.96857070922900000,特優級,女廁所,公家機關設置供民眾使用者
南投縣,集集鎮,吳厝里,M050000040,集集圖書館三樓男廁,南投縣集集鎮吳厝里育才街166號,縣市政府,23.82803230367470000,120.78658252953600000,特優級,男廁所,各級社教機關
高雄市,旗山區,湄洲里,E300000096,旗山社福館二F男廁A,旗山區中正路199號,縣市政府,22.89025660862400000,120.47985827919500000,特優級,男廁所,公家機關設置供民眾使用者
高雄市,旗山區,湄洲里,E300000093,旗山社福館一F男廁B,旗山區中正路199號,縣市政府,22.89032431369750000,120.47987061737300000,特優級,男廁所,公家機關設置供民眾使用者
高雄市,桃源區,建山里,E370000028,建山國小男公廁,高雄市桃源區建山里建山九六號,縣市政府,23.10550999784780000,120.68273305892900000,特優級,混合廁所,各級機關學校
高雄市,梓官區,梓平里,E290000065,梓平公園男廁,高雄市梓官區梓平段804地號,縣市政府,22.75487590128100000,120.26701426502800000,特優級,男廁所,公園
高雄市,燕巢區,安招里,E210000018,統一精工速邁樂加油中心燕巢站女廁,高雄市燕巢區安招里安北路二五號,其他,22.79207400000000000,120.35009400000000000,特優級,女廁所,加油站
高雄市,燕巢區,安招里,E210000015,福懋燕巢加油站無障礙廁所,高雄市燕巢區安招里安北路五○號,其他,22.79197900000000000,120.35090500000000000,特優級,無障礙廁所,加油站
高雄市,鳳山區,老爺里,E120000046,甲洲加油站男廁(南鳳山),鳳山市五甲二路73號,其他,22.60311608419630000,120.34284353256200000,特優級,男廁所,加油站
高雄市,湖內區,公館里,E250000011,台灣中油太爺加油站男廁,高雄市湖內區公館里中山路2段61號,經濟部,22.90976020728270000,120.22404313087500000,特優級,男廁所,加油站
桃園市,桃園區,光興里,H010000697,桃園市政府大廳-後棟5F男廁,桃園市桃園區縣府路1號,縣市政府,24.99242100000000000,121.30104500000000000,特優級,男廁所,各級機關學校
桃園市,大溪區,復興里,H030000141,石門水庫(大溪轄區)門口收票亭男廁,桃園市大溪區興和里得勝路一號,經濟部,24.81146800000000000,121.24838300000000000,特優級,男廁所,觀光地區及風景區
桃園市,大溪區,復興里,H030000138,石門水庫(大溪轄區)溪洲公園女廁一,大溪區復興里環湖路1號,經濟部,24.81146800000000000,121.24838300000000000,特優級,女廁所,觀光地區及風景區
桃園市,復興區,義盛里,H130000065,小烏來風景特定區停車場女廁,桃園市復興區義盛里,縣市政府,24.79108800000000000,121.37498600000000000,特優級,女廁所,觀光地區及風景區
桃園市,復興區,華陵里,H130000079,拉拉山風景特定區上巴陵派出所旁女廁,桃園市復興區華陵里9鄰44號,縣市政府,24.67810800000000000,121.39719400000000000,特優級,女廁所,觀光地區及風景區
桃園市,大園區,沙崙里,H060000347,保安宮-女廁,桃園市大園區沙崙里12鄰沙崙38之1號,縣市政府,25.09375292000000000,121.22321260000000000,特優級,女廁所,寺廟教堂等宗教活動場所
桃園市,大園區,後厝里,H060000352,眾聖宮-男廁,桃園市大園區後厝里1鄰40號,縣市政府,25.09042730000000000,121.21048480000000000,特優級,男廁所,寺廟教堂等宗教活動場所
桃園市,大園區,北港里,H060000408,乾元宮-男廁,桃園市大園區北港里潮音二路945號,縣市政府,25.06590271000000000,121.15542980000000000,特優級,男廁所,寺廟教堂等宗教活動場所
南投縣,魚池鄉,東池村,M090000005,魚池鄉衛生所1F殘障廁所,南投縣魚池鄉東池村魚池街194號,縣市政府,23.89555079162900000,120.94136118885200000,特優級,無障礙廁所,公家機關設置供民眾使用者
南投縣,集集鎮,林尾里,M050000019,集集攔河堰管理中心三樓男廁,南投縣集集鎮林尾里攔河路2號,經濟部,23.82098269498000000,120.76539844273600000,特優級,男廁所,公家機關設置供民眾使用者
臺南市,北　區,仁愛里,D340000049,成大醫院新門診大樓4F電腦中心旁男廁,臺南市北區中樓里小東路３５號,衛生福利部,23.00172100000000000,120.21781800000000000,特優級,男廁所,醫院
臺南市,北　區,仁愛里,D340000046,成大醫院新門診大樓3F成杏門診女廁,臺南市北區中樓里小東路３５號,衛生福利部,23.00172100000000000,120.21781800000000000,特優級,女廁所,醫院
臺南市,北　區,仁愛里,D340000029,成大醫院住院大樓1F復健部男廁,臺南市北區仁愛里勝利路１３８號,衛生福利部,23.00227000000000000,120.21892700000000000,特優級,男廁所,醫院
臺南市,北　區,仁愛里,D340000026,成大醫院住院大樓1F放超旁女廁,臺南市北區仁愛里勝利路１３８號,衛生福利部,23.00227000000000000,120.21892700000000000,特優級,女廁所,醫院
新北市,中和區,員山里,F030000714,中和環球購物中心B2-無障礙,中和區中山路三段122號,縣市政府,25.00607700000000000,121.47568900000000000,特優級,無障礙廁所,百貨公司
臺中市,和平區,博愛里,B290000114,麗池山水溫泉會館(住宿區)-混合廁,臺中市和平區東關路一段分校巷31號,縣市政府,24.20251500000000000,121.00867400000000000,特優級,混合廁所,旅館
臺中市,和平區,博愛里,B290000111,谷關伊豆日式露天溫泉(餐廳)-男廁,臺中市和平區谷關分校巷5號,縣市政府,24.20184100000000000,121.00864200000000000,特優級,男廁所,旅館
臺中市,和平區,博愛里,B290000108,谷關伊豆日式露天溫泉(大眾池)-混合廁,臺中市和平區谷關分校巷5號,縣市政府,24.20184100000000000,121.00864200000000000,特優級,混合廁所,旅館
新北市,深坑區,深坑里,F180000081,深坑圖書館-女廁,深坑區深坑街10號1F,縣市政府,25.00240000000000000,121.61590000000000000,特優級,女廁所,文化育樂活動場所
宜蘭縣,三星鄉,大隱村,G100000053,大埔加油站女廁,266宜蘭縣三星鄉大隱村三星路1段435號,其他,24.66968705526430000,121.71777337789500000,特優級,女廁所,加油站
臺中市,潭子區,潭秀里,B170000034,淺嚐時尚料理廚房-(女廁),臺中市潭子區雅潭路一段55號,縣市政府,24.21557900000000000,120.70367600000000000,特優級,女廁所,餐廳
臺中市,潭子區,潭秀里,B170000029,醉春園餐廳-(男廁),臺中市潭子區中山路二段382號,縣市政府,24.21392500000000000,120.70551000000000000,特優級,男廁所,餐廳
臺中市,太平區,東平里,B270000044,宴陽樓小館-(女廁),臺中市太平區東平路728-1號,縣市政府,24.13384000000000000,120.71852400000000000,特優級,女廁所,餐廳
新北市,土城區,埤塘里,F130000021,土城藝文館1F-女廁,土城區和平路24號,縣市政府,24.97305400000000000,121.44306300000000000,特優級,女廁所,文化育樂活動場所
宜蘭縣,五結鄉,協和村,G090000071,冬山河親水公園-平行水道多功能廁所,268宜蘭縣五結鄉協和村親河路2段2號,縣市政府,24.67266918030050000,121.81290864944500000,特優級,無障礙廁所,觀光地區及風景區
新北市,林口區,南勢里,F170000100,台亞林口忠孝加油站-女廁,林口區忠孝路132號,經濟部,25.07329700000000000,121.36696800000000000,特優級,混合廁所,加油站
臺中市,大甲區,大甲里,B110000020,三商巧福-大甲-(男廁),臺中市大甲區鎮政路12-1號,縣市政府,24.34445300000000000,120.62495300000000000,特優級,男廁所,餐廳
臺南市,鹽水區,橋南里,D020000043,鹽水區老人文康中心3F女廁,臺南市鹽水區橋南里治水路２５４之１號,縣市政府,23.31822600000000000,120.26336300000000000,特優級,女廁所,民眾團體活動場所
臺南市,永康區,永康里,D310000234,永康派出所女廁,臺南市永康區永康里中山北路２號,縣市政府,23.02583800000000000,120.25746700000000000,特優級,女廁所,各級機關學校
高雄市,鹽埕區,府北里,E010000167,高雄市音樂館-無障礙所,鹽埕區河西路99號,縣市政府,22.62780640219770000,120.28660297393800000,特優級,無障礙廁所,文化育樂活動場所
新北市,泰山區,楓樹里,F160000140,產業文化館3F(親子閱覽室)-女廁,泰山區楓江路26巷26號3樓,其他,25.06250950157880000,121.43415927887000000,特優級,女廁所,文化育樂活動場所
新北市,泰山區,楓樹里,F160000139,產業文化館(親子閱覽室)3F-男廁,泰山區楓江路26巷26號3樓,縣市政府,25.06239287742230000,121.43411636352500000,特優級,男廁所,文化育樂活動場所
高雄市,鹽埕區,光明里,E010000061,鹽埕停車場-無障礙所,鹽埕區大仁路10號,縣市政府,22.62487509213900000,120.28630256652800000,特優級,無障礙廁所,公家機關設置供民眾使用者
高雄市,鹽埕區,光明里,E010000060,鹽埕停車場-女廁,鹽埕區大仁路10號,縣市政府,22.62491470485370000,120.28628110885600000,特優級,女廁所,公家機關設置供民眾使用者
高雄市,鼓山區,寶樹里,E020000197,鼓山區公所2樓(女廁),鼓山二路166號2樓,縣市政府,22.63680790617170000,120.28112322092100000,特優級,女廁所,各級機關學校
高雄市,前鎮區,盛興里,E090000656,新光三越百貨股份有限公司-高雄三多分公司4F,前鎮區三多三路213號,縣市政府,22.61438722443190000,120.30664443969700000,特優級,女廁所,百貨公司
高雄市,前鎮區,盛興里,E090000648,新光三越百貨股份有限公司-高雄三多分公司B2,前鎮區三多三路213號,縣市政府,22.61438227246410000,120.30663371086100000,特優級,女廁所,百貨公司
高雄市,鼓山區,雄峰里,E020000009,雄峰30號公園（第二期）(女廁),鼓山區九如四路,縣市政府,22.66731851658460000,120.28340578079200000,優等級,女廁所,公園
高雄市,前鎮區,忠純里,E090000397,好市多1F,前鎮區中華五路656號,縣市政府,22.60323890309270000,120.30572175979600000,特優級,無障礙廁所,量販店
高雄市,楠梓區,宏毅里,E040000238,台灣中油後勁站-無障礙廁,高雄市楠梓區宏毅里後昌路二○○號,經濟部,22.71647017679680000,120.30961298850100000,特優級,無障礙廁所,加油站
高雄市,楠梓區,宏毅里,E040000236,台灣中油後勁站-女廁,高雄市楠梓區宏毅里後昌路二○○號,經濟部,22.71646976444130000,120.30961030629200000,特優級,女廁所,加油站
高雄市,三民區,德智里,E050001582,"三民西區麥當勞- 十全店男廁",高雄市三民區十全一路197號,其他,22.64493500000000000,120.30815100000000000,特優級,男廁所,餐廳
高雄市,前金區,長生里,E070000090,高雄文學館1F-男,高雄市前金區,縣市政府,22.62565744114130000,120.29807209968600000,特優級,男廁所,文化育樂活動場所
高雄市,前金區,復元里,E070000048,高雄市立大同醫院(A區)女,高雄市前金區,縣市政府,22.62749940981790000,120.29722452163700000,特優級,女廁所,醫院
南投縣,草屯鎮,中山里,M030000247,草屯鎮衛生所1樓女廁,南投縣草屯鎮中山里草溪路882巷7號,縣市政府,23.97327300000000000,120.68071300000000000,特優級,女廁所,公家機關設置供民眾使用者
南投縣,南投市,平和里,M010000104,南投市戶政事務所1樓女廁,南投縣南投市平和里育樂一街16號,其他,23.91067412079060000,120.68949222564700000,特優級,女廁所,公家機關設置供民眾使用者
南投縣,竹山鎮,雲林里,M040000038,竹山鎮衛生所一樓女廁,南投縣竹山鎮雲林里公所路126號,縣市政府,23.75933272931780000,120.67221760746200000,特優級,女廁所,公家機關設置供民眾使用者
彰化縣,線西鄉,寓埔村,N040000011,線西公園女廁,線西鄉寓埔村寓埔村與育英路160巷交接路口,縣市政府,24.13220472261370000,120.45989513397200000,特優級,女廁所,公園
新竹縣,芎林鄉,新鳳村,J070000016,飛鳳山第二停車場男廁,新竹縣芎林鄉新鳳村,縣市政府,24.76362807379770000,121.11667156219500000,特優級,男廁所,觀光地區及風景區
南投縣,埔里鎮,北安里,M020000103,埔里鎮立圖書館1樓男廁,南投縣埔里鎮北安里六合路178號,縣市政府,23.97017738159830000,120.97127318378600000,特優級,男廁所,各級社教機關
南投縣,竹山鎮,社寮里,M040000080,金筍迎客女廁,南投縣竹山鎮社寮里大公街40號,其他,23.81751793710350000,120.72216674685000000,特優級,女廁所,寺廟教堂等宗教活動場所
新北市,新店區,福民里,F060001008,捷運小碧潭站北側-女廁,新店區中央路151號4樓,其他,24.97309000000000000,121.52991800000000000,特優級,無障礙廁所,捷運車站
新北市,新店區,福民里,F060001006,捷運小碧潭站南側-親子,新店區中央路151號4樓,其他,24.97309000000000000,121.52991800000000000,特優級,無障礙廁所,捷運車站
基隆市,七堵區,堵北里,C020000175,百福公園1-女廁,基隆市七堵區實踐路,縣市政府,25.08035800000000000,121.69274100000000000,特優級,女廁所,公園
基隆市,七堵區,六堵里,C020000146,台灣中油股份有限公司-六堵站-女廁,基隆市七堵區六堵里明德二路28號,經濟部,25.08383100000000000,121.70428400000000000,特優級,女廁所,加油站
新竹縣,竹東鎮,頭重里,J020000153,全國竹東加油站男廁,新竹縣竹東鎮頭重里中興路四段876號,經濟部,24.77859126912790000,121.03204250335700000,特優級,男廁所,加油站
桃園市,楊梅區,紅梅里,H040000016,楊梅區公有第二市場男廁,桃園市楊梅區紅梅里大華街一九之七號,縣市政府,24.90724700000000000,121.14496200000000000,特優級,男廁所,市場
桃園市,楊梅區,中山里,H040000289,柑園加油站楊梅站女廁,桃園市楊梅區中山北路一段43號,縣市政府,24.90729941785850000,121.15081071853600000,特優級,女廁所,加油站
桃園市,大溪區,瑞興里,H030000177,大溪河濱公園女廁,桃園市大溪區瑞興里大鶯路六○巷八九弄七五號,縣市政府,24.88972606429330000,121.28379464149500000,特優級,女廁所,公園
桃園市,大溪區,南興里,H030000223,山隆大溪加油站男廁,桃園市大溪區南興里永昌路105號,縣市政府,24.90125900000000000,121.26433100000000000,特優級,男廁所,加油站
臺南市,安平區,建平里,D360000104,臺南地政事務所女廁,臺南市安平區建平里建平路３２１號,縣市政府,22.99064500000000000,120.18256400000000000,特優級,女廁所,各級機關學校
臺南市,東　區,崇信里,D320000564,東區區公所1F女廁,臺南市東區崇信里崇學路１００號,縣市政府,22.98029600000000000,120.22408100000000000,特優級,女廁所,各級機關學校
臺南市,安南區,溪心里,D350000067,安南戶政事務所安南辦公處女廁,臺南市安南區溪心里安中路二段３０６號,縣市政府,23.04716500000000000,120.18479100000000000,特優級,女廁所,各級機關學校
新北市,永和區,竹林里,F040000006,摩斯漢堡永和竹林店2F-女廁,"竹林路199之1號 ",其他,25.00919000000000000,121.52064700000000000,特優級,女廁所,餐廳
新北市,金山區,金美里,F270000204,金山區公所1F-女廁,金山區金美里中正路11號,其他,25.22222143140950000,121.63664460182200000,特優級,女廁所,公家機關設置供民眾使用者
臺中市,西屯區,西墩里,B060000112,台塑全國西屯站-女廁,臺中市西屯區西屯路三段77-3號,縣市政府,24.18231300000000000,120.63350600000000000,特優級,女廁所,加油站
臺中市,西屯區,西墩里,B060000109,台灣中油光凰站-男廁,臺中市西屯區福科路110號,縣市政府,24.18019900000000000,120.63255900000000000,特優級,男廁所,加油站
臺中市,西屯區,協和里,B060000762,台灣中油安和站-女廁,臺中市西屯區安和路51-8號,縣市政府,24.16617200000000000,120.61910200000000000,特優級,女廁所,加油站
臺中市,西屯區,協和里,B060000759,台塑台亞安和路站-男廁,臺中市西屯區安和路49-5號,縣市政府,24.16598400000000000,120.61850800000000000,特優級,男廁所,加油站
臺南市,柳營區,太康里,D040000224,柳營奇美醫院三樓工務室女廁,臺南市柳營區太康里太康２０１號,其他,23.28928000000000000,120.32468700000000000,特優級,女廁所,醫院
臺南市,柳營區,太康里,D040000213,柳營奇美醫院一樓耳鼻喉科女廁,臺南市柳營區太康里太康２０１號,其他,23.28928000000000000,120.32468700000000000,特優級,女廁所,醫院
臺北市,萬華區,富福里,A070000396,萬華車站東站男,臺北市萬華區康定路321號,交通部,25.03338300000000000,121.50032600000000000,特優級,男廁所,鐵路局
臺南市,柳營區,太康里,D040000207,柳營奇美醫院一樓急診觀察室無障礙廁,臺南市柳營區太康里太康２０１號,其他,23.28928000000000000,120.32468700000000000,特優級,無障礙廁所,醫院
新北市,石門區,老梅里,F220000048,老人活動中心-女廁,石門區老梅里公地44號,其他,25.28952290374190000,121.54555356499300000,特優級,女廁所,民眾團體活動場所
新北市,新莊區,思源里,F050000327,衛生福利部臺北醫院1F藥局旁-女廁,新北市新莊區思源路127號,衛生福利部,25.04324000000000000,121.45962200000000000,特優級,女廁所,醫院
新北市,板橋區,深丘里,F010001017,遠東百貨板橋店13F-無障礙,板橋區中山路1段152號,其他,25.01105800000000000,121.46430500000000000,特優級,無障礙廁所,百貨公司
新北市,板橋區,深丘里,F010001014,遠東百貨板橋店9F-無障礙,板橋區中山路1段152號,其他,25.01105800000000000,121.46430500000000000,特優級,無障礙廁所,百貨公司
新北市,新莊區,立德里,F050000357,新莊體育館景觀樓-男廁,新北市新莊區和興街66號,縣市政府,25.04138800000000000,121.44644100000000000,優等級,男廁所,民眾團體活動場所
苗栗縣,頭份市,濫坑里,K050000194,永炬加油站-男廁,苗栗縣頭份市濫坑里尖豐路九三五號,其他,24.63730197555990000,120.88299751281700000,特優級,男廁所,加油站
高雄市,大寮區,昭明里,E140000260,大益加油站(混合廁),"高雄市大寮區昭明里 鳳林一路502號",其他,22.53981516384450000,120.40968418121300000,特優級,混合廁所,加油站
臺中市,南屯區,新生里,B070000226,觀光休閒魚市(女廁),臺中市南屯區環中路四段2號-哈魚碼頭,縣市政府,24.14901000000000000,120.62180000000000000,特優級,女廁所,市場
宜蘭縣,五結鄉,成興村,G090000158,宜蘭縣環保局B1女廁(含無障礙),265宜蘭縣五結鄉利工二路100號,縣市政府,24.66071709545050000,121.83539628982500000,特優級,女廁所,公家機關設置供民眾使用者
彰化縣,員林市,三和里,N100000171,"麥當勞三 民店男廁",員林市三和里三民東街329號,縣市政府,23.96070500000000000,120.58185200000000000,特優級,男廁所,餐廳
桃園市,中壢區,舊明里,H020000717,中壢第二市場(女廁),桃園市中壢區明德路60號,縣市政府,24.95629500000000000,121.21614200000000000,特優級,女廁所,市場
苗栗縣,頭份市,後庄里,K050000106,百盛加油站-男廁,苗栗縣頭份市後庄里光華北路五號,其他,24.69529663977630000,120.88889837265000000,特優級,男廁所,加油站
新北市,新店區,安和里,F060001085,陽光運動園區B區-無障礙,新店市安業街中安橋旁,其他,24.97888400000000000,121.51609900000000000,特優級,無障礙廁所,公園
新北市,林口區,南勢里,F170000102,台亞林口忠孝加油站-無障礙,林口區忠孝路132號,經濟部,25.07329700000000000,121.36696800000000000,特優級,無障礙廁所,加油站
臺南市,佳里區,六安里,D120000080,蕭壠兒童文化圖書館1F無障礙廁,臺南市佳里區六安里六安１３０號,縣市政府,23.17268100000000000,120.17695700000000000,特優級,無障礙廁所,文化育樂活動場所
苗栗縣,三灣鄉,三灣村,K160000004,三灣市場-男廁,三灣鄉三灣村中山路市場旁,縣市政府,24.65386244155620000,120.95523476600600000,特優級,男廁所,市場
苗栗縣,三義鄉,西湖村,K130000052,西湖渡假村安徒生館-男廁,三義鄉西湖村西湖11號,縣市政府,24.39013693270430000,120.76178848743400000,特優級,男廁所,觀光地區及風景區
苗栗縣,頭屋鄉,鳴鳳村,K120000025,頭屋雲洞宮,頭屋鄉鳴鳳村三湖6鄰120號,其他,24.54843090072300000,120.90340375900300000,特優級,混合廁所,寺廟教堂等宗教活動場所
苗栗縣,頭屋鄉,明德村,K120000013,明德社區發展協會-男廁,頭屋鄉明德村54號,縣市政府,24.58310980705120000,120.88475704193100000,特優級,男廁所,觀光地區及風景區
苗栗縣,銅鑼鄉,中平村,K100000058,統一精工銅鑼加油站,苗栗縣銅鑼鄉中平村131-5號,其他,24.49438578876560000,120.80162733793300000,特優級,混合廁所,加油站
苗栗縣,公館鄉,館南村,K090000033,行政院農業委員會苗栗區農業改良場-男廁,公館鄉館南村261號,行政院農業委員會,24.49524739361550000,120.82792103290600000,特優級,男廁所,各級機關學校
新北市,蘆洲區,得仁里,F140000626,得仁市民活動中心-女廁,新北市蘆洲區中山一路415號六樓,縣市政府,25.07671500000000000,121.46888000000000000,特優級,女廁所,民眾團體活動場所
臺北市,南港區,舊莊里,A090000578,舊莊公園,臺北市南港區舊莊路一段91巷,縣市政府,25.04080700000000000,121.61932200000000000,特優級,混合廁所,公園
臺北市,中正區,水源里,A050000088,三軍總醫院汀州院區201-2,臺北市中正區汀州路3段40號,國防部,25.01650000000000000,121.52989100000000000,特優級,無障礙廁所,醫院
臺北市,中正區,建國里,A050000845,臺北市立大學公誠樓B3左,臺北市中正區愛國西路1號,教育部,25.03528700000000000,121.51445500000000000,特優級,混合廁所,各級機關學校
臺南市,新化區,那拔里,D180000182,衛生福利部臺南醫院新化分院急診男廁,臺南市新化區那菝里牧場７２號,衛生福利部,23.06270100000000000,120.33642900000000000,特優級,男廁所,醫院
臺北市,中山區,行孝里,A040000733,臺北第二果菜批發市場(濱江)西區2號1樓男,臺北市中山區民族東路336號,縣市政府,25.06801300000000000,121.53722600000000000,特優級,男廁所,市場
臺北市,松山區,中華里,A010000340,台北長庚紀念醫院後棟4樓,臺北市松山區敦化北路199號,縣市政府,25.05550800000000000,121.54961800000000000,特優級,混合廁所,醫院
臺北市,松山區,中華里,A010000337,台北長庚紀念醫院後棟3樓女,臺北市松山區敦化北路199號,縣市政府,25.05550800000000000,121.54961800000000000,特優級,女廁所,醫院
臺北市,松山區,龍田里,A010000299,三軍總醫院松山分院注射室門診前女,臺北市松山區健康路131號,國防部,25.05437200000000000,121.55767200000000000,特優級,女廁所,醫院
臺北市,松山區,龍田里,A010000296,三軍總醫院松山分院眼科旁男,臺北市松山區健康路131號,國防部,25.05394000000000000,121.55770500000000000,特優級,男廁所,醫院
臺北市,北投區,榮華里,A120000103,振興醫院7號,臺北市北投區振興街45號,縣市政府,25.11762800000000000,121.52237400000000000,特優級,女廁所,醫院
臺北市,北投區,榮華里,A120000100,振興醫院4號,臺北市北投區振興街45號,縣市政府,25.11762800000000000,121.52237400000000000,特優級,男廁所,醫院
臺北市,北投區,榮華里,A120000097,振興醫院1號,臺北市北投區振興街45號,縣市政府,25.11754300000000000,121.52240000000000000,特優級,男廁所,醫院
臺北市,北投區,一德里,A120000976,和信治癌中心醫院1001,臺北市北投區立德路125號,縣市政府,25.12834000000000000,121.47201000000000000,特優級,女廁所,醫院
臺北市,北投區,一德里,A120000973,和信治癌中心醫院B1002,臺北市北投區立德路125號,縣市政府,25.12834000000000000,121.47201000000000000,特優級,男廁所,醫院
宜蘭縣,蘇澳鎮,新城里,G030000073,武荖坑-雨天集合場旁女廁,270宜蘭縣蘇澳鎮新城里新城南路43-30號,縣市政府,24.60592907602430000,121.81299179792400000,特優級,女廁所,觀光地區及風景區
臺中市,南屯區,豐樂里,B070000083,豐饌御鴨樓2F(男廁),臺中市南屯區向心南路712-2號,縣市政府,24.12981565133750000,120.64408779144300000,特優級,男廁所,餐廳
嘉義縣,新港鄉,菜公村,Q070000196,中油新港站-女廁,嘉義縣新港鄉菜公村菜公厝64-1號,經濟部,23.55055291997450000,120.34674882888800000,特優級,女廁所,加油站
嘉義縣,阿里山鄉,樂野村,Q180000108,樂野村活動中心-男廁,嘉義縣阿里山鄉樂野村2鄰56號,縣市政府,23.46718900000000000,120.70317500000000000,特優級,男廁所,民眾團體活動場所
新北市,三重區,過田里,F020000364,新北市三重區衛生所-無障礙,新北市三重區中山路2之1號,縣市政府,25.06108200000000000,121.48847600000000000,特優級,無障礙廁所,公家機關設置供民眾使用者
新北市,三峽區,大埔里,F090000277,吉埔派出所-男.女廁,三峽區中正路2段451號,縣市政府,24.90817300000000000,121.36613600000000000,特優級,混合廁所,公家機關設置供民眾使用者
